{
  "type": "FeatureCollection",
  "crs": {
    "type": "name",
    "properties": {
      "name": "EPSG:2154"
    }
  },
  "features": [
    {
      "type": "Feature",
      "properties": {
        "method": "transverse height maximum"
      },
      "geometry": {
        "type": "LineString",
        "coordinates": [
          [
            847539.2592987171,
            6940000.0
          ],
          [
            847541.0004544352,
            6940012.5
          ],
          [
            847545.6743328043,
            6940037.5
          ],
          [
            847548.7927513155,
            6940062.5
          ],
          [
            847549.9823177729,
            6940087.5
          ],
          [
            847550.31255959,
            6940112.5
          ],
          [
            847550.5487571948,
            6940137.5
          ],
          [
            847551.057921358,
            6940162.5
          ],
          [
            847552.0681862062,
            6940187.5
          ],
          [
            847553.5967881584,
            6940212.5
          ],
          [
            847554.6397230844,
            6940237.5
          ],
          [
            847552.9561934283,
            6940262.5
          ],
          [
            847548.0751404475,
            6940287.5
          ]
        ]
      }
    },
    {
      "type": "Feature",
      "properties": {
        "method": "transverse height maximum"
      },
      "geometry": {
        "type": "LineString",
        "coordinates": [
          [
            848649.5684866448,
            6940000.0
          ],
          [
            848652.5115505776,
            6940012.500000001
          ],
          [
            848655.3766784009,
            6940037.5
          ],
          [
            848655.6620895329,
            6940062.5
          ],
          [
            848654.4067354057,
            6940087.5
          ]
        ]
      }
    },
    {
      "type": "Feature",
      "properties": {
        "method": "transverse height maximum"
      },
      "geometry": {
        "type": "LineString",
        "coordinates": [
          [
            846337.5,
            6940482.3826528415
          ],
          [
            846341.805193881,
            6940487.5
          ],
          [
            846362.5,
            6940512.033097483
          ],
          [
            846362.8647251126,
            6940512.5
          ],
          [
            846382.3367286844,
            6940537.499999999
          ],
          [
            846387.5,
            6940544.270731847
          ],
          [
            846400.725507775,
            6940562.5
          ],
          [
            846412.5,
            6940578.857694436
          ],
          [
            846418.4088466854,
            6940587.5
          ],
          [
            846435.7169437855,
            6940612.5
          ],
          [
            846437.5,
            6940615.015437963
          ],
          [
            846452.782238008,
            6940637.5
          ],
          [
            846462.5,
            6940651.783631363
          ],
          [
            846469.7172162614,
            6940662.5
          ],
          [
            846485.824274575,
            6940687.5
          ],
          [
            846487.5000000001,
            6940690.309558654
          ]
        ]
      }
    },
    {
      "type": "Feature",
      "properties": {
        "method": "transverse height maximum"
      },
      "geometry": {
        "type": "LineString",
        "coordinates": [
          [
            846919.5722963226,
            6940962.5
          ],
          [
            846937.5,
            6940978.885042895
          ],
          [
            846944.8720038458,
            6940987.5
          ],
          [
            846954.7163883545,
            6941012.5
          ],
          [
            846961.6332171438,
            6941037.5
          ],
          [
            846962.5,
            6941040.575134877
          ],
          [
            846967.778101693,
            6941062.5
          ],
          [
            846974.1560878396,
            6941087.5
          ],
          [
            846981.9443854023,
            6941112.500000001
          ],
          [
            846987.5,
            6941124.588386039
          ],
          [
            846993.2579263217,
            6941137.5
          ],
          [
            847010.4529169651,
            6941162.5
          ]
        ]
      }
    },
    {
      "type": "Feature",
      "properties": {
        "method": "transverse height maximum"
      },
      "geometry": {
        "type": "LineString",
        "coordinates": [
          [
            847037.4999999999,
            6941193.228402468
          ],
          [
            847055.5116934923,
            6941212.5
          ],
          [
            847062.5,
            6941219.686787164
          ],
          [
            847079.130184562,
            6941237.499999999
          ],
          [
            847087.5,
            6941246.83706065
          ],
          [
            847101.2439318103,
            6941262.5
          ],
          [
            847112.5,
            6941276.424108251
          ],
          [
            847121.654042244,
            6941287.5
          ],
          [
            847137.5,
            6941308.8426078595
          ],
          [
            847140.395555806,
            6941312.5
          ],
          [
            847157.865364134,
            6941337.5
          ],
          [
            847162.5,
            6941344.541349656
          ],
          [
            847175.3788362072,
            6941362.5
          ],
          [
            847187.5,
            6941378.619418154
          ],
          [
            847194.5388137077,
            6941387.5
          ],
          [
            847212.5,
            6941407.917723538
          ],
          [
            847216.4334123281,
            6941412.5
          ],
          [
            847237.5,
            6941434.722438403
          ],
          [
            847240.0218190918,
            6941437.5
          ],
          [
            847262.5,
            6941460.945743083
          ]
        ]
      }
    },
    {
      "type": "Feature",
      "properties": {
        "method": "transverse height maximum"
      },
      "geometry": {
        "type": "LineString",
        "coordinates": [
          [
            845093.7443494996,
            6941387.5
          ],
          [
            845087.5,
            6941393.19347929
          ],
          [
            845065.4589443948,
            6941412.5
          ],
          [
            845062.5,
            6941415.702839915
          ],
          [
            845041.7141167225,
            6941437.5
          ],
          [
            845037.5,
            6941443.906029234
          ],
          [
            845025.468825464,
            6941462.5
          ],
          [
            845014.7803802665,
            6941487.5
          ],
          [
            845012.5,
            6941493.903547922
          ],
          [
            845005.1491157813,
            6941512.500000001
          ],
          [
            845000.0,
            6941527.010614937
          ]
        ]
      }
    },
    {
      "type": "Feature",
      "properties": {
        "method": "transverse height maximum"
      },
      "geometry": {
        "type": "LineString",
        "coordinates": [
          [
            849068.7097189225,
            6941712.5
          ],
          [
            849062.5,
            6941720.305392934
          ],
          [
            849047.3204433037,
            6941737.5
          ],
          [
            849037.5,
            6941752.026241239
          ],
          [
            849029.3335667766,
            6941762.5
          ],
          [
            849014.5474872406,
            6941787.5
          ],
          [
            849012.5,
            6941791.611616019
          ],
          [
            849000.1280913171,
            6941812.5
          ],
          [
            848988.2125923319,
            6941837.5
          ],
          [
            848987.5,
            6941839.007797618
          ],
          [
            848973.7746047596,
            6941862.5
          ],
          [
            848962.5,
            6941886.484127629
          ],
          [
            848961.8833349546,
            6941887.5
          ],
          [
            848947.9026908403,
            6941912.5
          ],
          [
            848937.6582789832,
            6941937.5
          ],
          [
            848937.5,
            6941937.948450548
          ],
          [
            848925.4115260295,
            6941962.5
          ],
          [
            848916.3926824944,
            6941987.5
          ],
          [
            848912.5,
            6942001.899246445
          ],
          [
            848908.0035994853,
            6942012.5
          ],
          [
            848900.1100406968,
            6942037.499999999
          ]
        ]
      }
    },
    {
      "type": "Feature",
      "properties": {
        "method": "transverse height maximum"
      },
      "geometry": {
        "type": "LineString",
        "coordinates": [
          [
            846006.0142144976,
            6942162.499999999
          ],
          [
            846003.1363596683,
            6942187.5
          ],
          [
            846001.9313392548,
            6942212.499999999
          ],
          [
            846001.9238312602,
            6942237.5
          ],
          [
            846002.8191498608,
            6942262.5
          ],
          [
            846004.7013769256,
            6942287.5
          ],
          [
            846007.844245936,
            6942312.5
          ],
          [
            846012.5,
            6942337.179651934
          ],
          [
            846012.5550104999,
            6942337.5
          ],
          [
            846018.9464539993,
            6942362.5
          ],
          [
            846027.4659895482,
            6942387.5
          ],
          [
            846037.5,
            6942408.320173972
          ],
          [
            846039.7828681689,
            6942412.5
          ],
          [
            846057.8449802587,
            6942437.5
          ],
          [
            846062.5,
            6942443.013016261
          ]
        ]
      }
    },
    {
      "type": "Feature",
      "properties": {
        "method": "transverse height maximum"
      },
      "geometry": {
        "type": "LineString",
        "coordinates": [
          [
            848253.0254583819,
            6942512.5
          ],
          [
            848240.1052640738,
            6942537.5
          ],
          [
            848237.5,
            6942545.554114408
          ],
          [
            848232.8565284836,
            6942562.5
          ],
          [
            848228.0782747664,
            6942587.500000001
          ],
          [
            848225.4515408889,
            6942612.5
          ],
          [
            848225.2313163809,
            6942637.5
          ],
          [
            848227.686343862,
            6942662.5
          ],
          [
            848231.7663066072,
            6942687.5
          ],
          [
            848235.9703328724,
            6942712.5
          ],
          [
            848237.5,
            6942721.54899612
          ],
          [
            848240.0707250527,
            6942737.5
          ]
        ]
      }
    },
    {
      "type": "Feature",
      "properties": {
        "method": "transverse height maximum"
      },
      "geometry": {
        "type": "LineString",
        "coordinates": [
          [
            847389.6626128734,
            6942537.5
          ],
          [
            847387.5,
            6942544.412498296
          ],
          [
            847381.5966938279,
            6942562.5
          ],
          [
            847371.2108983799,
            6942587.5
          ],
          [
            847362.5,
            6942606.881749064
          ],
          [
            847359.873446104,
            6942612.5
          ],
          [
            847347.6570132609,
            6942637.5
          ],
          [
            847337.5,
            6942660.142881564
          ],
          [
            847336.3361753052,
            6942662.500000001
          ],
          [
            847324.2663857393,
            6942687.5
          ],
          [
            847313.98407488,
            6942712.5
          ],
          [
            847312.5,
            6942716.595414022
          ],
          [
            847304.0432379754,
            6942737.500000001
          ],
          [
            847295.974734733,
            6942762.5
          ],
          [
            847289.4644098481,
            6942787.5
          ]
        ]
      }
    },
    {
      "type": "Feature",
      "properties": {
        "method": "transverse height maximum"
      },
      "geometry": {
        "type": "LineString",
        "coordinates": [
          [
            847237.5,
            6942966.839946531
          ],
          [
            847216.8309384272,
            6942987.5
          ],
          [
            847216.8995244916,
            6943012.5
          ],
          [
            847221.8141702972,
            6943037.5
          ],
          [
            847226.2557459406,
            6943062.5
          ],
          [
            847230.1725868913,
            6943087.5
          ],
          [
            847233.7096070347,
            6943112.5
          ],
          [
            847236.6907110934,
            6943137.5
          ],
          [
            847237.5,
            6943148.044828527
          ],
          [
            847238.4149038445,
            6943162.5
          ],
          [
            847238.6663256756,
            6943187.5
          ],
          [
            847237.6796526463,
            6943212.5
          ],
          [
            847237.5,
            6943215.16274308
          ],
          [
            847235.8442591539,
            6943237.5
          ],
          [
            847234.0176993075,
            6943262.5
          ],
          [
            847232.7904316657,
            6943287.5
          ],
          [
            847232.7091365356,
            6943312.5
          ],
          [
            847234.2671287414,
            6943337.5
          ],
          [
            847237.4731282982,
            6943362.5
          ],
          [
            847237.5,
            6943362.663840229
          ],
          [
            847241.2840517163,
            6943387.5
          ],
          [
            847245.6353261846,
            6943412.5
          ],
          [
            847250.8308186217,
            6943437.500000001
          ],
          [
            847258.0552423318,
            6943462.5
          ],
          [
            847262.5,
            6943473.237812376
          ],
          [
            847267.7828420762,
            6943487.5
          ],
          [
            847280.8053874805,
            6943512.499999999
          ],
          [
            847287.5,
            6943522.6618427
          ],
          [
            847296.0236231663,
            6943537.5
          ],
          [
            847312.5,
            6943562.399874836
          ],
          [
            847312.5583420127,
            6943562.5
          ],
          [
            847329.0654162697,
            6943587.5
          ],
          [
            847337.4999999999,
            6943599.042307596
          ],
          [
            847346.647132634,
            6943612.5
          ],
          [
            847362.5,
            6943633.314343302
          ],
          [
            847365.558218275,
            6943637.5
          ],
          [
            847385.5307259425,
            6943662.5
          ],
          [
            847387.5,
            6943664.8236777
          ],
          [
            847406.0115139874,
            6943687.5
          ],
          [
            847412.5,
            6943695.107198129
          ],
          [
            847426.885681707,
            6943712.5
          ],
          [
            847437.5,
            6943724.935105578
          ],
          [
            847448.0742958356,
            6943737.5
          ],
          [
            847462.5,
            6943754.425338899
          ],
          [
            847469.4928665461,
            6943762.5
          ],
          [
            847487.5,
            6943783.15183409
          ],
          [
            847491.5048826709,
            6943787.5
          ],
          [
            847512.5,
            6943810.167031669
          ]
        ]
      }
    },
    {
      "type": "Feature",
      "properties": {
        "method": "transverse height maximum"
      },
      "geometry": {
        "type": "LineString",
        "coordinates": [
          [
            845685.4581050193,
            6943187.5
          ],
          [
            845680.1366162734,
            6943212.5
          ],
          [
            845686.4318727386,
            6943237.5
          ],
          [
            845687.4999999999,
            6943238.972761776
          ],
          [
            845712.5,
            6943255.266282015
          ],
          [
            845720.6836237169,
            6943262.5
          ],
          [
            845734.1784309763,
            6943287.5
          ],
          [
            845730.7063083248,
            6943312.5
          ],
          [
            845714.589821123,
            6943337.5
          ],
          [
            845712.5,
            6943339.35684929
          ],
          [
            845690.5339922092,
            6943362.5
          ],
          [
            845687.5,
            6943365.837067265
          ],
          [
            845675.9607961782,
            6943387.5
          ],
          [
            845668.4406844855,
            6943412.5
          ],
          [
            845663.7595796718,
            6943437.5
          ]
        ]
      }
    },
    {
      "type": "Feature",
      "properties": {
        "method": "transverse height maximum"
      },
      "geometry": {
        "type": "LineString",
        "coordinates": [
          [
            848612.5,
            6943314.838359431
          ],
          [
            848627.1280820163,
            6943337.5
          ],
          [
            848637.5,
            6943353.63987537
          ],
          [
            848643.1888804825,
            6943362.5
          ],
          [
            848658.9122621424,
            6943387.5
          ],
          [
            848662.5,
            6943392.978816424
          ],
          [
            848675.4380265673,
            6943412.5
          ],
          [
            848687.5,
            6943429.340241324
          ],
          [
            848693.5393648052,
            6943437.5
          ],
          [
            848712.5,
            6943461.2144170925
          ],
          [
            848713.5465331541,
            6943462.5
          ],
          [
            848734.9987792559,
            6943487.500000001
          ],
          [
            848737.5,
            6943490.306887694
          ],
          [
            848756.1229602594,
            6943512.5
          ],
          [
            848762.5,
            6943520.238606443
          ],
          [
            848774.8423065862,
            6943537.5
          ],
          [
            848787.5,
            6943555.9515080545
          ],
          [
            848791.4057879046,
            6943562.5
          ],
          [
            848807.0581897702,
            6943587.5
          ],
          [
            848812.4999999999,
            6943595.393491054
          ],
          [
            848823.8308679282,
            6943612.5
          ],
          [
            848837.5,
            6943630.817429198
          ],
          [
            848842.489817261,
            6943637.5
          ],
          [
            848862.5,
            6943662.296948991
          ],
          [
            848862.6659863844,
            6943662.5
          ],
          [
            848883.4628015205,
            6943687.5
          ],
          [
            848887.5,
            6943692.380678122
          ],
          [
            848904.2021117953,
            6943712.5
          ],
          [
            848912.5,
            6943723.043005974
          ],
          [
            848923.9911317498,
            6943737.5
          ],
          [
            848937.5,
            6943756.169723344
          ],
          [
            848942.2044125305,
            6943762.5
          ],
          [
            848958.7915776003,
            6943787.5
          ],
          [
            848962.5,
            6943793.616778907
          ],
          [
            848974.4910909154,
            6943812.5
          ],
          [
            848987.5,
            6943833.845835353
          ],
          [
            848989.8663337348,
            6943837.5
          ],
          [
            849006.0826680784,
            6943862.5
          ],
          [
            849012.5,
            6943871.946095121
          ],
          [
            849023.2065081657,
            6943887.5
          ],
          [
            849037.5,
            6943908.222949527
          ],
          [
            849040.4449759618,
            6943912.5
          ],
          [
            849057.0248935038,
            6943937.5
          ],
          [
            849062.4999999999,
            6943946.158857341
          ],
          [
            849072.8627147397,
            6943962.5
          ],
          [
            849087.5,
            6943986.393181959
          ],
          [
            849088.1882719197,
            6943987.5
          ],
          [
            849104.0007356001,
            6944012.5
          ],
          [
            849112.5,
            6944025.232038308
          ],
          [
            849121.0172474864,
            6944037.5
          ],
          [
            849137.5,
            6944059.363314026
          ],
          [
            849140.0372219166,
            6944062.5
          ],
          [
            849161.9277653602,
            6944087.5
          ]
        ]
      }
    },
    {
      "type": "Feature",
      "properties": {
        "method": "transverse height maximum"
      },
      "geometry": {
        "type": "LineString",
        "coordinates": [
          [
            846486.6481026456,
            6944087.499999999
          ],
          [
            846465.1894881594,
            6944112.5
          ],
          [
            846462.5,
            6944116.903324335
          ],
          [
            846449.0889100467,
            6944137.5
          ],
          [
            846438.1470010637,
            6944162.5
          ],
          [
            846437.5,
            6944167.497273015
          ],
          [
            846435.2227738344,
            6944187.5
          ],
          [
            846437.5,
            6944201.113413711
          ],
          [
            846440.5307342228,
            6944212.5
          ],
          [
            846447.1155785053,
            6944237.5
          ],
          [
            846442.7012572718,
            6944262.5
          ],
          [
            846437.5,
            6944271.57849806
          ],
          [
            846430.9366663864,
            6944287.499999999
          ],
          [
            846417.699131654,
            6944312.5
          ],
          [
            846412.5,
            6944321.940914016
          ],
          [
            846404.8494987689,
            6944337.5
          ],
          [
            846391.8703952541,
            6944362.5
          ],
          [
            846387.5,
            6944369.294905141
          ],
          [
            846378.7391039233,
            6944387.500000001
          ],
          [
            846363.6445609457,
            6944412.5
          ],
          [
            846362.5,
            6944414.360876079
          ]
        ]
      }
    },
    {
      "type": "Feature",
      "properties": {
        "method": "transverse height maximum"
      },
      "geometry": {
        "type": "LineString",
        "coordinates": [
          [
            848354.5513550091,
            6944262.499999999
          ],
          [
            848361.8491255405,
            6944287.499999999
          ],
          [
            848362.5,
            6944289.074523331
          ],
          [
            848371.6564857311,
            6944312.5
          ],
          [
            848384.5156371184,
            6944337.5
          ],
          [
            848387.4999999999,
            6944342.754390291
          ],
          [
            848399.3754419057,
            6944362.5
          ],
          [
            848412.5,
            6944383.070956974
          ],
          [
            848415.5089461041,
            6944387.5
          ],
          [
            848431.0822659803,
            6944412.5
          ],
          [
            848437.5,
            6944424.465270985
          ],
          [
            848443.8095748187,
            6944437.5
          ],
          [
            848452.9468457334,
            6944462.5
          ],
          [
            848459.6622261837,
            6944487.499999999
          ],
          [
            848462.5,
            6944503.873544349
          ],
          [
            848463.8350432635,
            6944512.5
          ],
          [
            848466.040644027,
            6944537.5
          ],
          [
            848467.7258855558,
            6944562.5
          ],
          [
            848470.1101711385,
            6944587.5
          ],
          [
            848474.2125968348,
            6944612.5
          ],
          [
            848479.967585072,
            6944637.5
          ],
          [
            848486.0384013565,
            6944662.5
          ],
          [
            848487.4999999999,
            6944670.026888517
          ],
          [
            848490.3450757143,
            6944687.5
          ],
          [
            848493.1835293717,
            6944712.5
          ],
          [
            848495.0125536037,
            6944737.5
          ]
        ]
      }
    },
    {
      "type": "Feature",
      "properties": {
        "method": "transverse height maximum"
      },
      "geometry": {
        "type": "LineString",
        "coordinates": [
          [
            846187.5,
            6944574.180257683
          ],
          [
            846172.6569104561,
            6944587.5
          ],
          [
            846162.5,
            6944598.781744832
          ],
          [
            846153.6417023544,
            6944612.5
          ],
          [
            846140.007889604,
            6944637.5
          ],
          [
            846137.5,
            6944641.977625849
          ],
          [
            846127.9750444463,
            6944662.5
          ],
          [
            846115.6942055239,
            6944687.5
          ],
          [
            846112.5,
            6944693.454639687
          ],
          [
            846102.5131598448,
            6944712.5
          ],
          [
            846088.7285254285,
            6944737.5
          ],
          [
            846087.5,
            6944739.636724872
          ],
          [
            846073.4552931536,
            6944762.5
          ],
          [
            846062.5,
            6944780.088780353
          ],
          [
            846057.3219124267,
            6944787.500000001
          ],
          [
            846039.8304038515,
            6944812.5
          ],
          [
            846037.5,
            6944815.890810451
          ],
          [
            846020.4401594881,
            6944837.5
          ],
          [
            846012.5,
            6944848.380586744
          ],
          [
            846000.408150036,
            6944862.5
          ],
          [
            845987.5,
            6944880.419598053
          ],
          [
            845981.4645281062,
            6944887.5
          ],
          [
            845965.2828452132,
            6944912.5
          ],
          [
            845962.5,
            6944917.552472278
          ],
          [
            845950.0183907854,
            6944937.5
          ],
          [
            845937.5000000001,
            6944959.335607792
          ],
          [
            845935.3066793848,
            6944962.499999999
          ],
          [
            845918.9358700244,
            6944987.5
          ],
          [
            845912.5,
            6944998.462108633
          ],
          [
            845911.4392379819,
            6945000.0
          ]
        ]
      }
    },
    {
      "type": "Feature",
      "properties": {
        "method": "transverse height maximum"
      },
      "geometry": {
        "type": "LineString",
        "coordinates": [
          [
            849650.9868209813,
            6944587.5
          ],
          [
            849652.1442878599,
            6944612.5
          ],
          [
            849656.8270703626,
            6944637.500000001
          ],
          [
            849662.5,
            6944650.891829592
          ],
          [
            849667.0059006345,
            6944662.5
          ],
          [
            849681.9278065608,
            6944687.5
          ],
          [
            849687.5000000001,
            6944694.240084032
          ],
          [
            849700.5713323731,
            6944712.5
          ],
          [
            849712.5,
            6944725.132314856
          ],
          [
            849722.9874270585,
            6944737.5
          ],
          [
            849737.5,
            6944751.036026178
          ],
          [
            849749.9691791888,
            6944762.5
          ]
        ]
      }
    },
    {
      "type": "Feature",
      "properties": {
        "method": "transverse height maximum"
      },
      "geometry": {
        "type": "LineString",
        "coordinates": [
          [
            849884.9217013082,
            6944912.5
          ],
          [
            849883.6686222556,
            6944937.5
          ],
          [
            849887.5,
            6944955.380973489
          ],
          [
            849889.0198547657,
            6944962.5
          ],
          [
            849897.7197761635,
            6944987.5
          ],
          [
            849902.360624461,
            6945000.0
          ]
        ]
      }
    },
    {
      "type": "Feature",
      "properties": {
        "method": "transverse height maximum"
      },
      "geometry": {
        "type": "LineString",
        "coordinates": [
          [
            845087.5,
            6940007.170490699
          ],
          [
            845082.949055034,
            6940012.5
          ],
          [
            845062.5,
            6940032.83182473
          ],
          [
            845053.2217392052,
            6940037.5
          ],
          [
            845037.5,
            6940043.339497967
          ],
          [
            845012.5,
            6940045.536337233
          ],
          [
            845000.0,
            6940045.3046004865
          ]
        ]
      }
    },
    {
      "type": "Feature",
      "properties": {
        "method": "transverse height maximum"
      },
      "geometry": {
        "type": "LineString",
        "coordinates": [
          [
            846212.5,
            6940878.450873661
          ],
          [
            846187.5,
            6940881.380872506
          ],
          [
            846162.5,
            6940886.617960685
          ],
          [
            846159.4953747157,
            6940887.500000001
          ],
          [
            846137.5,
            6940892.426073765
          ],
          [
            846112.5,
            6940899.753685311
          ],
          [
            846087.5,
            6940909.162568535
          ],
          [
            846079.5786584254,
            6940912.499999999
          ],
          [
            846062.5,
            6940918.584977946
          ],
          [
            846037.5,
            6940928.691880442
          ],
          [
            846017.6671428408,
            6940937.5
          ],
          [
            846012.5,
            6940939.517301959
          ],
          [
            845987.5,
            6940948.299874213
          ],
          [
            845962.5,
            6940956.409777634
          ],
          [
            845939.2140796065,
            6940962.5
          ],
          [
            845937.5,
            6940962.8622043645
          ],
          [
            845912.5,
            6940966.498913434
          ],
          [
            845887.5,
            6940969.325369114
          ],
          [
            845862.5,
            6940971.006957235
          ],
          [
            845837.5,
            6940966.892690052
          ]
        ]
      }
    },
    {
      "type": "Feature",
      "properties": {
        "method": "transverse height maximum"
      },
      "geometry": {
        "type": "LineString",
        "coordinates": [
          [
            846887.5,
            6940938.805648909
          ],
          [
            846885.9114557403,
            6940937.5
          ],
          [
            846862.5,
            6940919.725690849
          ],
          [
            846853.2426036241,
            6940912.5
          ],
          [
            846837.5000000001,
            6940901.471769483
          ],
          [
            846816.9982743865,
            6940887.5
          ],
          [
            846812.5,
            6940884.692053135
          ],
          [
            846787.5,
            6940869.400504516
          ],
          [
            846775.9026711917,
            6940862.5
          ],
          [
            846762.5,
            6940854.903041348
          ],
          [
            846737.5,
            6940841.358907284
          ],
          [
            846730.2359666645,
            6940837.5
          ],
          [
            846712.5,
            6940828.37341057
          ],
          [
            846687.5,
            6940816.309293859
          ],
          [
            846679.2023323782,
            6940812.5
          ],
          [
            846662.5,
            6940804.949540638
          ],
          [
            846637.5,
            6940794.922395358
          ],
          [
            846616.2870190946,
            6940787.499999999
          ],
          [
            846612.5,
            6940786.09909974
          ],
          [
            846587.4999999999,
            6940778.239925208
          ],
          [
            846562.5,
            6940771.344953542
          ],
          [
            846537.5,
            6940763.815625512
          ]
        ]
      }
    },
    {
      "type": "Feature",
      "properties": {
        "method": "transverse height maximum"
      },
      "geometry": {
        "type": "LineString",
        "coordinates": [
          [
            850000.0,
            6941157.610163626
          ],
          [
            849987.5,
            6941158.664102907
          ],
          [
            849962.5,
            6941161.107182224
          ],
          [
            849950.2340423597,
            6941162.5
          ],
          [
            849937.5,
            6941163.687663211
          ],
          [
            849912.5,
            6941166.232178977
          ],
          [
            849887.5,
            6941168.980059488
          ],
          [
            849862.5,
            6941171.934932403
          ],
          [
            849837.5,
            6941175.131154579
          ],
          [
            849812.5,
            6941178.649347602
          ],
          [
            849787.5,
            6941182.629171017
          ],
          [
            849762.5,
            6941187.195172623
          ],
          [
            849760.8075980619,
            6941187.5
          ],
          [
            849737.5,
            6941190.812469752
          ],
          [
            849712.5,
            6941193.641813845
          ],
          [
            849687.5,
            6941193.374235528
          ],
          [
            849662.5,
            6941187.85388508
          ],
          [
            849661.5948457844,
            6941187.5
          ],
          [
            849637.5,
            6941175.761738581
          ],
          [
            849612.5,
            6941162.952896488
          ],
          [
            849611.6586965374,
            6941162.5
          ],
          [
            849587.5,
            6941147.95926577
          ],
          [
            849566.3405700399,
            6941137.5
          ],
          [
            849562.5,
            6941135.362077284
          ],
          [
            849537.5,
            6941122.859466598
          ],
          [
            849512.5,
            6941112.940854805
          ],
          [
            849511.3054958849,
            6941112.5
          ],
          [
            849487.5,
            6941102.37825494
          ],
          [
            849462.5,
            6941093.740286523
          ],
          [
            849441.1372199331,
            6941087.5
          ],
          [
            849437.5,
            6941086.218625476
          ],
          [
            849412.5,
            6941078.329859383
          ],
          [
            849387.5,
            6941071.974781791
          ],
          [
            849362.5,
            6941066.784033017
          ],
          [
            849337.8058610116,
            6941062.5
          ],
          [
            849337.5,
            6941062.429659495
          ],
          [
            849312.5,
            6941057.374591862
          ],
          [
            849287.5,
            6941053.120277148
          ],
          [
            849262.5,
            6941049.464647088
          ],
          [
            849237.5,
            6941046.2836995395
          ],
          [
            849212.5,
            6941043.463439372
          ],
          [
            849187.5,
            6941040.801368124
          ],
          [
            849162.5,
            6941038.057157832
          ],
          [
            849157.4243500594,
            6941037.5
          ],
          [
            849137.5,
            6941034.563970347
          ],
          [
            849112.4999999999,
            6941031.227290629
          ],
          [
            849087.5,
            6941028.382144099
          ],
          [
            849062.5,
            6941025.918021791
          ],
          [
            849037.5,
            6941023.497497033
          ],
          [
            849012.5,
            6941020.754587684
          ],
          [
            848987.5,
            6941017.624695918
          ]
        ]
      }
    },
    {
      "type": "Feature",
      "properties": {
        "method": "transverse height maximum"
      },
      "geometry": {
        "type": "LineString",
        "coordinates": [
          [
            847462.5,
            6941948.3485661335
          ],
          [
            847437.5,
            6941948.654339421
          ],
          [
            847412.5,
            6941949.634024913
          ],
          [
            847387.5,
            6941951.27583426
          ],
          [
            847362.5,
            6941953.500561185
          ],
          [
            847337.5,
            6941956.075485061
          ],
          [
            847312.5000000001,
            6941958.597299918
          ],
          [
            847287.5,
            6941960.762006728
          ],
          [
            847266.709383177,
            6941962.5
          ],
          [
            847262.5,
            6941962.814986877
          ],
          [
            847237.5,
            6941965.273602647
          ],
          [
            847212.5,
            6941968.951595873
          ],
          [
            847187.5,
            6941974.071866493
          ],
          [
            847162.5,
            6941980.551354407
          ],
          [
            847139.0765395397,
            6941987.5
          ],
          [
            847137.5,
            6941987.970115984
          ],
          [
            847112.5,
            6941995.193267787
          ],
          [
            847087.5,
            6942002.22448112
          ],
          [
            847062.5,
            6942005.982574238
          ],
          [
            847040.776603676,
            6941987.5
          ]
        ]
      }
    },
    {
      "type": "Feature",
      "properties": {
        "method": "transverse height maximum"
      },
      "geometry": {
        "type": "LineString",
        "coordinates": [
          [
            847962.5,
            6942209.663440079
          ],
          [
            847937.5,
            6942194.146457513
          ],
          [
            847922.8144637852,
            6942187.5
          ],
          [
            847912.5,
            6942183.001019823
          ],
          [
            847887.5,
            6942174.125355267
          ],
          [
            847862.5,
            6942166.68883892
          ],
          [
            847845.4598703773,
            6942162.5
          ],
          [
            847837.5,
            6942160.547325188
          ],
          [
            847812.5,
            6942155.1223244555
          ],
          [
            847787.5,
            6942147.568294757
          ],
          [
            847777.027714137,
            6942137.5
          ]
        ]
      }
    },
    {
      "type": "Feature",
      "properties": {
        "method": "transverse height maximum"
      },
      "geometry": {
        "type": "LineString",
        "coordinates": [
          [
            848837.5,
            6942434.232151968
          ],
          [
            848812.5,
            6942432.631168406
          ],
          [
            848787.5,
            6942431.580774246
          ],
          [
            848762.5,
            6942430.779983451
          ],
          [
            848737.5,
            6942430.81537017
          ],
          [
            848712.5,
            6942431.974709111
          ],
          [
            848687.5,
            6942434.084572915
          ],
          [
            848662.5,
            6942436.939446505
          ],
          [
            848658.5245282179,
            6942437.5
          ],
          [
            848637.5,
            6942440.157982249
          ],
          [
            848612.5,
            6942443.840041318
          ],
          [
            848587.5,
            6942447.967180089
          ],
          [
            848562.4999999999,
            6942452.361842927
          ],
          [
            848537.5,
            6942456.591428495
          ],
          [
            848512.5,
            6942460.387956087
          ],
          [
            848497.701638853,
            6942462.5
          ],
          [
            848487.5,
            6942463.83715352
          ],
          [
            848462.5,
            6942467.176307848
          ],
          [
            848437.5,
            6942470.910220667
          ],
          [
            848412.4999999999,
            6942475.264341812
          ]
        ]
      }
    },
    {
      "type": "Feature",
      "properties": {
        "method": "transverse height maximum"
      },
      "geometry": {
        "type": "LineString",
        "coordinates": [
          [
            845462.5,
            6942881.654148764
          ],
          [
            845437.5,
            6942883.858513642
          ],
          [
            845412.5,
            6942884.006218519
          ],
          [
            845387.5,
            6942880.81210471
          ],
          [
            845362.5,
            6942874.651135332
          ],
          [
            845337.5,
            6942866.688173264
          ],
          [
            845324.56053155,
            6942862.5
          ],
          [
            845312.5,
            6942859.12101006
          ],
          [
            845287.5,
            6942852.981623603
          ],
          [
            845262.5,
            6942848.082304592
          ],
          [
            845237.5,
            6942844.827541348
          ]
        ]
      }
    },
    {
      "type": "Feature",
      "properties": {
        "method": "transverse height maximum"
      },
      "geometry": {
        "type": "LineString",
        "coordinates": [
          [
            849012.5,
            6943009.548387667
          ],
          [
            848987.5,
            6943006.418156843
          ],
          [
            848962.5,
            6943006.264874282
          ],
          [
            848937.5,
            6943010.92088602
          ],
          [
            848932.8846701214,
            6943012.5
          ],
          [
            848912.5,
            6943020.041142959
          ],
          [
            848887.5,
            6943030.419899199
          ],
          [
            848863.3976538156,
            6943037.5
          ],
          [
            848862.5,
            6943037.752471422
          ],
          [
            848837.5,
            6943041.208019839
          ],
          [
            848812.5,
            6943042.747033849
          ],
          [
            848787.5,
            6943043.548804122
          ],
          [
            848762.5,
            6943044.229943383
          ],
          [
            848737.5,
            6943045.351017674
          ],
          [
            848712.5,
            6943047.4459737055
          ],
          [
            848687.5,
            6943050.895433285
          ],
          [
            848662.5,
            6943055.897118847
          ],
          [
            848637.5,
            6943062.43872292
          ],
          [
            848637.2749908182,
            6943062.5
          ],
          [
            848612.5,
            6943069.9435141375
          ],
          [
            848587.5,
            6943076.904506005
          ],
          [
            848562.5,
            6943079.553944932
          ],
          [
            848537.5,
            6943073.569384491
          ],
          [
            848515.3776049478,
            6943062.500000001
          ],
          [
            848512.5,
            6943061.141386121
          ],
          [
            848487.5,
            6943046.09895817
          ],
          [
            848474.4495967234,
            6943037.500000001
          ],
          [
            848462.5,
            6943030.16924601
          ],
          [
            848437.5,
            6943014.964722747
          ],
          [
            848433.0468510243,
            6943012.5
          ],
          [
            848412.5,
            6943001.324776702
          ],
          [
            848387.5,
            6942989.733917602
          ],
          [
            848381.2758855023,
            6942987.5
          ],
          [
            848362.5,
            6942979.599867802
          ],
          [
            848337.5,
            6942971.011896166
          ]
        ]
      }
    },
    {
      "type": "Feature",
      "properties": {
        "method": "transverse height maximum"
      },
      "geometry": {
        "type": "LineString",
        "coordinates": [
          [
            849330.7285955005,
            6943537.5
          ],
          [
            849314.179370688,
            6943512.5
          ],
          [
            849312.5,
            6943510.602341426
          ],
          [
            849288.5774164266,
            6943487.5
          ],
          [
            849287.5,
            6943486.625406528
          ],
          [
            849262.5,
            6943469.32082165
          ],
          [
            849250.7166618201,
            6943462.5
          ],
          [
            849237.5,
            6943455.931178545
          ],
          [
            849212.5,
            6943446.817961728
          ],
          [
            849187.5,
            6943441.585797607
          ],
          [
            849162.5,
            6943437.7729408825
          ],
          [
            849161.6933667574,
            6943437.5
          ],
          [
            849137.5,
            6943428.387921856
          ],
          [
            849113.3392142144,
            6943412.5
          ]
        ]
      }
    },
    {
      "type": "Feature",
      "properties": {
        "method": "transverse height maximum"
      },
      "geometry": {
        "type": "LineString",
        "coordinates": [
          [
            845690.3817825398,
            6943637.5
          ],
          [
            845687.5,
            6943640.717895903
          ],
          [
            845664.1846516312,
            6943662.5
          ],
          [
            845662.5,
            6943663.661316304
          ],
          [
            845637.5,
            6943679.558292665
          ],
          [
            845623.3235915768,
            6943687.5
          ],
          [
            845612.5,
            6943692.722097811
          ],
          [
            845587.5,
            6943703.574454396
          ],
          [
            845565.8869298885,
            6943712.5
          ],
          [
            845562.5,
            6943713.763867748
          ],
          [
            845537.5,
            6943722.83882319
          ],
          [
            845512.5,
            6943732.460163069
          ],
          [
            845499.5677765837,
            6943737.5
          ],
          [
            845487.5,
            6943741.962334208
          ],
          [
            845462.5,
            6943751.165438306
          ],
          [
            845437.5,
            6943760.356535313
          ],
          [
            845431.388518862,
            6943762.500000001
          ],
          [
            845412.5,
            6943768.737515635
          ],
          [
            845387.5,
            6943777.0275695175
          ],
          [
            845362.5,
            6943785.738820491
          ],
          [
            845357.6636972575,
            6943787.5
          ],
          [
            845337.5,
            6943795.051301082
          ],
          [
            845312.5000000001,
            6943805.573632057
          ],
          [
            845297.2389267689,
            6943812.5
          ],
          [
            845287.5,
            6943817.208903242
          ],
          [
            845262.5,
            6943829.641190519
          ],
          [
            845247.3407869423,
            6943837.5
          ],
          [
            845237.5,
            6943842.735838862
          ],
          [
            845212.5,
            6943856.911380354
          ],
          [
            845202.9494408072,
            6943862.500000001
          ],
          [
            845187.5,
            6943870.4299692735
          ],
          [
            845162.5,
            6943880.934692955
          ],
          [
            845142.6500084433,
            6943887.5
          ],
          [
            845137.5,
            6943888.9767520875
          ],
          [
            845112.5,
            6943895.965120557
          ],
          [
            845087.5,
            6943903.751360471
          ],
          [
            845062.6343312742,
            6943912.5
          ],
          [
            845062.5,
            6943912.5432039155
          ],
          [
            845037.5,
            6943921.27435757
          ],
          [
            845012.5,
            6943932.377110815
          ],
          [
            845004.15093533,
            6943937.499999999
          ],
          [
            845000.0,
            6943939.9065192975
          ]
        ]
      }
    },
    {
      "type": "Feature",
      "properties": {
        "method": "transverse height maximum"
      },
      "geometry": {
        "type": "LineString",
        "coordinates": [
          [
            846181.2503663995,
            6943712.5
          ],
          [
            846173.3778553201,
            6943737.5
          ],
          [
            846162.5,
            6943744.137816121
          ],
          [
            846137.5,
            6943761.770311591
          ],
          [
            846137.0609279904,
            6943762.5
          ],
          [
            846132.1888343178,
            6943787.5
          ],
          [
            846137.5,
            6943795.614962879
          ],
          [
            846162.5,
            6943795.771032471
          ],
          [
            846172.891908393,
            6943787.5
          ],
          [
            846187.5,
            6943768.580674044
          ],
          [
            846191.01553846,
            6943762.5
          ],
          [
            846212.5,
            6943746.976168512
          ]
        ]
      }
    },
    {
      "type": "Feature",
      "properties": {
        "method": "transverse height maximum"
      },
      "geometry": {
        "type": "LineString",
        "coordinates": [
          [
            846055.1741291175,
            6943837.5
          ],
          [
            846037.5,
            6943817.293440491
          ],
          [
            846035.0250776362,
            6943812.5
          ],
          [
            846012.5,
            6943794.531003127
          ],
          [
            846004.9724099995,
            6943787.5
          ],
          [
            845987.5,
            6943776.018248517
          ],
          [
            845968.3645662582,
            6943762.499999999
          ],
          [
            845962.5,
            6943758.716505121
          ],
          [
            845937.5,
            6943741.483849024
          ],
          [
            845932.0800704911,
            6943737.5
          ],
          [
            845912.5,
            6943724.3043655185
          ],
          [
            845894.7625081534,
            6943712.500000001
          ],
          [
            845887.4999999999,
            6943708.279716906
          ],
          [
            845862.5,
            6943694.76571545
          ],
          [
            845847.5888999812,
            6943687.5
          ],
          [
            845837.5,
            6943683.251821793
          ],
          [
            845812.5,
            6943672.1085526515
          ],
          [
            845797.7502174891,
            6943662.500000001
          ]
        ]
      }
    },
    {
      "type": "Feature",
      "properties": {
        "method": "transverse height maximum"
      },
      "geometry": {
        "type": "LineString",
        "coordinates": [
          [
            849662.5,
            6944182.870248966
          ],
          [
            849637.5,
            6944173.810517902
          ],
          [
            849612.5,
            6944168.504928368
          ],
          [
            849587.5,
            6944167.871173656
          ],
          [
            849562.5,
            6944171.343357062
          ],
          [
            849537.5,
            6944177.951150239
          ],
          [
            849512.5,
            6944186.992853541
          ],
          [
            849511.3042618656,
            6944187.5
          ],
          [
            849487.5,
            6944197.3714810135
          ],
          [
            849462.5,
            6944209.211462577
          ]
        ]
      }
    },
    {
      "type": "Feature",
      "properties": {
        "method": "transverse height maximum"
      },
      "geometry": {
        "type": "LineString",
        "coordinates": [
          [
            848337.5,
            6944228.0907326
          ],
          [
            848322.2940786064,
            6944212.499999999
          ],
          [
            848312.5,
            6944204.828590466
          ],
          [
            848287.5,
            6944188.136629041
          ],
          [
            848286.4816443466,
            6944187.5
          ],
          [
            848262.5,
            6944173.277764057
          ],
          [
            848243.3934948075,
            6944162.5
          ],
          [
            848237.4999999999,
            6944159.131685065
          ],
          [
            848212.5,
            6944144.82195658
          ],
          [
            848199.2744282172,
            6944137.500000001
          ],
          [
            848187.5000000001,
            6944130.724283828
          ],
          [
            848162.5,
            6944117.019371321
          ],
          [
            848153.8383963752,
            6944112.5
          ],
          [
            848137.5,
            6944103.376940591
          ],
          [
            848112.5,
            6944090.273011402
          ],
          [
            848107.1600081129,
            6944087.5
          ],
          [
            848087.5,
            6944076.325172303
          ],
          [
            848062.5,
            6944062.979340043
          ],
          [
            848061.6316524197,
            6944062.5
          ],
          [
            848037.5,
            6944048.378553583
          ],
          [
            848018.590204329,
            6944037.499999999
          ],
          [
            848012.5,
            6944033.898762095
          ],
          [
            847987.5,
            6944018.727098745
          ],
          [
            847976.7921952102,
            6944012.5
          ],
          [
            847962.5,
            6944004.26552123
          ],
          [
            847937.5,
            6943991.709741119
          ],
          [
            847927.6684906177,
            6943987.5
          ],
          [
            847912.5,
            6943980.903427258
          ],
          [
            847887.5,
            6943972.057934862
          ],
          [
            847862.5,
            6943965.2278923625
          ],
          [
            847849.9323247283,
            6943962.5
          ],
          [
            847837.5,
            6943959.409911053
          ],
          [
            847812.5,
            6943954.2855703365
          ],
          [
            847787.5,
            6943949.933629534
          ],
          [
            847762.5,
            6943945.94408364
          ],
          [
            847737.5,
            6943941.969554196
          ],
          [
            847712.5,
            6943937.602005444
          ],
          [
            847711.9927831489,
            6943937.5
          ],
          [
            847687.5,
            6943931.404128439
          ],
          [
            847662.5,
            6943923.641101564
          ],
          [
            847637.5,
            6943913.661213245
          ],
          [
            847635.0487693653,
            6943912.5
          ],
          [
            847612.5,
            6943899.237403627
          ],
          [
            847596.2001200792,
            6943887.5
          ],
          [
            847587.5,
            6943880.578885663
          ],
          [
            847566.7998949297,
            6943862.5
          ],
          [
            847562.4999999999,
            6943858.704778223
          ],
          [
            847539.957839475,
            6943837.5
          ],
          [
            847537.5,
            6943835.223214411
          ]
        ]
      }
    },
    {
      "type": "Feature",
      "properties": {
        "method": "transverse height maximum"
      },
      "geometry": {
        "type": "LineString",
        "coordinates": [
          [
            849362.5,
            6944244.5874652425
          ],
          [
            849353.095520428,
            6944237.5
          ],
          [
            849337.5,
            6944227.457054757
          ],
          [
            849316.3792889514,
            6944212.500000001
          ],
          [
            849312.5,
            6944210.028634169
          ],
          [
            849287.5,
            6944192.660477937
          ],
          [
            849280.6018688442,
            6944187.5
          ],
          [
            849262.5,
            6944174.930341574
          ],
          [
            849246.2293932484,
            6944162.5
          ],
          [
            849237.5,
            6944156.075290935
          ],
          [
            849214.8470561419,
            6944137.5
          ],
          [
            849212.5,
            6944135.588807714
          ],
          [
            849187.5,
            6944113.0928696925
          ],
          [
            849186.8974734864,
            6944112.5
          ]
        ]
      }
    }
  ],
  "provenance": {
    "source_url": "https://data.geopf.fr/wms-r/wms?SERVICE=WMS&VERSION=1.3.0&REQUEST=GetMap&LAYERS=ELEVATION.ELEVATIONGRIDCOVERAGE.HIGHRES&STYLES=normal&CRS=EPSG%3A2154&BBOX=844500.0%2C6939500.0%2C850500.0%2C6945500.0&WIDTH=240&HEIGHT=240&FORMAT=image%2Ftiff",
    "dataset_url": "https://www.data.gouv.fr/datasets/rge-alti-r",
    "layer": "ELEVATION.ELEVATIONGRIDCOVERAGE.HIGHRES",
    "attribution": "Crests derived from © IGN RGE ALTI · Licence Ouverte 2.0",
    "licence": "Licence Ouverte 2.0",
    "retrieved_utc": "2026-10-06T17:43:41.556330+00:00",
    "derived_utc": "2026-10-06T17:43:41.619316+00:00",
    "derivation_code_sha256": "fd8cc5fb145d8bd120ab0393208bb2cd7eed981b9b9d5f7f08d50835d79fd2f3",
    "response_bytes": 230534,
    "response_sha256": "b8c83b4cd3d2ee570484843bed91ca8bf77b62239a21d6a4bd37a900aecfcc9c",
    "terrain_file": "ign-terrain-169-1388.tif",
    "raster_bounds_epsg2154": [
      844500.0,
      6939500.0,
      850500.0,
      6945500.0
    ],
    "bounds_epsg2154": [
      845000.0,
      6940000.0,
      850000.0,
      6945000.0
    ],
    "parameters": {
      "grid_m": 25,
      "buffer_m": 500,
      "gaussian_sigma_m": 50,
      "minimum_transverse_curvature_per_m": 0.0003,
      "transverse_probe_m": 200,
      "minimum_drop_each_side_m": 5,
      "minimum_line_length_m": 200
    },
    "terrain_height_range_m": [
      157.5028076171875,
      303.4266357421875
    ],
    "method": "Gaussian-smoothed DEM; zero derivative along most concave Hessian eigenvector; negative curvature, two-sided drop and length filters. No flight coordinates used.",
    "limitations": "Approximate, scale-dependent crests; not an official or exhaustive ridge network. Gaps remain at weak ridges, orientation transitions and junctions; no invented links."
  }
}
