{
  "type": "FeatureCollection",
  "features": [],
  "totalFeatures": 0,
  "numberMatched": 0,
  "numberReturned": 0,
  "timeStamp": "2026-09-22T14:44:31.098Z",
  "crs": null,
  "provenance": {
    "source_url": "https://data.geopf.fr/wfs/ows?SERVICE=WFS&VERSION=2.0.0&REQUEST=GetFeature&TYPENAMES=BDTOPO_V3%3Adetail_orographique&SRSNAME=EPSG%3A2154&CQL_FILTER=BBOX%28geometrie%2C955000%2C6.535e%2B06%2C960000%2C6.54e%2B06%2C%27EPSG%3A2154%27%29+AND+nature+IN+%28%27Sommet%27%2C%27Pic%27%29&OUTPUTFORMAT=application%2Fjson&COUNT=1000",
    "dataset_url": "https://www.data.gouv.fr/datasets/bd-topo-r",
    "layer": "BDTOPO_V3:detail_orographique",
    "attribution": "Summits: © IGN · BD TOPO · Licence Ouverte 2.0",
    "licence": "Licence Ouverte 2.0",
    "retrieved_utc": "2026-09-22T14:44:31.104852+00:00",
    "response_sha256": "5edf8c06e1f523e034bcf4b7230bd99bc200553df39c3b248a852d37b46e636a",
    "response_bytes": 147,
    "response_feature_count": 0,
    "bounds_epsg2154": [
      955000.0,
      6535000.0,
      960000.0,
      6540000.0
    ],
    "selection": "Sommet/Pic only; exact Lambert-93 cell bounds.",
    "note": "Named summits; not a complete ridge network or DEM maxima."
  }
}
