{
  "type": "FeatureCollection",
  "features": [
    {
      "type": "Feature",
      "id": "detail_orographique.67038",
      "geometry": {
        "type": "Point",
        "coordinates": [
          996427.69976441,
          6764363.50468216
        ]
      },
      "geometry_name": "geometrie",
      "properties": {
        "cleabs": "PAIOROGR0000000047868275",
        "nature": "Sommet",
        "nature_detaillee": null,
        "toponyme": "Baerenberg",
        "statut_du_toponyme": "Validé",
        "importance": "4",
        "date_creation": "2006-12-18T13:21:51.772Z",
        "date_modification": "2019-09-20T16:10:23.317Z",
        "date_d_apparition": null,
        "date_de_confirmation": null,
        "sources": null,
        "identifiants_sources": null,
        "methode_d_acquisition_planimetrique": "BDNyme",
        "precision_planimetrique": 30,
        "insee_commune": "68247",
        "identifiant_voie_ban": null,
        "id_ban_odonyme": null
      }
    },
    {
      "type": "Feature",
      "id": "detail_orographique.67041",
      "geometry": {
        "type": "Point",
        "coordinates": [
          997006.29976397,
          6763563.10468247
        ]
      },
      "geometry_name": "geometrie",
      "properties": {
        "cleabs": "PAIOROGR0000000047868278",
        "nature": "Sommet",
        "nature_detaillee": null,
        "toponyme": "Maerelberg",
        "statut_du_toponyme": "Validé",
        "importance": "4",
        "date_creation": "2006-12-18T13:21:51.772Z",
        "date_modification": "2019-09-20T16:10:23.317Z",
        "date_d_apparition": null,
        "date_de_confirmation": null,
        "sources": null,
        "identifiants_sources": null,
        "methode_d_acquisition_planimetrique": "BDNyme",
        "precision_planimetrique": 30,
        "insee_commune": "68247",
        "identifiant_voie_ban": null,
        "id_ban_odonyme": null
      }
    },
    {
      "type": "Feature",
      "id": "detail_orographique.67043",
      "geometry": {
        "type": "Point",
        "coordinates": [
          995229.59976538,
          6763571.50468251
        ]
      },
      "geometry_name": "geometrie",
      "properties": {
        "cleabs": "PAIOROGR0000000047868280",
        "nature": "Sommet",
        "nature_detaillee": null,
        "toponyme": "Bergenbach",
        "statut_du_toponyme": "Validé",
        "importance": "4",
        "date_creation": "2006-12-18T13:21:51.772Z",
        "date_modification": "2025-01-11T01:13:31.684Z",
        "date_d_apparition": null,
        "date_de_confirmation": null,
        "sources": null,
        "identifiants_sources": "",
        "methode_d_acquisition_planimetrique": "BDNyme",
        "precision_planimetrique": 30,
        "insee_commune": "68247",
        "identifiant_voie_ban": null,
        "id_ban_odonyme": null
      }
    },
    {
      "type": "Feature",
      "id": "detail_orographique.67066",
      "geometry": {
        "type": "Point",
        "coordinates": [
          999241.49976221,
          6762609.40468283
        ]
      },
      "geometry_name": "geometrie",
      "properties": {
        "cleabs": "PAIOROGR0000000047868304",
        "nature": "Sommet",
        "nature_detaillee": null,
        "toponyme": "Dengelberg",
        "statut_du_toponyme": "Validé",
        "importance": "3",
        "date_creation": "2006-12-18T13:21:51.772Z",
        "date_modification": "2019-09-20T16:10:23.317Z",
        "date_d_apparition": null,
        "date_de_confirmation": null,
        "sources": null,
        "identifiants_sources": "",
        "methode_d_acquisition_planimetrique": "BDNyme",
        "precision_planimetrique": 30,
        "insee_commune": "68089",
        "identifiant_voie_ban": null,
        "id_ban_odonyme": null
      }
    },
    {
      "type": "Feature",
      "id": "detail_orographique.67068",
      "geometry": {
        "type": "Point",
        "coordinates": [
          997126.09976391,
          6761356.60468338
        ]
      },
      "geometry_name": "geometrie",
      "properties": {
        "cleabs": "PAIOROGR0000000047868307",
        "nature": "Sommet",
        "nature_detaillee": null,
        "toponyme": "Huselberg",
        "statut_du_toponyme": "Validé",
        "importance": "3",
        "date_creation": "2006-12-18T13:21:51.772Z",
        "date_modification": "2019-09-20T16:10:23.317Z",
        "date_d_apparition": null,
        "date_de_confirmation": null,
        "sources": null,
        "identifiants_sources": null,
        "methode_d_acquisition_planimetrique": "BDNyme",
        "precision_planimetrique": 30,
        "insee_commune": "68151",
        "identifiant_voie_ban": null,
        "id_ban_odonyme": null
      }
    },
    {
      "type": "Feature",
      "id": "detail_orographique.67069",
      "geometry": {
        "type": "Point",
        "coordinates": [
          998147.09976311,
          6760973.00468352
        ]
      },
      "geometry_name": "geometrie",
      "properties": {
        "cleabs": "PAIOROGR0000000047868308",
        "nature": "Sommet",
        "nature_detaillee": null,
        "toponyme": "Bannwehr",
        "statut_du_toponyme": "Validé",
        "importance": "4",
        "date_creation": "2006-12-18T13:21:51.772Z",
        "date_modification": "2019-09-20T16:10:23.317Z",
        "date_d_apparition": null,
        "date_de_confirmation": null,
        "sources": null,
        "identifiants_sources": null,
        "methode_d_acquisition_planimetrique": "BDNyme",
        "precision_planimetrique": 30,
        "insee_commune": "68151",
        "identifiant_voie_ban": null,
        "id_ban_odonyme": null
      }
    },
    {
      "type": "Feature",
      "id": "detail_orographique.67071",
      "geometry": {
        "type": "Point",
        "coordinates": [
          996601.59976435,
          6760446.80468376
        ]
      },
      "geometry_name": "geometrie",
      "properties": {
        "cleabs": "PAIOROGR0000000047868310",
        "nature": "Sommet",
        "nature_detaillee": null,
        "toponyme": "le Chauvelin",
        "statut_du_toponyme": "Validé",
        "importance": "3",
        "date_creation": "2006-12-18T13:21:51.772Z",
        "date_modification": "2019-09-20T16:10:23.317Z",
        "date_d_apparition": null,
        "date_de_confirmation": null,
        "sources": null,
        "identifiants_sources": null,
        "methode_d_acquisition_planimetrique": "BDNyme",
        "precision_planimetrique": 30,
        "insee_commune": "68213",
        "identifiant_voie_ban": null,
        "id_ban_odonyme": null
      }
    },
    {
      "type": "Feature",
      "id": "detail_orographique.67072",
      "geometry": {
        "type": "Point",
        "coordinates": [
          995829.89976497,
          6760078.80468393
        ]
      },
      "geometry_name": "geometrie",
      "properties": {
        "cleabs": "PAIOROGR0000000047868311",
        "nature": "Sommet",
        "nature_detaillee": null,
        "toponyme": "Eichkopf",
        "statut_du_toponyme": "Validé",
        "importance": "4",
        "date_creation": "2006-12-18T13:21:51.772Z",
        "date_modification": "2019-09-20T16:10:23.317Z",
        "date_d_apparition": null,
        "date_de_confirmation": null,
        "sources": null,
        "identifiants_sources": null,
        "methode_d_acquisition_planimetrique": "BDNyme",
        "precision_planimetrique": 30,
        "insee_commune": "68328",
        "identifiant_voie_ban": null,
        "id_ban_odonyme": null
      }
    }
  ],
  "totalFeatures": 8,
  "numberMatched": 8,
  "numberReturned": 8,
  "timeStamp": "2026-09-22T14:43:18.780Z",
  "crs": {
    "type": "name",
    "properties": {
      "name": "urn:ogc:def:crs:EPSG::2154"
    }
  },
  "provenance": {
    "source_url": "https://data.geopf.fr/wfs/ows?SERVICE=WFS&VERSION=2.0.0&REQUEST=GetFeature&TYPENAMES=BDTOPO_V3%3Adetail_orographique&SRSNAME=EPSG%3A2154&CQL_FILTER=BBOX%28geometrie%2C995000%2C6.76e%2B06%2C1e%2B06%2C6.765e%2B06%2C%27EPSG%3A2154%27%29+AND+nature+IN+%28%27Sommet%27%2C%27Pic%27%29&OUTPUTFORMAT=application%2Fjson&COUNT=1000",
    "dataset_url": "https://www.data.gouv.fr/datasets/bd-topo-r",
    "layer": "BDTOPO_V3:detail_orographique",
    "attribution": "Summits: © IGN · BD TOPO · Licence Ouverte 2.0",
    "licence": "Licence Ouverte 2.0",
    "retrieved_utc": "2026-09-22T14:43:18.769826+00:00",
    "response_sha256": "d34d9db4d9e01c985a06bcb8c7c2c70e2924b4f84b54d9bc8a0e54bec7aa4787",
    "response_bytes": 6122,
    "response_feature_count": 9,
    "bounds_epsg2154": [
      995000.0,
      6760000.0,
      1000000.0,
      6765000.0
    ],
    "selection": "Nature Sommet or Pic; exact client-side Lambert-93 cell bounds.",
    "note": "Named summit locations; not a complete ridge network or DEM maxima."
  }
}
