{
  "type": "FeatureCollection",
  "crs": {
    "type": "name",
    "properties": {
      "name": "EPSG:2154"
    }
  },
  "features": [
    {
      "type": "Feature",
      "properties": {
        "method": "transverse height maximum"
      },
      "geometry": {
        "type": "LineString",
        "coordinates": [
          [
            925204.1468184709,
            6470012.5
          ],
          [
            925212.5,
            6470020.681727225
          ],
          [
            925225.5727843828,
            6470037.5
          ],
          [
            925237.5,
            6470051.025818946
          ],
          [
            925247.220145021,
            6470062.5
          ],
          [
            925262.5,
            6470076.682019293
          ],
          [
            925270.6316585953,
            6470087.5
          ],
          [
            925281.2260283354,
            6470112.5
          ],
          [
            925283.1744738244,
            6470137.5
          ],
          [
            925282.911804725,
            6470162.5
          ],
          [
            925283.3705484063,
            6470187.5
          ],
          [
            925286.4597210065,
            6470212.5
          ],
          [
            925287.5,
            6470218.824707927
          ],
          [
            925291.3580623814,
            6470237.5
          ],
          [
            925294.8635520919,
            6470262.5
          ],
          [
            925296.3294288213,
            6470287.5
          ],
          [
            925295.9011673772,
            6470312.5
          ],
          [
            925294.1993007009,
            6470337.5
          ],
          [
            925291.7280250868,
            6470362.5
          ],
          [
            925288.7432969079,
            6470387.5
          ],
          [
            925287.5,
            6470400.495947714
          ],
          [
            925286.2387597976,
            6470412.499999999
          ],
          [
            925287.5,
            6470432.596801517
          ],
          [
            925287.9036192987,
            6470437.5
          ],
          [
            925296.9556004824,
            6470462.5
          ],
          [
            925311.6980999778,
            6470487.5
          ],
          [
            925312.5,
            6470488.79529266
          ],
          [
            925327.4966104776,
            6470512.5
          ],
          [
            925337.5,
            6470526.088281093
          ]
        ]
      }
    },
    {
      "type": "Feature",
      "properties": {
        "method": "transverse height maximum"
      },
      "geometry": {
        "type": "LineString",
        "coordinates": [
          [
            925862.5000000001,
            6470918.193976884
          ],
          [
            925873.1131960042,
            6470937.5
          ],
          [
            925883.7866724064,
            6470962.5
          ],
          [
            925887.5,
            6470976.804951076
          ],
          [
            925889.3131677386,
            6470987.5
          ],
          [
            925891.5895514252,
            6471012.5
          ],
          [
            925893.8490893657,
            6471037.5
          ],
          [
            925897.4725698282,
            6471062.5
          ],
          [
            925904.3812932397,
            6471087.5
          ],
          [
            925912.5,
            6471104.884045261
          ],
          [
            925914.5375899781,
            6471112.5
          ],
          [
            925924.845125736,
            6471137.5
          ],
          [
            925937.5,
            6471156.629549174
          ],
          [
            925940.4213657728,
            6471162.5
          ],
          [
            925955.1001313621,
            6471187.5
          ],
          [
            925962.5,
            6471201.299993969
          ],
          [
            925966.4999753298,
            6471212.5
          ],
          [
            925965.1339453659,
            6471237.5
          ]
        ]
      }
    },
    {
      "type": "Feature",
      "properties": {
        "method": "transverse height maximum"
      },
      "geometry": {
        "type": "LineString",
        "coordinates": [
          [
            926831.6899196681,
            6472287.5
          ],
          [
            926827.6210587379,
            6472312.499999999
          ],
          [
            926823.96998604,
            6472337.5
          ],
          [
            926822.0184428087,
            6472362.5
          ],
          [
            926821.5384875142,
            6472387.5
          ],
          [
            926821.907188045,
            6472412.5
          ],
          [
            926822.5744778055,
            6472437.5
          ],
          [
            926823.1812802219,
            6472462.5
          ],
          [
            926823.4280866418,
            6472487.5
          ],
          [
            926822.8891600909,
            6472512.5
          ],
          [
            926821.2020300112,
            6472537.5
          ],
          [
            926818.6661607549,
            6472562.5
          ],
          [
            926816.117954746,
            6472587.5
          ],
          [
            926814.082756017,
            6472612.5
          ],
          [
            926812.5,
            6472634.812429608
          ],
          [
            926812.2938783662,
            6472637.5
          ],
          [
            926809.0128253509,
            6472662.5
          ],
          [
            926801.9547586814,
            6472687.5
          ]
        ]
      }
    },
    {
      "type": "Feature",
      "properties": {
        "method": "transverse height maximum"
      },
      "geometry": {
        "type": "LineString",
        "coordinates": [
          [
            927287.5,
            6472458.001348807
          ],
          [
            927290.8563938675,
            6472462.5
          ],
          [
            927307.1252672834,
            6472487.500000001
          ],
          [
            927312.5,
            6472497.183337457
          ],
          [
            927318.2166417668,
            6472512.5
          ],
          [
            927324.3907931464,
            6472537.5
          ],
          [
            927327.8972185858,
            6472562.5
          ],
          [
            927329.2694531984,
            6472587.5
          ],
          [
            927329.9281082532,
            6472612.5
          ],
          [
            927331.6890875685,
            6472637.5
          ],
          [
            927337.5,
            6472662.229358406
          ],
          [
            927337.5315326472,
            6472662.5
          ],
          [
            927342.491167686,
            6472687.5
          ],
          [
            927353.606937513,
            6472712.5
          ],
          [
            927362.5,
            6472723.563675578
          ],
          [
            927371.7916480334,
            6472737.5
          ],
          [
            927387.5,
            6472753.809606845
          ]
        ]
      }
    },
    {
      "type": "Feature",
      "properties": {
        "method": "transverse height maximum"
      },
      "geometry": {
        "type": "LineString",
        "coordinates": [
          [
            927527.5108394789,
            6472887.499999999
          ],
          [
            927516.5719100791,
            6472912.5
          ],
          [
            927512.5,
            6472931.702656928
          ],
          [
            927511.008018877,
            6472937.499999999
          ],
          [
            927505.6276545146,
            6472962.5
          ],
          [
            927500.3322332972,
            6472987.499999999
          ],
          [
            927494.4324686422,
            6473012.5
          ],
          [
            927487.6960041398,
            6473037.5
          ],
          [
            927487.5,
            6473038.080912441
          ],
          [
            927476.7586369769,
            6473062.5
          ],
          [
            927464.5561088012,
            6473087.5
          ],
          [
            927462.5,
            6473091.559581151
          ],
          [
            927450.522938923,
            6473112.5
          ],
          [
            927439.3791665721,
            6473137.5
          ]
        ]
      }
    },
    {
      "type": "Feature",
      "properties": {
        "method": "transverse height maximum"
      },
      "geometry": {
        "type": "LineString",
        "coordinates": [
          [
            928287.5,
            6473370.84203978
          ],
          [
            928262.5000000001,
            6473385.170219409
          ],
          [
            928261.1701284925,
            6473387.5
          ],
          [
            928252.5156174629,
            6473412.5
          ],
          [
            928252.725318816,
            6473437.5
          ],
          [
            928255.1931036083,
            6473462.5
          ],
          [
            928254.4169557126,
            6473487.5
          ],
          [
            928249.2117875448,
            6473512.5
          ],
          [
            928237.761576647,
            6473537.5
          ],
          [
            928237.5,
            6473537.949364157
          ],
          [
            928229.5341041011,
            6473562.5
          ],
          [
            928221.7179098924,
            6473587.5
          ],
          [
            928223.8937565961,
            6473612.5
          ]
        ]
      }
    },
    {
      "type": "Feature",
      "properties": {
        "method": "transverse height maximum"
      },
      "geometry": {
        "type": "LineString",
        "coordinates": [
          [
            925000.4400858895,
            6474212.5
          ],
          [
            925012.5,
            6474225.695191559
          ],
          [
            925021.0536979167,
            6474237.5
          ],
          [
            925037.5,
            6474261.04134794
          ],
          [
            925038.301205495,
            6474262.5
          ],
          [
            925051.2508529125,
            6474287.5
          ],
          [
            925062.5,
            6474306.873248169
          ],
          [
            925065.0630379063,
            6474312.5
          ],
          [
            925076.8043855026,
            6474337.5
          ],
          [
            925087.5,
            6474356.728855139
          ],
          [
            925090.1394665127,
            6474362.5
          ],
          [
            925102.025996236,
            6474387.5
          ],
          [
            925112.5,
            6474407.2006108565
          ],
          [
            925114.8988318755,
            6474412.5
          ],
          [
            925124.905699827,
            6474437.5
          ],
          [
            925133.7110074429,
            6474462.5
          ],
          [
            925137.5,
            6474474.842669591
          ],
          [
            925141.0618106164,
            6474487.5
          ],
          [
            925148.8722400557,
            6474512.5
          ],
          [
            925159.4174297666,
            6474537.500000001
          ],
          [
            925162.5,
            6474543.596183069
          ],
          [
            925171.2707941105,
            6474562.5
          ],
          [
            925185.3699163651,
            6474587.5
          ],
          [
            925187.5000000001,
            6474590.970377345
          ],
          [
            925199.1228841553,
            6474612.5
          ],
          [
            925212.5,
            6474636.170163089
          ],
          [
            925213.1545777417,
            6474637.5
          ],
          [
            925222.9545224622,
            6474662.5
          ],
          [
            925230.6000554132,
            6474687.5
          ],
          [
            925236.4882727696,
            6474712.5
          ],
          [
            925237.5,
            6474717.775369633
          ],
          [
            925240.6786762126,
            6474737.5
          ],
          [
            925244.4494729816,
            6474762.5
          ],
          [
            925248.4614124711,
            6474787.5
          ],
          [
            925253.1340424883,
            6474812.5
          ],
          [
            925259.0824511024,
            6474837.5
          ],
          [
            925262.4999999999,
            6474848.332817851
          ],
          [
            925266.7873201078,
            6474862.5
          ],
          [
            925277.1787034067,
            6474887.5
          ],
          [
            925287.5,
            6474904.495561789
          ],
          [
            925292.4282901991,
            6474912.5
          ],
          [
            925312.5,
            6474936.933246904
          ],
          [
            925312.9646684416,
            6474937.5
          ],
          [
            925337.397190005,
            6474962.5
          ],
          [
            925337.5,
            6474962.6074494
          ],
          [
            925352.3158493878,
            6474987.5
          ],
          [
            925355.895346136,
            6475000.0
          ]
        ]
      }
    },
    {
      "type": "Feature",
      "properties": {
        "method": "transverse height maximum"
      },
      "geometry": {
        "type": "LineString",
        "coordinates": [
          [
            928641.9310267592,
            6474837.5
          ],
          [
            928644.2371396653,
            6474862.5
          ],
          [
            928637.5,
            6474881.941352839
          ],
          [
            928612.5,
            6474879.133357208
          ],
          [
            928607.810793663,
            6474887.500000001
          ],
          [
            928599.1264227995,
            6474912.5
          ],
          [
            928597.7249233535,
            6474937.5
          ],
          [
            928597.3590619535,
            6474962.5
          ],
          [
            928595.508606944,
            6474987.5
          ],
          [
            928592.9355325033,
            6475000.0
          ]
        ]
      }
    },
    {
      "type": "Feature",
      "properties": {
        "method": "transverse height maximum"
      },
      "geometry": {
        "type": "LineString",
        "coordinates": [
          [
            925637.4999999999,
            6470758.243437376
          ],
          [
            925612.5,
            6470741.828623645
          ],
          [
            925605.1459387947,
            6470737.5
          ],
          [
            925587.5,
            6470728.45024395
          ],
          [
            925562.5,
            6470713.910065275
          ],
          [
            925560.2998754936,
            6470712.5
          ],
          [
            925537.5,
            6470699.242674307
          ],
          [
            925520.9543895958,
            6470687.5
          ],
          [
            925512.5000000001,
            6470681.801218906
          ],
          [
            925487.5,
            6470662.790263953
          ],
          [
            925487.0670297785,
            6470662.5
          ],
          [
            925462.5,
            6470644.916202293
          ],
          [
            925454.8820291439,
            6470637.5
          ],
          [
            925437.5,
            6470623.301072918
          ],
          [
            925426.89858684,
            6470612.5
          ],
          [
            925412.5000000001,
            6470600.721528375
          ],
          [
            925398.509009693,
            6470587.5
          ],
          [
            925387.5,
            6470578.34849783
          ],
          [
            925371.2266115497,
            6470562.5
          ],
          [
            925362.5,
            6470554.405531686
          ]
        ]
      }
    },
    {
      "type": "Feature",
      "properties": {
        "method": "transverse height maximum"
      },
      "geometry": {
        "type": "LineString",
        "coordinates": [
          [
            925812.5,
            6470869.059457972
          ],
          [
            925800.8000786806,
            6470862.5
          ],
          [
            925787.5,
            6470856.033483295
          ],
          [
            925762.5,
            6470844.434640704
          ],
          [
            925750.1885324373,
            6470837.5
          ],
          [
            925737.5,
            6470831.58727131
          ],
          [
            925712.5,
            6470816.743583687
          ],
          [
            925706.3789447801,
            6470812.5
          ],
          [
            925687.5,
            6470800.225435252
          ],
          [
            925671.8084179388,
            6470787.5
          ],
          [
            925662.5,
            6470779.548782853
          ],
          [
            925642.307522493,
            6470762.5
          ]
        ]
      }
    },
    {
      "type": "Feature",
      "properties": {
        "method": "transverse height maximum"
      },
      "geometry": {
        "type": "LineString",
        "coordinates": [
          [
            925438.5123625908,
            6471337.5
          ],
          [
            925437.5,
            6471338.993230358
          ],
          [
            925423.2766359622,
            6471362.5
          ],
          [
            925412.5,
            6471369.982911118
          ],
          [
            925387.5,
            6471384.7548117535
          ],
          [
            925382.3772945544,
            6471387.500000001
          ],
          [
            925362.5,
            6471396.139682242
          ],
          [
            925337.5,
            6471408.077821119
          ],
          [
            925329.399704692,
            6471412.499999999
          ],
          [
            925312.5,
            6471419.2309118835
          ],
          [
            925287.5,
            6471429.172718384
          ],
          [
            925268.6132214001,
            6471437.5
          ],
          [
            925262.5,
            6471439.524644717
          ],
          [
            925237.5,
            6471448.8423938
          ]
        ]
      }
    },
    {
      "type": "Feature",
      "properties": {
        "method": "transverse height maximum"
      },
      "geometry": {
        "type": "LineString",
        "coordinates": [
          [
            926237.5,
            6472001.612709641
          ],
          [
            926212.5,
            6471996.843902028
          ],
          [
            926187.5,
            6471994.64177694
          ],
          [
            926162.5,
            6471994.239195669
          ],
          [
            926137.5,
            6471994.256447534
          ],
          [
            926112.5,
            6471993.322387385
          ],
          [
            926087.5,
            6471990.899814978
          ],
          [
            926062.7907538849,
            6471987.500000001
          ],
          [
            926062.5,
            6471987.460486336
          ],
          [
            926037.4999999999,
            6471983.900600508
          ],
          [
            926012.5000000001,
            6471979.777065623
          ],
          [
            925987.5,
            6471972.009991479
          ]
        ]
      }
    },
    {
      "type": "Feature",
      "properties": {
        "method": "transverse height maximum"
      },
      "geometry": {
        "type": "LineString",
        "coordinates": [
          [
            925871.1586349251,
            6472037.5
          ],
          [
            925887.5,
            6472048.984345908
          ],
          [
            925900.8232292212,
            6472062.5
          ],
          [
            925893.306310633,
            6472087.5
          ],
          [
            925887.5,
            6472093.7216354245
          ],
          [
            925875.0695939275,
            6472112.5
          ],
          [
            925862.5,
            6472121.58758912
          ],
          [
            925837.5,
            6472132.648667808
          ],
          [
            925816.7253354641,
            6472137.5
          ],
          [
            925812.5,
            6472138.43280605
          ],
          [
            925787.5,
            6472142.915864753
          ],
          [
            925762.5,
            6472148.071683465
          ],
          [
            925737.5,
            6472153.683403532
          ],
          [
            925712.5,
            6472157.149630514
          ],
          [
            925687.5,
            6472155.615438146
          ]
        ]
      }
    },
    {
      "type": "Feature",
      "properties": {
        "method": "transverse height maximum"
      },
      "geometry": {
        "type": "LineString",
        "coordinates": [
          [
            925537.5,
            6472248.3967075795
          ],
          [
            925525.21754962,
            6472262.5
          ],
          [
            925512.4999999999,
            6472278.398339426
          ],
          [
            925505.1894531456,
            6472287.500000001
          ],
          [
            925489.1091064326,
            6472312.5
          ],
          [
            925487.5,
            6472314.649684181
          ],
          [
            925466.5042502729,
            6472337.5
          ],
          [
            925462.5,
            6472340.267022441
          ],
          [
            925437.5,
            6472343.325657473
          ],
          [
            925421.6539211179,
            6472337.5
          ],
          [
            925412.5,
            6472334.0297919335
          ],
          [
            925387.5,
            6472317.843686573
          ],
          [
            925378.473801202,
            6472312.5
          ],
          [
            925362.5,
            6472298.760138585
          ],
          [
            925337.6736941193,
            6472287.5
          ],
          [
            925337.5,
            6472287.382120297
          ],
          [
            925312.5,
            6472286.365868786
          ],
          [
            925309.84994585,
            6472287.5
          ],
          [
            925287.5,
            6472293.904482145
          ],
          [
            925262.4999999999,
            6472303.911447708
          ],
          [
            925237.5,
            6472310.416509418
          ],
          [
            925212.5,
            6472311.202514377
          ],
          [
            925187.5,
            6472308.280295606
          ],
          [
            925162.5,
            6472304.728259851
          ],
          [
            925137.5,
            6472302.6909838375
          ],
          [
            925112.5,
            6472302.732778765
          ],
          [
            925087.5000000001,
            6472304.149305288
          ],
          [
            925062.5,
            6472304.75511866
          ],
          [
            925037.4999999999,
            6472301.865091211
          ],
          [
            925012.5,
            6472296.579795429
          ],
          [
            925000.0,
            6472295.222787153
          ]
        ]
      }
    },
    {
      "type": "Feature",
      "properties": {
        "method": "transverse height maximum"
      },
      "geometry": {
        "type": "LineString",
        "coordinates": [
          [
            926812.5,
            6472242.47208141
          ],
          [
            926787.5,
            6472238.520692089
          ],
          [
            926781.6085904044,
            6472237.5
          ],
          [
            926762.5,
            6472230.646830089
          ],
          [
            926737.5,
            6472222.595645194
          ],
          [
            926712.5,
            6472215.9187690765
          ],
          [
            926697.9434852012,
            6472212.5
          ],
          [
            926687.4999999999,
            6472209.476603911
          ],
          [
            926662.5,
            6472202.705977203
          ],
          [
            926637.5,
            6472195.906427301
          ],
          [
            926612.5,
            6472188.544125007
          ],
          [
            926609.9132687475,
            6472187.5
          ],
          [
            926587.4999999999,
            6472179.707645335
          ],
          [
            926562.5,
            6472168.659819256
          ],
          [
            926552.3845474944,
            6472162.5
          ],
          [
            926537.5,
            6472154.883008149
          ],
          [
            926512.5,
            6472138.74978071
          ],
          [
            926510.7552894381,
            6472137.5
          ],
          [
            926487.5,
            6472122.777734484
          ],
          [
            926470.7300804269,
            6472112.5
          ],
          [
            926462.5,
            6472107.802197469
          ],
          [
            926437.5,
            6472094.999140164
          ],
          [
            926422.812584216,
            6472087.5
          ],
          [
            926412.5,
            6472082.501331891
          ],
          [
            926387.5,
            6472070.037294073
          ],
          [
            926373.5478986078,
            6472062.500000001
          ],
          [
            926362.5,
            6472056.794865145
          ],
          [
            926337.5,
            6472043.663091836
          ],
          [
            926325.542856632,
            6472037.5
          ],
          [
            926312.5,
            6472030.762203885
          ],
          [
            926287.5,
            6472019.084341211
          ],
          [
            926271.0873442908,
            6472012.5
          ]
        ]
      }
    },
    {
      "type": "Feature",
      "properties": {
        "method": "transverse height maximum"
      },
      "geometry": {
        "type": "LineString",
        "coordinates": [
          [
            927162.5,
            6472322.920895914
          ],
          [
            927147.9010378327,
            6472312.5
          ],
          [
            927137.5000000001,
            6472304.7799230805
          ],
          [
            927112.5,
            6472292.479806806
          ],
          [
            927100.6827985657,
            6472287.5
          ],
          [
            927087.4999999999,
            6472282.129972659
          ],
          [
            927062.5,
            6472273.367141839
          ],
          [
            927037.5,
            6472266.108918497
          ],
          [
            927022.3205387979,
            6472262.500000001
          ],
          [
            927012.5,
            6472260.207648827
          ],
          [
            926987.5000000001,
            6472255.462938292
          ],
          [
            926962.5,
            6472251.038970694
          ],
          [
            926937.5,
            6472246.812767721
          ],
          [
            926912.5,
            6472242.963511233
          ],
          [
            926887.5,
            6472239.350156993
          ],
          [
            926881.5388445336,
            6472237.5
          ],
          [
            926862.5,
            6472233.869238253
          ]
        ]
      }
    },
    {
      "type": "Feature",
      "properties": {
        "method": "transverse height maximum"
      },
      "geometry": {
        "type": "LineString",
        "coordinates": [
          [
            927937.5000000001,
            6472794.729077728
          ],
          [
            927962.5,
            6472808.326865773
          ],
          [
            927964.3075505786,
            6472812.5
          ],
          [
            927966.5705432183,
            6472837.5
          ],
          [
            927962.5,
            6472842.415492666
          ],
          [
            927953.8616667493,
            6472862.5
          ],
          [
            927937.5,
            6472874.69772379
          ],
          [
            927922.9897545134,
            6472887.5
          ],
          [
            927912.5,
            6472892.653407265
          ],
          [
            927887.5,
            6472897.618047174
          ],
          [
            927862.5,
            6472892.307861935
          ],
          [
            927848.0095433415,
            6472887.5
          ],
          [
            927837.5,
            6472884.018081464
          ],
          [
            927812.5,
            6472876.601646996
          ],
          [
            927787.5,
            6472868.855975451
          ],
          [
            927769.7473751146,
            6472862.5
          ],
          [
            927762.5,
            6472860.629645141
          ],
          [
            927737.5,
            6472854.001676249
          ],
          [
            927712.5,
            6472847.821551452
          ],
          [
            927687.5,
            6472843.012730307
          ],
          [
            927662.5,
            6472840.595180292
          ],
          [
            927637.5,
            6472841.140018634
          ]
        ]
      }
    },
    {
      "type": "Feature",
      "properties": {
        "method": "transverse height maximum"
      },
      "geometry": {
        "type": "LineString",
        "coordinates": [
          [
            928412.5,
            6472793.210963717
          ],
          [
            928402.8392938275,
            6472787.5
          ],
          [
            928387.5,
            6472777.772286899
          ],
          [
            928362.5,
            6472767.527640203
          ],
          [
            928337.5,
            6472768.313160046
          ],
          [
            928312.5,
            6472779.810765437
          ],
          [
            928303.7509140575,
            6472787.5
          ],
          [
            928287.5,
            6472799.063309442
          ],
          [
            928275.7810414066,
            6472812.499999999
          ],
          [
            928262.5,
            6472825.494777186
          ],
          [
            928255.416693246,
            6472837.5
          ],
          [
            928243.3719681803,
            6472862.5
          ],
          [
            928237.5,
            6472881.622553221
          ],
          [
            928235.8156137936,
            6472887.5
          ],
          [
            928229.6661789016,
            6472912.5
          ],
          [
            928230.8479662384,
            6472937.5
          ],
          [
            928237.5000000001,
            6472940.878251694
          ],
          [
            928262.5,
            6472962.231434873
          ],
          [
            928263.3478891492,
            6472962.5
          ]
        ]
      }
    },
    {
      "type": "Feature",
      "properties": {
        "method": "transverse height maximum"
      },
      "geometry": {
        "type": "LineString",
        "coordinates": [
          [
            928204.0965544449,
            6472962.5
          ],
          [
            928200.3476213199,
            6472937.5
          ],
          [
            928187.5,
            6472927.0717860665
          ],
          [
            928172.3954458204,
            6472912.5
          ],
          [
            928162.5,
            6472906.221028256
          ],
          [
            928137.5,
            6472890.336112779
          ],
          [
            928132.5987157186,
            6472887.5
          ],
          [
            928112.5,
            6472876.725861548
          ],
          [
            928087.5,
            6472862.89815246
          ],
          [
            928086.8369810571,
            6472862.5
          ],
          [
            928069.1658132803,
            6472837.5
          ],
          [
            928071.0084585425,
            6472812.5
          ],
          [
            928076.2566991666,
            6472787.5
          ]
        ]
      }
    },
    {
      "type": "Feature",
      "properties": {
        "method": "transverse height maximum"
      },
      "geometry": {
        "type": "LineString",
        "coordinates": [
          [
            925831.8564583218,
            6473562.5
          ],
          [
            925812.5,
            6473573.8828936815
          ],
          [
            925797.1814700786,
            6473587.5
          ],
          [
            925787.5,
            6473594.650735675
          ],
          [
            925767.3003644143,
            6473612.5
          ],
          [
            925762.5,
            6473616.353391112
          ],
          [
            925737.5,
            6473636.932724192
          ],
          [
            925736.7667337711,
            6473637.5
          ],
          [
            925712.5,
            6473656.028789083
          ],
          [
            925702.9043163727,
            6473662.5
          ],
          [
            925687.5,
            6473673.429833727
          ],
          [
            925663.6559578772,
            6473687.5
          ],
          [
            925662.5,
            6473688.240827783
          ],
          [
            925637.5,
            6473701.38724698
          ],
          [
            925612.5,
            6473712.134166892
          ],
          [
            925611.4336365641,
            6473712.5
          ],
          [
            925587.5,
            6473721.007878351
          ],
          [
            925562.5,
            6473726.096019095
          ],
          [
            925537.5,
            6473726.733755071
          ]
        ]
      }
    },
    {
      "type": "Feature",
      "properties": {
        "method": "transverse height maximum"
      },
      "geometry": {
        "type": "LineString",
        "coordinates": [
          [
            926401.7466876508,
            6473587.5
          ],
          [
            926387.4999999999,
            6473579.444357425
          ],
          [
            926362.5,
            6473562.646457528
          ],
          [
            926362.2784314033,
            6473562.5
          ],
          [
            926337.5,
            6473553.507025218
          ],
          [
            926312.5,
            6473546.597431873
          ],
          [
            926287.5,
            6473542.437602106
          ],
          [
            926262.5,
            6473541.287209313
          ],
          [
            926237.5,
            6473542.924648646
          ],
          [
            926212.5,
            6473546.2185010975
          ],
          [
            926187.5,
            6473549.097532214
          ],
          [
            926162.5,
            6473550.278747363
          ],
          [
            926137.5,
            6473550.277307763
          ],
          [
            926112.5,
            6473550.074038668
          ],
          [
            926087.5,
            6473550.28337015
          ],
          [
            926062.5,
            6473551.287954086
          ],
          [
            926037.5000000001,
            6473552.933064204
          ],
          [
            926012.5,
            6473553.953093676
          ],
          [
            925987.5,
            6473553.69680421
          ],
          [
            925962.5,
            6473553.101742636
          ],
          [
            925937.5,
            6473552.9549244745
          ],
          [
            925912.5,
            6473552.844571174
          ],
          [
            925887.5,
            6473551.436907933
          ],
          [
            925862.5,
            6473550.602625087
          ],
          [
            925837.5,
            6473558.061993955
          ]
        ]
      }
    },
    {
      "type": "Feature",
      "properties": {
        "method": "transverse height maximum"
      },
      "geometry": {
        "type": "LineString",
        "coordinates": [
          [
            928512.5,
            6473733.0016064
          ],
          [
            928487.5,
            6473719.912268615
          ],
          [
            928471.6499106492,
            6473712.5
          ],
          [
            928462.5,
            6473708.428835344
          ],
          [
            928439.1452953077,
            6473687.500000001
          ],
          [
            928437.5,
            6473685.529334115
          ],
          [
            928423.4526806904,
            6473662.5
          ],
          [
            928412.5,
            6473640.384756991
          ],
          [
            928408.1528709427,
            6473637.5
          ],
          [
            928387.5,
            6473626.011730836
          ],
          [
            928378.6887734383,
            6473637.5
          ],
          [
            928362.5,
            6473648.545735365
          ],
          [
            928354.6075033979,
            6473662.499999999
          ]
        ]
      }
    },
    {
      "type": "Feature",
      "properties": {
        "method": "transverse height maximum"
      },
      "geometry": {
        "type": "LineString",
        "coordinates": [
          [
            925429.1321532251,
            6473837.5
          ],
          [
            925420.5700826714,
            6473862.5
          ],
          [
            925412.5,
            6473872.7977668615
          ],
          [
            925392.3888592895,
            6473887.5
          ],
          [
            925387.5,
            6473889.995819097
          ],
          [
            925362.5,
            6473899.904507414
          ],
          [
            925337.5,
            6473909.53236815
          ],
          [
            925331.5878408691,
            6473912.5
          ],
          [
            925312.5,
            6473920.976138318
          ],
          [
            925287.4999999999,
            6473937.001968707
          ],
          [
            925286.8237677801,
            6473937.499999999
          ],
          [
            925262.5,
            6473955.470851791
          ],
          [
            925252.6820674088,
            6473962.5
          ],
          [
            925237.5,
            6473973.941648536
          ],
          [
            925217.3625817599,
            6473987.5
          ],
          [
            925212.5,
            6473990.817402277
          ],
          [
            925187.5000000001,
            6474005.291373091
          ],
          [
            925171.5977181251,
            6474012.5
          ],
          [
            925162.5,
            6474016.496192892
          ],
          [
            925137.5,
            6474024.300207263
          ]
        ]
      }
    },
    {
      "type": "Feature",
      "properties": {
        "method": "transverse height maximum"
      },
      "geometry": {
        "type": "LineString",
        "coordinates": [
          [
            928012.5000000001,
            6473930.610232646
          ],
          [
            927994.7694346387,
            6473912.5
          ],
          [
            927987.5,
            6473905.956017717
          ],
          [
            927962.5,
            6473892.935476772
          ],
          [
            927937.5,
            6473892.113607359
          ],
          [
            927912.5,
            6473899.311468716
          ],
          [
            927887.5,
            6473906.676534574
          ],
          [
            927865.2961675449,
            6473912.5
          ],
          [
            927862.5,
            6473913.238637008
          ],
          [
            927837.5,
            6473918.914282075
          ],
          [
            927812.5,
            6473923.005839499
          ],
          [
            927787.5,
            6473924.115083852
          ],
          [
            927762.5,
            6473923.555423755
          ],
          [
            927737.5,
            6473925.292234418
          ],
          [
            927712.5,
            6473930.2734083515
          ],
          [
            927687.5,
            6473937.353478573
          ],
          [
            927687.0337762565,
            6473937.5
          ],
          [
            927662.5,
            6473946.119431635
          ],
          [
            927637.5,
            6473954.097987039
          ],
          [
            927612.5,
            6473961.577304731
          ],
          [
            927609.3069474279,
            6473962.5
          ],
          [
            927587.5,
            6473969.795997773
          ],
          [
            927562.4999999999,
            6473978.3732733065
          ],
          [
            927537.5,
            6473987.307164156
          ],
          [
            927536.9176894773,
            6473987.5
          ],
          [
            927512.5,
            6473997.667687697
          ],
          [
            927487.5,
            6474007.571907287
          ],
          [
            927470.5536412469,
            6474012.5
          ]
        ]
      }
    },
    {
      "type": "Feature",
      "properties": {
        "method": "transverse height maximum"
      },
      "geometry": {
        "type": "LineString",
        "coordinates": [
          [
            929112.5,
            6474183.608233589
          ],
          [
            929087.4999999999,
            6474184.250608021
          ],
          [
            929062.4999999999,
            6474180.1799891405
          ],
          [
            929037.5,
            6474175.346482212
          ],
          [
            929012.5,
            6474171.267057417
          ],
          [
            928987.5,
            6474166.6056862855
          ],
          [
            928969.968414675,
            6474162.5
          ],
          [
            928962.5,
            6474160.352304168
          ],
          [
            928937.4999999999,
            6474153.817061967
          ],
          [
            928912.5,
            6474149.379917701
          ],
          [
            928887.5,
            6474146.155862543
          ]
        ]
      }
    },
    {
      "type": "Feature",
      "properties": {
        "method": "transverse height maximum"
      },
      "geometry": {
        "type": "LineString",
        "coordinates": [
          [
            928771.5831088368,
            6474212.5
          ],
          [
            928762.5,
            6474220.673584539
          ],
          [
            928740.785738212,
            6474237.5
          ],
          [
            928737.5,
            6474239.0145692825
          ],
          [
            928712.5,
            6474251.863891413
          ],
          [
            928694.9869172216,
            6474262.5
          ],
          [
            928687.5,
            6474266.506747768
          ],
          [
            928662.5,
            6474276.2538542645
          ],
          [
            928637.5,
            6474278.47222273
          ],
          [
            928612.5,
            6474275.173200015
          ],
          [
            928587.5,
            6474270.129139072
          ],
          [
            928562.5,
            6474266.965449766
          ],
          [
            928537.5,
            6474269.4795555
          ],
          [
            928514.8907631302,
            6474287.5
          ],
          [
            928512.5,
            6474290.93314565
          ]
        ]
      }
    },
    {
      "type": "Feature",
      "properties": {
        "method": "transverse height maximum"
      },
      "geometry": {
        "type": "LineString",
        "coordinates": [
          [
            926362.5,
            6474332.372292617
          ],
          [
            926337.5,
            6474327.590232243
          ],
          [
            926312.5,
            6474329.9941394245
          ],
          [
            926287.5,
            6474334.683856733
          ],
          [
            926275.2860417324,
            6474337.5
          ],
          [
            926262.5,
            6474340.989201584
          ],
          [
            926237.5,
            6474349.521637333
          ],
          [
            926212.5,
            6474361.678383149
          ],
          [
            926211.2444684274,
            6474362.5
          ],
          [
            926187.5,
            6474382.277584959
          ],
          [
            926183.0479030289,
            6474387.5
          ],
          [
            926162.7528015443,
            6474412.5
          ],
          [
            926162.5,
            6474412.762649467
          ],
          [
            926139.1157773738,
            6474437.5
          ],
          [
            926137.5,
            6474438.845834677
          ],
          [
            926112.5,
            6474459.823544305
          ],
          [
            926109.1421511326,
            6474462.5
          ],
          [
            926087.5,
            6474479.495498382
          ],
          [
            926074.6721174925,
            6474487.5
          ],
          [
            926062.5,
            6474495.115351124
          ],
          [
            926037.5,
            6474506.472906216
          ],
          [
            926022.7566861854,
            6474512.5
          ],
          [
            926012.5,
            6474516.837441624
          ],
          [
            925987.5000000001,
            6474529.708613061
          ],
          [
            925977.3698485942,
            6474537.5
          ],
          [
            925962.5,
            6474549.110502243
          ],
          [
            925950.2577622472,
            6474562.5
          ],
          [
            925937.5,
            6474576.545861127
          ]
        ]
      }
    }
  ],
  "provenance": {
    "source_url": "https://data.geopf.fr/wms-r/wms?SERVICE=WMS&VERSION=1.3.0&REQUEST=GetMap&LAYERS=ELEVATION.ELEVATIONGRIDCOVERAGE.HIGHRES&STYLES=normal&CRS=EPSG%3A2154&BBOX=924500.0%2C6469500.0%2C930500.0%2C6475500.0&WIDTH=240&HEIGHT=240&FORMAT=image%2Ftiff",
    "dataset_url": "https://www.data.gouv.fr/datasets/rge-alti-r",
    "layer": "ELEVATION.ELEVATIONGRIDCOVERAGE.HIGHRES",
    "attribution": "Crests derived from © IGN RGE ALTI · Licence Ouverte 2.0",
    "licence": "Licence Ouverte 2.0",
    "retrieved_utc": "2026-09-22T15:24:25.819511+00:00",
    "derived_utc": "2026-09-22T15:29:06.702577+00:00",
    "derivation_code_sha256": "097f79508273c65e26912088bd99b8e73fa7f20c2eed2ff01fec7fabbd3821be",
    "response_bytes": 230534,
    "response_sha256": "6739cd2e0e8e010e0dc249cbbab06cc75f12ed72a3fd4d77de08a62e9b9ca887",
    "terrain_file": "ign-terrain-185-1294.tif",
    "raster_bounds_epsg2154": [
      924500.0,
      6469500.0,
      930500.0,
      6475500.0
    ],
    "bounds_epsg2154": [
      925000.0,
      6470000.0,
      930000.0,
      6475000.0
    ],
    "parameters": {
      "grid_m": 25,
      "buffer_m": 500,
      "gaussian_sigma_m": 50,
      "minimum_transverse_curvature_per_m": 0.0003,
      "transverse_probe_m": 200,
      "minimum_drop_each_side_m": 5,
      "minimum_line_length_m": 200
    },
    "terrain_height_range_m": [
      227.02000427246094,
      1964.7862548828125
    ],
    "method": "Gaussian-smoothed DEM; zero derivative along most concave Hessian eigenvector; negative curvature, two-sided drop and length filters. No flight coordinates used.",
    "limitations": "Approximate, scale-dependent crests; not an official or exhaustive ridge network. Gaps remain at weak ridges, orientation transitions and junctions; no invented links."
  }
}
