{
  "type": "FeatureCollection",
  "crs": {
    "type": "name",
    "properties": {
      "name": "EPSG:2154"
    }
  },
  "features": [
    {
      "type": "Feature",
      "properties": {
        "method": "transverse height maximum"
      },
      "geometry": {
        "type": "LineString",
        "coordinates": [
          [
            925355.895346136,
            6475000.0
          ],
          [
            925359.474842884,
            6475012.499999999
          ],
          [
            925362.5,
            6475025.811273601
          ],
          [
            925364.6697974554,
            6475037.5
          ],
          [
            925370.0151339688,
            6475062.5
          ],
          [
            925376.963964853,
            6475087.5
          ],
          [
            925385.9036632325,
            6475112.5
          ],
          [
            925387.5,
            6475116.887005907
          ],
          [
            925393.8903459802,
            6475137.5
          ],
          [
            925400.1296854608,
            6475162.5
          ],
          [
            925405.5074272772,
            6475187.5
          ],
          [
            925411.394030999,
            6475212.499999999
          ],
          [
            925412.5,
            6475216.436738587
          ],
          [
            925417.8143078749,
            6475237.5
          ],
          [
            925425.8645041089,
            6475262.5
          ],
          [
            925436.3916165079,
            6475287.5
          ],
          [
            925437.5,
            6475289.828964011
          ],
          [
            925448.3223194679,
            6475312.5
          ],
          [
            925461.8245515501,
            6475337.5
          ],
          [
            925462.5,
            6475338.902692145
          ],
          [
            925472.654132548,
            6475362.5
          ],
          [
            925480.4180651898,
            6475387.5
          ],
          [
            925487.5,
            6475408.9576384835
          ],
          [
            925488.5722551886,
            6475412.5
          ],
          [
            925502.6584434075,
            6475437.499999999
          ]
        ]
      }
    },
    {
      "type": "Feature",
      "properties": {
        "method": "transverse height maximum"
      },
      "geometry": {
        "type": "LineString",
        "coordinates": [
          [
            928592.9355325033,
            6475000.0
          ],
          [
            928590.3624580626,
            6475012.5
          ]
        ]
      }
    },
    {
      "type": "Feature",
      "properties": {
        "method": "transverse height maximum"
      },
      "geometry": {
        "type": "LineString",
        "coordinates": [
          [
            928813.2596613403,
            6475087.5
          ],
          [
            928833.7795714405,
            6475112.500000001
          ],
          [
            928837.5,
            6475122.541539316
          ],
          [
            928841.7589869207,
            6475137.5
          ],
          [
            928840.2970433063,
            6475162.5
          ],
          [
            928837.5,
            6475168.472887682
          ],
          [
            928823.6460920414,
            6475187.5
          ],
          [
            928812.5,
            6475196.988781257
          ],
          [
            928797.206550976,
            6475212.5
          ],
          [
            928787.5,
            6475221.584856645
          ],
          [
            928774.9009122015,
            6475237.5
          ],
          [
            928762.5000000001,
            6475253.809360188
          ],
          [
            928756.6389827605,
            6475262.500000001
          ],
          [
            928740.737271177,
            6475287.5
          ],
          [
            928737.5,
            6475292.164149909
          ],
          [
            928724.3886869983,
            6475312.5
          ],
          [
            928712.4999999999,
            6475330.144378066
          ],
          [
            928707.4646271636,
            6475337.5
          ]
        ]
      }
    },
    {
      "type": "Feature",
      "properties": {
        "method": "transverse height maximum"
      },
      "geometry": {
        "type": "LineString",
        "coordinates": [
          [
            928601.4078721191,
            6475412.5
          ],
          [
            928612.5,
            6475431.070198429
          ],
          [
            928614.4877664067,
            6475437.5
          ],
          [
            928616.0897910369,
            6475462.5
          ],
          [
            928615.6833886862,
            6475487.5
          ],
          [
            928614.4008817986,
            6475512.5
          ],
          [
            928612.8377302035,
            6475537.5
          ],
          [
            928612.5,
            6475543.602491122
          ],
          [
            928611.3317761137,
            6475562.5
          ],
          [
            928610.2191317236,
            6475587.5
          ],
          [
            928609.5527621151,
            6475612.500000001
          ],
          [
            928609.2262949131,
            6475637.5
          ],
          [
            928609.0640206356,
            6475662.5
          ],
          [
            928608.8780290139,
            6475687.5
          ],
          [
            928608.543081866,
            6475712.5
          ],
          [
            928608.0635436304,
            6475737.500000001
          ],
          [
            928607.5832488791,
            6475762.5
          ],
          [
            928607.3241612249,
            6475787.5
          ],
          [
            928607.4765420755,
            6475812.5
          ],
          [
            928608.0983311484,
            6475837.5
          ],
          [
            928609.1029414074,
            6475862.5
          ],
          [
            928610.3804325028,
            6475887.5
          ],
          [
            928611.9377156455,
            6475912.5
          ],
          [
            928612.5,
            6475919.814177973
          ],
          [
            928613.6278849796,
            6475937.5
          ],
          [
            928615.5674280308,
            6475962.5
          ],
          [
            928617.8045623406,
            6475987.5
          ],
          [
            928620.1241924707,
            6476012.5
          ],
          [
            928622.1616819496,
            6476037.5
          ],
          [
            928623.47058448,
            6476062.5
          ],
          [
            928623.6751346141,
            6476087.5
          ],
          [
            928622.6778089072,
            6476112.5
          ],
          [
            928620.71552354,
            6476137.5
          ],
          [
            928618.1450432967,
            6476162.5
          ],
          [
            928615.1706174051,
            6476187.5
          ],
          [
            928612.5,
            6476207.413359129
          ],
          [
            928611.3830633721,
            6476212.5
          ],
          [
            928605.4632459183,
            6476237.5
          ],
          [
            928598.9057465647,
            6476262.5
          ],
          [
            928591.9856816826,
            6476287.5
          ],
          [
            928587.5,
            6476303.306102772
          ],
          [
            928583.9544251004,
            6476312.5
          ],
          [
            928574.1271419136,
            6476337.5
          ],
          [
            928564.9533148262,
            6476362.5
          ],
          [
            928562.5,
            6476370.307405261
          ],
          [
            928556.4216883463,
            6476387.5
          ],
          [
            928551.7469338399,
            6476412.499999999
          ],
          [
            928550.5268462086,
            6476437.5
          ],
          [
            928551.017341171,
            6476462.5
          ],
          [
            928551.890193815,
            6476487.5
          ],
          [
            928552.3784784535,
            6476512.5
          ],
          [
            928552.4072028792,
            6476537.5
          ],
          [
            928552.3250806152,
            6476562.5
          ],
          [
            928552.4350381572,
            6476587.5
          ],
          [
            928552.7301842463,
            6476612.500000001
          ],
          [
            928552.9602743849,
            6476637.5
          ],
          [
            928552.8298644419,
            6476662.5
          ],
          [
            928552.1396342511,
            6476687.500000001
          ],
          [
            928550.8171006868,
            6476712.499999999
          ],
          [
            928548.8379768148,
            6476737.5
          ],
          [
            928546.1529248088,
            6476762.5
          ],
          [
            928542.7349580791,
            6476787.5
          ],
          [
            928538.6231546431,
            6476812.5
          ],
          [
            928537.5,
            6476818.710287112
          ],
          [
            928533.0998522841,
            6476837.5
          ],
          [
            928526.7208717348,
            6476862.5
          ]
        ]
      }
    },
    {
      "type": "Feature",
      "properties": {
        "method": "transverse height maximum"
      },
      "geometry": {
        "type": "LineString",
        "coordinates": [
          [
            925537.5,
            6475478.05629217
          ],
          [
            925544.2688457881,
            6475487.5
          ],
          [
            925559.1727280496,
            6475512.5
          ],
          [
            925562.5,
            6475520.674294286
          ],
          [
            925567.7185318847,
            6475537.5
          ],
          [
            925573.3452535443,
            6475562.5
          ],
          [
            925579.4893606694,
            6475587.5
          ],
          [
            925587.5,
            6475611.859015982
          ],
          [
            925587.6955379656,
            6475612.5
          ],
          [
            925597.0199112747,
            6475637.5
          ],
          [
            925609.5044254954,
            6475662.5
          ],
          [
            925612.5,
            6475667.574382966
          ],
          [
            925624.2939234092,
            6475687.5
          ],
          [
            925637.5,
            6475706.9084081855
          ],
          [
            925641.4125017934,
            6475712.5
          ],
          [
            925659.4280090631,
            6475737.5
          ],
          [
            925662.5,
            6475741.780124882
          ],
          [
            925676.5506557703,
            6475762.5
          ],
          [
            925687.5,
            6475780.77974322
          ],
          [
            925690.9536171989,
            6475787.5
          ],
          [
            925700.6253260695,
            6475812.5
          ],
          [
            925709.2825756883,
            6475837.5
          ],
          [
            925712.5,
            6475846.122872511
          ],
          [
            925717.7943016628,
            6475862.5
          ],
          [
            925728.2746171876,
            6475887.5
          ],
          [
            925737.5,
            6475902.763204262
          ],
          [
            925743.2751974791,
            6475912.5
          ],
          [
            925762.5,
            6475937.192697554
          ],
          [
            925762.7492496487,
            6475937.5
          ],
          [
            925784.1955505318,
            6475962.5
          ],
          [
            925787.5,
            6475966.461466142
          ],
          [
            925804.6092278323,
            6475987.5
          ],
          [
            925812.5000000001,
            6475999.407793371
          ],
          [
            925819.5554522431,
            6476012.5
          ],
          [
            925825.5364499314,
            6476037.5
          ],
          [
            925826.0664449797,
            6476062.5
          ],
          [
            925824.6272063432,
            6476087.5
          ],
          [
            925821.3301897494,
            6476112.5
          ],
          [
            925814.1554709947,
            6476137.5
          ],
          [
            925812.5,
            6476143.812682924
          ],
          [
            925806.7688749683,
            6476137.5
          ],
          [
            925787.5,
            6476121.306558972
          ],
          [
            925779.9590161035,
            6476112.5
          ],
          [
            925762.5,
            6476097.871437025
          ],
          [
            925737.5,
            6476104.687170055
          ],
          [
            925729.6231948339,
            6476112.5
          ],
          [
            925716.6166098256,
            6476137.5
          ],
          [
            925724.8770274116,
            6476162.5
          ],
          [
            925737.5,
            6476168.734813392
          ]
        ]
      }
    },
    {
      "type": "Feature",
      "properties": {
        "method": "transverse height maximum"
      },
      "geometry": {
        "type": "LineString",
        "coordinates": [
          [
            925062.5,
            6475734.957880936
          ],
          [
            925055.6508990072,
            6475737.5
          ],
          [
            925037.5000000001,
            6475753.218776955
          ],
          [
            925034.5520688313,
            6475762.5
          ],
          [
            925029.376182838,
            6475787.5
          ],
          [
            925024.940230314,
            6475812.5
          ],
          [
            925020.0995130431,
            6475837.5
          ],
          [
            925014.3860541157,
            6475862.5
          ],
          [
            925012.5,
            6475869.953252598
          ],
          [
            925007.9039576233,
            6475887.5
          ],
          [
            925001.3249258053,
            6475912.5
          ],
          [
            925000.0,
            6475917.544407561
          ]
        ]
      }
    },
    {
      "type": "Feature",
      "properties": {
        "method": "transverse height maximum"
      },
      "geometry": {
        "type": "LineString",
        "coordinates": [
          [
            925000.0,
            6476063.108821734
          ],
          [
            925007.5843066185,
            6476087.5
          ],
          [
            925012.5,
            6476103.727633547
          ],
          [
            925016.3443224041,
            6476112.5
          ],
          [
            925026.3446638554,
            6476137.500000001
          ],
          [
            925033.7066417638,
            6476162.500000001
          ],
          [
            925037.5,
            6476180.993972884
          ],
          [
            925039.3421471277,
            6476187.5
          ],
          [
            925044.3772896825,
            6476212.5
          ],
          [
            925047.8972538919,
            6476237.5
          ],
          [
            925050.7035812215,
            6476262.500000001
          ],
          [
            925053.3391072487,
            6476287.5
          ],
          [
            925056.4366850092,
            6476312.5
          ],
          [
            925060.7196795212,
            6476337.5
          ],
          [
            925062.5,
            6476345.249736438
          ],
          [
            925067.238006413,
            6476362.5
          ],
          [
            925074.2754421124,
            6476387.5
          ],
          [
            925080.6552673691,
            6476412.5
          ],
          [
            925086.3638792797,
            6476437.499999999
          ],
          [
            925087.5,
            6476442.690569189
          ],
          [
            925092.7397600871,
            6476462.5
          ],
          [
            925098.5346165805,
            6476487.5
          ],
          [
            925103.5397529436,
            6476512.5
          ],
          [
            925107.8649280778,
            6476537.5
          ],
          [
            925111.6860946389,
            6476562.5
          ],
          [
            925112.5,
            6476567.979645897
          ],
          [
            925116.2248093777,
            6476587.5
          ],
          [
            925120.923514077,
            6476612.5
          ],
          [
            925125.7339434919,
            6476637.5
          ],
          [
            925130.6697113743,
            6476662.499999999
          ],
          [
            925135.6579430935,
            6476687.5
          ],
          [
            925137.4999999999,
            6476696.624007535
          ],
          [
            925141.5144118208,
            6476712.5
          ],
          [
            925147.3190761692,
            6476737.5
          ],
          [
            925152.8788618034,
            6476762.5
          ],
          [
            925158.6841985015,
            6476787.499999999
          ],
          [
            925162.5,
            6476802.243474492
          ],
          [
            925165.5322793984,
            6476812.5
          ],
          [
            925173.1486715096,
            6476837.5
          ],
          [
            925180.4152740407,
            6476862.500000001
          ],
          [
            925187.2246615877,
            6476887.5
          ],
          [
            925187.5,
            6476888.555352644
          ],
          [
            925194.5700160867,
            6476912.5
          ],
          [
            925200.8750906124,
            6476937.5
          ],
          [
            925206.4271586176,
            6476962.5
          ],
          [
            925211.4198111391,
            6476987.5
          ],
          [
            925212.5,
            6476993.355683002
          ],
          [
            925216.9044254045,
            6477012.5
          ],
          [
            925221.912264673,
            6477037.5
          ],
          [
            925226.1098829756,
            6477062.5
          ],
          [
            925229.4355807897,
            6477087.5
          ],
          [
            925231.8747123233,
            6477112.499999999
          ],
          [
            925233.503938063,
            6477137.499999999
          ],
          [
            925234.529947425,
            6477162.500000001
          ],
          [
            925235.3603546096,
            6477187.499999999
          ],
          [
            925236.6424735907,
            6477212.5
          ],
          [
            925237.5,
            6477221.002706982
          ],
          [
            925239.878914507,
            6477237.5
          ],
          [
            925245.8134371309,
            6477262.5
          ],
          [
            925253.2537275668,
            6477287.500000001
          ],
          [
            925260.6640304292,
            6477312.5
          ],
          [
            925262.4999999999,
            6477319.319675627
          ],
          [
            925268.6854932471,
            6477337.5
          ],
          [
            925274.7743992828,
            6477362.5
          ],
          [
            925278.675479422,
            6477387.5
          ],
          [
            925280.7769945377,
            6477412.5
          ],
          [
            925281.3909117997,
            6477437.5
          ],
          [
            925280.876869668,
            6477462.5
          ],
          [
            925279.6806809955,
            6477487.500000001
          ],
          [
            925278.2863139543,
            6477512.5
          ],
          [
            925277.136989608,
            6477537.500000001
          ],
          [
            925276.573696572,
            6477562.5
          ],
          [
            925276.7691735601,
            6477587.5
          ],
          [
            925277.6636248417,
            6477612.5
          ],
          [
            925279.0137764732,
            6477637.499999999
          ],
          [
            925280.5572176956,
            6477662.5
          ],
          [
            925282.1684534362,
            6477687.5
          ],
          [
            925283.9295758713,
            6477712.5
          ],
          [
            925286.0917410173,
            6477737.5
          ],
          [
            925287.5,
            6477749.793078004
          ],
          [
            925289.396894584,
            6477762.5
          ],
          [
            925294.0064524383,
            6477787.5
          ],
          [
            925299.3941763352,
            6477812.5
          ],
          [
            925305.6312015158,
            6477837.5
          ],
          [
            925312.5,
            6477861.054881285
          ],
          [
            925313.0308656573,
            6477862.5
          ],
          [
            925322.8995934334,
            6477887.5
          ],
          [
            925332.4336391089,
            6477912.5
          ],
          [
            925337.5,
            6477926.357197243
          ],
          [
            925342.1740154546,
            6477937.5
          ],
          [
            925351.0538374152,
            6477962.500000001
          ],
          [
            925358.2802223305,
            6477987.499999999
          ],
          [
            925362.5,
            6478005.193532413
          ],
          [
            925364.4456624982,
            6478012.5
          ],
          [
            925369.541024113,
            6478037.5
          ],
          [
            925373.0860356803,
            6478062.5
          ],
          [
            925375.5274873552,
            6478087.5
          ],
          [
            925377.4104197779,
            6478112.5
          ],
          [
            925379.298671201,
            6478137.5
          ],
          [
            925381.5815864739,
            6478162.5
          ],
          [
            925384.2850789205,
            6478187.5
          ],
          [
            925387.120436645,
            6478212.5
          ],
          [
            925387.5,
            6478216.109592538
          ],
          [
            925390.5603345027,
            6478237.5
          ],
          [
            925393.5228901033,
            6478262.5
          ],
          [
            925395.6943005587,
            6478287.5
          ],
          [
            925396.986048032,
            6478312.5
          ],
          [
            925397.4257633662,
            6478337.5
          ],
          [
            925397.1722519553,
            6478362.5
          ],
          [
            925396.4674580167,
            6478387.5
          ],
          [
            925395.5776767101,
            6478412.5
          ],
          [
            925394.7543155669,
            6478437.5
          ],
          [
            925394.2032503464,
            6478462.5
          ],
          [
            925394.0555842464,
            6478487.5
          ],
          [
            925394.3443239725,
            6478512.5
          ],
          [
            925395.0109727322,
            6478537.5
          ],
          [
            925395.9678596212,
            6478562.5
          ],
          [
            925397.1773043034,
            6478587.5
          ],
          [
            925398.6795961842,
            6478612.5
          ],
          [
            925400.5523523948,
            6478637.5
          ],
          [
            925402.8603725946,
            6478662.5
          ],
          [
            925405.6520894855,
            6478687.500000001
          ],
          [
            925408.9841893681,
            6478712.5
          ],
          [
            925412.5,
            6478734.946073157
          ],
          [
            925413.0466443355,
            6478737.5
          ],
          [
            925418.7775709818,
            6478762.5
          ],
          [
            925424.1467496078,
            6478787.5
          ],
          [
            925428.4725004601,
            6478812.5
          ],
          [
            925431.0289509766,
            6478837.5
          ],
          [
            925431.8258865733,
            6478862.499999999
          ],
          [
            925431.7223834255,
            6478887.5
          ],
          [
            925431.554405463,
            6478912.5
          ],
          [
            925431.7304226347,
            6478937.5
          ],
          [
            925432.2935558914,
            6478962.5
          ],
          [
            925432.8162471189,
            6478987.5
          ],
          [
            925432.1972926819,
            6479012.5
          ],
          [
            925429.2621870576,
            6479037.499999999
          ],
          [
            925423.6346728216,
            6479062.5
          ],
          [
            925415.2911900363,
            6479087.5
          ],
          [
            925412.5,
            6479094.278303185
          ],
          [
            925406.4359246091,
            6479112.5
          ],
          [
            925397.3568250522,
            6479137.5
          ],
          [
            925387.9666435568,
            6479162.5
          ],
          [
            925387.5,
            6479163.946364848
          ],
          [
            925381.7641388318,
            6479187.5
          ],
          [
            925377.4829212555,
            6479212.5
          ],
          [
            925374.8930678517,
            6479237.5
          ],
          [
            925373.3618329677,
            6479262.5
          ],
          [
            925372.1392979808,
            6479287.5
          ],
          [
            925370.5772899215,
            6479312.5
          ],
          [
            925367.9813265252,
            6479337.5
          ],
          [
            925363.3735264374,
            6479362.5
          ],
          [
            925362.5,
            6479365.582973576
          ],
          [
            925357.1266983818,
            6479387.5
          ],
          [
            925348.8391054395,
            6479412.5
          ],
          [
            925338.358526317,
            6479437.5
          ],
          [
            925337.5,
            6479439.409717047
          ],
          [
            925328.1422300218,
            6479462.5
          ],
          [
            925317.888434343,
            6479487.5
          ],
          [
            925312.5,
            6479501.4962530015
          ],
          [
            925308.9320056448,
            6479512.5
          ],
          [
            925302.9146934699,
            6479537.5
          ],
          [
            925298.6902619498,
            6479562.5
          ],
          [
            925295.9369439768,
            6479587.5
          ],
          [
            925294.3896719407,
            6479612.5
          ],
          [
            925293.870203836,
            6479637.5
          ],
          [
            925294.20726996,
            6479662.5
          ],
          [
            925295.0145131845,
            6479687.5
          ],
          [
            925295.5771815553,
            6479712.5
          ],
          [
            925295.6538209725,
            6479737.5
          ],
          [
            925295.9372090393,
            6479762.5
          ],
          [
            925296.8956809574,
            6479787.5
          ],
          [
            925298.1980492882,
            6479812.5
          ],
          [
            925299.2677505207,
            6479837.5
          ],
          [
            925299.7217478341,
            6479862.5
          ],
          [
            925299.3936613501,
            6479887.5
          ],
          [
            925298.3287318021,
            6479912.5
          ],
          [
            925296.9435816136,
            6479937.5
          ],
          [
            925296.5555971428,
            6479962.5
          ],
          [
            925300.2693933615,
            6479987.5
          ],
          [
            925306.3260710952,
            6480000.0
          ]
        ]
      }
    },
    {
      "type": "Feature",
      "properties": {
        "method": "transverse height maximum"
      },
      "geometry": {
        "type": "LineString",
        "coordinates": [
          [
            925787.5,
            6476181.571868111
          ],
          [
            925792.1265796833,
            6476187.5
          ],
          [
            925801.8667577244,
            6476212.5
          ],
          [
            925806.6785417529,
            6476237.5
          ],
          [
            925811.2955608894,
            6476262.5
          ],
          [
            925812.4999999999,
            6476267.121787956
          ],
          [
            925815.4296897097,
            6476287.5
          ],
          [
            925821.6080558514,
            6476312.5
          ],
          [
            925831.9303224924,
            6476337.5
          ],
          [
            925837.5,
            6476347.059570204
          ],
          [
            925844.3503352669,
            6476362.5
          ],
          [
            925860.6589376144,
            6476387.5
          ]
        ]
      }
    },
    {
      "type": "Feature",
      "properties": {
        "method": "transverse height maximum"
      },
      "geometry": {
        "type": "LineString",
        "coordinates": [
          [
            928587.5,
            6477141.587708208
          ],
          [
            928612.5,
            6477160.964864285
          ],
          [
            928613.444054406,
            6477162.5
          ],
          [
            928627.5448506096,
            6477187.5
          ],
          [
            928637.5,
            6477207.864850857
          ],
          [
            928639.1833405939,
            6477212.5
          ],
          [
            928648.0955308514,
            6477237.5
          ],
          [
            928657.5402913257,
            6477262.5
          ],
          [
            928662.5000000001,
            6477274.291446072
          ],
          [
            928667.9242625431,
            6477287.5
          ],
          [
            928679.2662195386,
            6477312.5
          ],
          [
            928687.5,
            6477328.873523173
          ],
          [
            928692.5499069791,
            6477337.5
          ],
          [
            928707.5968978798,
            6477362.5
          ],
          [
            928712.5,
            6477370.761099233
          ],
          [
            928724.5861131666,
            6477387.5
          ],
          [
            928737.5,
            6477408.76921373
          ],
          [
            928740.0689464402,
            6477412.5
          ],
          [
            928750.917601231,
            6477437.5
          ],
          [
            928756.6497716616,
            6477462.5
          ],
          [
            928760.710042239,
            6477487.5
          ],
          [
            928762.4999999999,
            6477498.016644013
          ],
          [
            928764.4748047326,
            6477512.5
          ],
          [
            928768.3158687815,
            6477537.5
          ],
          [
            928772.5558967785,
            6477562.5
          ],
          [
            928777.3012789346,
            6477587.500000001
          ],
          [
            928782.7544215452,
            6477612.5
          ],
          [
            928787.5,
            6477630.936979369
          ],
          [
            928788.9002541289,
            6477637.5
          ],
          [
            928795.0911543269,
            6477662.5
          ],
          [
            928802.526744675,
            6477687.5
          ],
          [
            928811.7494068932,
            6477712.5
          ],
          [
            928812.5,
            6477714.293648395
          ],
          [
            928821.0174770269,
            6477737.5
          ],
          [
            928831.4390764628,
            6477762.5
          ],
          [
            928837.5,
            6477775.963233863
          ],
          [
            928842.0162010157,
            6477787.5
          ],
          [
            928851.5721142516,
            6477812.5
          ],
          [
            928861.3003142804,
            6477837.5
          ],
          [
            928862.5,
            6477840.441149736
          ],
          [
            928869.7032001371,
            6477862.5
          ],
          [
            928878.434837626,
            6477887.5
          ],
          [
            928887.5,
            6477909.922162634
          ],
          [
            928888.3859960577,
            6477912.5
          ],
          [
            928898.0946027354,
            6477937.5
          ],
          [
            928909.2838329643,
            6477962.5
          ],
          [
            928912.5,
            6477968.784029695
          ],
          [
            928921.3849497313,
            6477987.5
          ],
          [
            928934.8937925197,
            6478012.5
          ],
          [
            928937.5,
            6478016.818236753
          ],
          [
            928950.6522958098,
            6478037.5
          ],
          [
            928962.5,
            6478053.773661438
          ],
          [
            928969.8556985656,
            6478062.5
          ],
          [
            928987.5,
            6478081.523785536
          ]
        ]
      }
    },
    {
      "type": "Feature",
      "properties": {
        "method": "transverse height maximum"
      },
      "geometry": {
        "type": "LineString",
        "coordinates": [
          [
            926766.8203406129,
            6477337.5
          ],
          [
            926771.1638872216,
            6477362.5
          ],
          [
            926777.3307036066,
            6477387.5
          ],
          [
            926785.5739952093,
            6477412.5
          ],
          [
            926787.5,
            6477417.233946001
          ],
          [
            926794.8173779726,
            6477437.5
          ],
          [
            926805.6778024712,
            6477462.500000001
          ],
          [
            926812.5,
            6477476.196110337
          ],
          [
            926818.0168767622,
            6477487.5
          ],
          [
            926830.5808414668,
            6477512.5
          ],
          [
            926837.5,
            6477526.751995463
          ],
          [
            926842.6475143881,
            6477537.5
          ],
          [
            926852.6617608935,
            6477562.5
          ],
          [
            926860.8924881899,
            6477587.5
          ],
          [
            926862.5,
            6477593.469695985
          ],
          [
            926866.8749456384,
            6477612.5
          ],
          [
            926871.7504664006,
            6477637.5
          ],
          [
            926876.658091029,
            6477662.5
          ],
          [
            926882.5924127002,
            6477687.5
          ],
          [
            926887.5,
            6477702.73658322
          ],
          [
            926890.2384995027,
            6477712.5
          ],
          [
            926899.8798148256,
            6477737.5
          ],
          [
            926912.5,
            6477760.758669505
          ],
          [
            926913.3643352881,
            6477762.5
          ],
          [
            926927.3011056265,
            6477787.5
          ],
          [
            926937.5,
            6477803.7115209885
          ],
          [
            926943.1510581266,
            6477812.5
          ],
          [
            926959.9692451042,
            6477837.499999999
          ],
          [
            926962.5,
            6477841.240944609
          ],
          [
            926977.5800381488,
            6477862.5
          ],
          [
            926987.5,
            6477875.687679896
          ],
          [
            926996.9049823942,
            6477887.5
          ],
          [
            927012.5,
            6477905.917452508
          ]
        ]
      }
    },
    {
      "type": "Feature",
      "properties": {
        "method": "transverse height maximum"
      },
      "geometry": {
        "type": "LineString",
        "coordinates": [
          [
            927043.2614559201,
            6477937.5
          ],
          [
            927062.5,
            6477958.4304447435
          ],
          [
            927064.7278469715,
            6477962.5
          ],
          [
            927066.2995507217,
            6477987.5
          ],
          [
            927066.2595815413,
            6478012.5
          ],
          [
            927067.8053577997,
            6478037.5
          ],
          [
            927071.4539720949,
            6478062.5
          ],
          [
            927077.603175749,
            6478087.5
          ],
          [
            927086.985846764,
            6478112.5
          ],
          [
            927087.5,
            6478113.582693909
          ],
          [
            927097.9451431695,
            6478137.5
          ],
          [
            927112.2976734388,
            6478162.5
          ],
          [
            927112.5,
            6478163.133390468
          ],
          [
            927118.207014547,
            6478187.5
          ],
          [
            927112.5,
            6478206.370956256
          ],
          [
            927110.4926468522,
            6478212.500000001
          ],
          [
            927101.0740790317,
            6478237.5
          ],
          [
            927094.178373966,
            6478262.5
          ],
          [
            927089.6619866799,
            6478287.5
          ],
          [
            927087.5,
            6478308.508624418
          ],
          [
            927087.0471609124,
            6478312.500000001
          ],
          [
            927086.0733183367,
            6478337.5
          ],
          [
            927086.8142189963,
            6478362.5
          ],
          [
            927087.5,
            6478370.291054168
          ],
          [
            927088.7988091582,
            6478387.5
          ],
          [
            927091.618265926,
            6478412.5
          ],
          [
            927094.8974477083,
            6478437.5
          ],
          [
            927098.0174948138,
            6478462.5
          ],
          [
            927100.702093347,
            6478487.5
          ],
          [
            927103.4790070704,
            6478512.5
          ],
          [
            927107.1635746643,
            6478537.5
          ],
          [
            927112.5,
            6478562.399899662
          ],
          [
            927112.5198291894,
            6478562.5
          ],
          [
            927118.9389505599,
            6478587.5
          ],
          [
            927127.411838413,
            6478612.499999999
          ],
          [
            927137.5,
            6478635.192809252
          ],
          [
            927138.5342615981,
            6478637.5
          ],
          [
            927150.7280815053,
            6478662.5
          ],
          [
            927162.5,
            6478683.016361105
          ],
          [
            927165.1232934295,
            6478687.5
          ],
          [
            927180.2133792876,
            6478712.5
          ],
          [
            927187.5,
            6478723.905878695
          ],
          [
            927195.8767421566,
            6478737.5
          ],
          [
            927209.4896618486,
            6478762.5
          ],
          [
            927212.5,
            6478771.110380087
          ],
          [
            927216.9827782843,
            6478787.5
          ],
          [
            927220.5713744952,
            6478812.5
          ],
          [
            927224.4100447535,
            6478837.5
          ],
          [
            927230.4291008133,
            6478862.5
          ],
          [
            927237.5,
            6478882.019740266
          ],
          [
            927239.2502634204,
            6478887.5
          ],
          [
            927249.388192285,
            6478912.5
          ],
          [
            927262.5,
            6478934.950271162
          ],
          [
            927263.7665741051,
            6478937.5
          ],
          [
            927277.4080461578,
            6478962.5
          ],
          [
            927287.5,
            6478979.427135668
          ],
          [
            927290.834012113,
            6478987.5
          ],
          [
            927299.8091898056,
            6479012.5
          ],
          [
            927307.7909840158,
            6479037.500000001
          ],
          [
            927312.5,
            6479058.894147178
          ],
          [
            927313.0388117209,
            6479062.5
          ],
          [
            927314.3022314004,
            6479087.5
          ],
          [
            927314.3196940294,
            6479112.5
          ],
          [
            927314.311040728,
            6479137.5
          ],
          [
            927314.8157941923,
            6479162.5
          ],
          [
            927315.8198316752,
            6479187.5
          ],
          [
            927316.613946961,
            6479212.5
          ],
          [
            927315.5114899413,
            6479237.5
          ],
          [
            927312.5831214135,
            6479262.5
          ],
          [
            927312.5,
            6479263.272829608
          ],
          [
            927309.0781427078,
            6479287.500000001
          ],
          [
            927307.3144707137,
            6479312.5
          ],
          [
            927307.0390209284,
            6479337.5
          ],
          [
            927306.9404556275,
            6479362.5
          ],
          [
            927303.4197321769,
            6479387.5
          ],
          [
            927294.5762624732,
            6479412.5
          ],
          [
            927287.5000000001,
            6479431.5389042795
          ],
          [
            927285.0556451111,
            6479437.5
          ],
          [
            927276.2448980695,
            6479462.5
          ],
          [
            927270.6357570173,
            6479487.5
          ],
          [
            927267.4157528342,
            6479512.5
          ],
          [
            927265.9451607348,
            6479537.5
          ],
          [
            927265.7648701709,
            6479562.5
          ],
          [
            927266.4596149545,
            6479587.5
          ],
          [
            927267.6378922891,
            6479612.5
          ],
          [
            927269.0816660965,
            6479637.5
          ],
          [
            927270.8433809461,
            6479662.5
          ],
          [
            927273.1578348717,
            6479687.5
          ],
          [
            927276.3794228784,
            6479712.5
          ],
          [
            927281.0509731054,
            6479737.5
          ],
          [
            927287.5,
            6479760.891642159
          ],
          [
            927287.77570001,
            6479762.5
          ],
          [
            927292.711731064,
            6479787.5
          ],
          [
            927299.4191789143,
            6479812.5
          ],
          [
            927309.08344678,
            6479837.5
          ],
          [
            927312.5,
            6479844.915242543
          ],
          [
            927318.0480091221,
            6479862.5
          ],
          [
            927328.3855757907,
            6479887.5
          ],
          [
            927337.5,
            6479904.104604718
          ],
          [
            927340.9717710356,
            6479912.5
          ],
          [
            927353.3493050472,
            6479937.499999999
          ],
          [
            927362.5,
            6479951.52285858
          ],
          [
            927368.4535858341,
            6479962.5
          ],
          [
            927386.7086254937,
            6479987.5
          ],
          [
            927387.5,
            6479988.501651589
          ],
          [
            927394.5425473186,
            6480000.0
          ]
        ]
      }
    },
    {
      "type": "Feature",
      "properties": {
        "method": "transverse height maximum"
      },
      "geometry": {
        "type": "LineString",
        "coordinates": [
          [
            929287.5,
            6478334.2872473495
          ],
          [
            929289.5093025347,
            6478337.5
          ],
          [
            929301.8806707304,
            6478362.5
          ],
          [
            929312.0785714255,
            6478387.5
          ],
          [
            929312.5,
            6478388.662199669
          ],
          [
            929320.1588432731,
            6478412.5
          ],
          [
            929327.1047181849,
            6478437.5
          ],
          [
            929333.0465704056,
            6478462.499999999
          ],
          [
            929337.5,
            6478485.0153609235
          ],
          [
            929337.9136586969,
            6478487.5
          ],
          [
            929341.284081612,
            6478512.5
          ],
          [
            929343.7982808852,
            6478537.5
          ],
          [
            929345.3412937223,
            6478562.5
          ],
          [
            929344.8134291852,
            6478587.5
          ],
          [
            929337.5,
            6478609.098250255
          ],
          [
            929333.6303223819,
            6478612.499999999
          ],
          [
            929312.5,
            6478620.768552437
          ]
        ]
      }
    },
    {
      "type": "Feature",
      "properties": {
        "method": "transverse height maximum"
      },
      "geometry": {
        "type": "LineString",
        "coordinates": [
          [
            929937.5,
            6479493.660905825
          ],
          [
            929912.5,
            6479504.501069666
          ],
          [
            929899.727941374,
            6479512.5
          ],
          [
            929887.5,
            6479524.179873755
          ],
          [
            929873.7145988643,
            6479537.5
          ],
          [
            929862.5,
            6479551.127279956
          ],
          [
            929853.776836632,
            6479562.5
          ],
          [
            929838.8898697562,
            6479587.5
          ],
          [
            929837.5,
            6479590.440390333
          ],
          [
            929828.4458142043,
            6479612.5
          ],
          [
            929821.0598284027,
            6479637.5
          ],
          [
            929814.1861026844,
            6479662.5
          ],
          [
            929812.5,
            6479668.22560573
          ],
          [
            929804.8772652402,
            6479687.5
          ],
          [
            929792.764489298,
            6479712.5
          ],
          [
            929787.5,
            6479718.736816465
          ],
          [
            929762.4999999999,
            6479735.760653527
          ],
          [
            929737.5,
            6479724.334023627
          ]
        ]
      }
    },
    {
      "type": "Feature",
      "properties": {
        "method": "transverse height maximum"
      },
      "geometry": {
        "type": "LineString",
        "coordinates": [
          [
            929112.5,
            6479585.271165155
          ],
          [
            929111.0835725061,
            6479587.5
          ],
          [
            929091.9717711662,
            6479612.5
          ],
          [
            929087.5,
            6479618.330643924
          ],
          [
            929071.8017418694,
            6479637.5
          ],
          [
            929062.5,
            6479651.595092495
          ],
          [
            929053.3239670296,
            6479662.5
          ],
          [
            929040.2881598587,
            6479687.5
          ],
          [
            929037.5,
            6479695.736446371
          ],
          [
            929030.6475851377,
            6479712.5
          ],
          [
            929022.3618526475,
            6479737.5
          ],
          [
            929013.5068864378,
            6479762.5
          ],
          [
            929012.5,
            6479765.180863276
          ],
          [
            929003.9878897507,
            6479787.499999999
          ],
          [
            928994.3824865806,
            6479812.5
          ],
          [
            928987.4999999999,
            6479827.441702075
          ],
          [
            928982.7068690251,
            6479837.5
          ],
          [
            928966.972149142,
            6479862.5
          ],
          [
            928962.5,
            6479867.966292144
          ],
          [
            928949.87339982,
            6479887.5
          ],
          [
            928937.5,
            6479903.036443015
          ],
          [
            928932.0588818936,
            6479912.5
          ],
          [
            928916.1394092509,
            6479937.5
          ],
          [
            928912.5,
            6479942.637616317
          ],
          [
            928902.619759677,
            6479962.5
          ],
          [
            928890.1784583753,
            6479987.5
          ],
          [
            928887.5,
            6479992.620353155
          ],
          [
            928884.3405603822,
            6480000.0
          ]
        ]
      }
    },
    {
      "type": "Feature",
      "properties": {
        "method": "transverse height maximum"
      },
      "geometry": {
        "type": "LineString",
        "coordinates": [
          [
            929662.5348915221,
            6479762.5
          ],
          [
            929687.5,
            6479783.024210531
          ],
          [
            929692.8603228575,
            6479787.5
          ],
          [
            929711.651230774,
            6479812.5
          ],
          [
            929712.5,
            6479814.365781915
          ],
          [
            929722.5237061705,
            6479837.5
          ],
          [
            929730.9068100208,
            6479862.5
          ],
          [
            929737.5,
            6479883.814764192
          ],
          [
            929738.5851827564,
            6479887.5
          ],
          [
            929745.6293734327,
            6479912.5
          ],
          [
            929752.3361978602,
            6479937.5
          ],
          [
            929758.8765143282,
            6479962.5
          ],
          [
            929762.5,
            6479975.707215699
          ],
          [
            929765.585847979,
            6479987.5
          ],
          [
            929769.1836498966,
            6480000.0
          ]
        ]
      }
    },
    {
      "type": "Feature",
      "properties": {
        "method": "transverse height maximum"
      },
      "geometry": {
        "type": "LineString",
        "coordinates": [
          [
            926812.5,
            6475260.198837047
          ],
          [
            926787.5,
            6475247.580549513
          ],
          [
            926762.5,
            6475247.502282593
          ],
          [
            926737.5,
            6475252.062851576
          ],
          [
            926712.5,
            6475258.972894781
          ],
          [
            926701.3366905384,
            6475262.5
          ],
          [
            926687.5,
            6475266.366732904
          ],
          [
            926662.5,
            6475272.720653346
          ],
          [
            926637.5,
            6475277.782812066
          ],
          [
            926612.5,
            6475281.9529419355
          ]
        ]
      }
    },
    {
      "type": "Feature",
      "properties": {
        "method": "transverse height maximum"
      },
      "geometry": {
        "type": "LineString",
        "coordinates": [
          [
            925434.6283702106,
            6475437.5
          ],
          [
            925412.4999999999,
            6475451.606275517
          ],
          [
            925395.4730875064,
            6475462.5
          ],
          [
            925387.5,
            6475467.84618487
          ],
          [
            925362.4999999999,
            6475484.6560763465
          ],
          [
            925358.5098818972,
            6475487.5
          ],
          [
            925337.5,
            6475501.972627512
          ],
          [
            925323.1411243365,
            6475512.5
          ],
          [
            925312.5,
            6475520.287109483
          ],
          [
            925290.7250582296,
            6475537.5
          ],
          [
            925287.5,
            6475540.102941982
          ],
          [
            925262.5,
            6475561.7867178125
          ],
          [
            925261.7267346296,
            6475562.5
          ],
          [
            925237.5,
            6475584.5941490205
          ],
          [
            925234.3442291692,
            6475587.5
          ],
          [
            925212.5,
            6475607.1727557015
          ],
          [
            925206.577380796,
            6475612.5
          ],
          [
            925187.5000000001,
            6475629.755203005
          ],
          [
            925179.2405107898,
            6475637.5
          ],
          [
            925162.5,
            6475653.575619812
          ],
          [
            925153.505903732,
            6475662.5
          ],
          [
            925137.5,
            6475678.529676799
          ],
          [
            925128.4244571842,
            6475687.5
          ],
          [
            925112.5,
            6475702.940470942
          ],
          [
            925101.2543774539,
            6475712.5
          ]
        ]
      }
    },
    {
      "type": "Feature",
      "properties": {
        "method": "transverse height maximum"
      },
      "geometry": {
        "type": "LineString",
        "coordinates": [
          [
            927622.0089012899,
            6476712.5
          ],
          [
            927612.5,
            6476722.640392782
          ],
          [
            927603.9530478863,
            6476737.5
          ],
          [
            927587.5,
            6476752.94338279
          ],
          [
            927579.0229766113,
            6476762.500000001
          ],
          [
            927562.5,
            6476774.340926159
          ],
          [
            927539.8335442642,
            6476787.5
          ],
          [
            927537.5,
            6476788.5033043055
          ],
          [
            927512.5,
            6476798.438810417
          ],
          [
            927487.5,
            6476807.146488528
          ],
          [
            927471.2379810502,
            6476812.5
          ],
          [
            927462.5,
            6476815.300291831
          ],
          [
            927437.5,
            6476823.108885395
          ],
          [
            927412.5,
            6476832.273537165
          ],
          [
            927400.8349390023,
            6476837.5
          ],
          [
            927387.5,
            6476844.159749435
          ]
        ]
      }
    },
    {
      "type": "Feature",
      "properties": {
        "method": "transverse height maximum"
      },
      "geometry": {
        "type": "LineString",
        "coordinates": [
          [
            928562.5,
            6477145.050079348
          ],
          [
            928537.5,
            6477157.782841193
          ],
          [
            928512.5,
            6477160.282256089
          ],
          [
            928487.5000000001,
            6477158.111539338
          ],
          [
            928462.5,
            6477155.240073898
          ],
          [
            928437.5,
            6477151.901764094
          ],
          [
            928412.5,
            6477147.796695438
          ],
          [
            928387.5,
            6477144.519156073
          ],
          [
            928362.5,
            6477143.2196154
          ],
          [
            928337.5,
            6477143.70551369
          ],
          [
            928312.5,
            6477145.553370457
          ],
          [
            928287.5,
            6477149.360434874
          ],
          [
            928262.5,
            6477156.392713433
          ],
          [
            928247.4272568516,
            6477162.5
          ],
          [
            928237.5,
            6477165.906091874
          ],
          [
            928212.5,
            6477176.137592711
          ],
          [
            928187.5,
            6477186.611495332
          ],
          [
            928185.2739354166,
            6477187.499999999
          ],
          [
            928162.5,
            6477197.299521534
          ],
          [
            928137.4999999999,
            6477205.237334876
          ],
          [
            928112.5,
            6477207.972079473
          ],
          [
            928087.5,
            6477209.28449241
          ],
          [
            928069.6894218647,
            6477212.5
          ],
          [
            928062.5,
            6477214.0189718455
          ],
          [
            928037.5,
            6477222.386509538
          ],
          [
            928012.5,
            6477234.379428533
          ],
          [
            928007.3044507955,
            6477237.5
          ]
        ]
      }
    },
    {
      "type": "Feature",
      "properties": {
        "method": "transverse height maximum"
      },
      "geometry": {
        "type": "LineString",
        "coordinates": [
          [
            929237.5,
            6478279.399708853
          ],
          [
            929216.014380233,
            6478262.5
          ],
          [
            929212.5,
            6478259.747506343
          ],
          [
            929187.5,
            6478240.690892711
          ],
          [
            929183.4618559651,
            6478237.5
          ],
          [
            929162.5,
            6478221.626440361
          ],
          [
            929150.734783983,
            6478212.5
          ],
          [
            929137.4999999999,
            6478202.434102256
          ],
          [
            929117.904261995,
            6478187.5
          ],
          [
            929112.5,
            6478183.312874207
          ],
          [
            929087.5,
            6478164.31914416
          ],
          [
            929085.0492931709,
            6478162.5
          ],
          [
            929062.5,
            6478145.023741658
          ],
          [
            929052.9212560405,
            6478137.5
          ],
          [
            929037.5,
            6478125.1249379115
          ],
          [
            929022.3214289269,
            6478112.5
          ],
          [
            929012.5,
            6478104.316674887
          ]
        ]
      }
    },
    {
      "type": "Feature",
      "properties": {
        "method": "transverse height maximum"
      },
      "geometry": {
        "type": "LineString",
        "coordinates": [
          [
            929837.5,
            6478526.127766005
          ],
          [
            929826.7271666924,
            6478512.5
          ],
          [
            929812.5,
            6478488.784015473
          ],
          [
            929811.3957877033,
            6478487.5
          ],
          [
            929798.5639118366,
            6478462.5
          ],
          [
            929787.5,
            6478437.987652391
          ],
          [
            929787.252091575,
            6478437.5
          ],
          [
            929762.5,
            6478417.356761835
          ],
          [
            929755.4899483453,
            6478412.5
          ],
          [
            929737.5,
            6478405.046959357
          ],
          [
            929712.5,
            6478397.3227698915
          ],
          [
            929687.5,
            6478394.597390643
          ],
          [
            929662.5,
            6478397.545472727
          ],
          [
            929637.5000000001,
            6478404.129443862
          ],
          [
            929612.5,
            6478409.183381743
          ],
          [
            929587.5000000001,
            6478408.9902079
          ],
          [
            929562.5,
            6478404.1006184155
          ],
          [
            929537.5,
            6478396.649167078
          ],
          [
            929512.5,
            6478389.20228025
          ],
          [
            929503.895722425,
            6478387.5
          ],
          [
            929487.5,
            6478384.15622551
          ],
          [
            929462.5,
            6478383.13741385
          ],
          [
            929447.7074288321,
            6478387.5
          ],
          [
            929437.5,
            6478390.090440226
          ]
        ]
      }
    },
    {
      "type": "Feature",
      "properties": {
        "method": "transverse height maximum"
      },
      "geometry": {
        "type": "LineString",
        "coordinates": [
          [
            928487.5,
            6478765.721670238
          ],
          [
            928476.2026927632,
            6478762.5
          ],
          [
            928462.5,
            6478758.145629573
          ],
          [
            928437.5,
            6478760.248125125
          ],
          [
            928428.322284551,
            6478762.5
          ],
          [
            928412.5,
            6478766.806945516
          ],
          [
            928387.5,
            6478780.560237399
          ],
          [
            928381.1602064112,
            6478787.5
          ],
          [
            928366.3344406107,
            6478812.5
          ],
          [
            928364.6675122251,
            6478837.5
          ],
          [
            928370.1807455464,
            6478862.5
          ],
          [
            928362.5,
            6478867.615016198
          ],
          [
            928337.5,
            6478862.644740349
          ],
          [
            928337.1762315974,
            6478862.5
          ],
          [
            928312.5,
            6478853.77952471
          ],
          [
            928287.5,
            6478844.975903756
          ],
          [
            928268.8153107254,
            6478837.5
          ],
          [
            928262.5,
            6478834.8885203125
          ],
          [
            928237.5,
            6478822.718701322
          ],
          [
            928219.1536158763,
            6478812.5
          ],
          [
            928212.5,
            6478808.295865594
          ],
          [
            928187.5,
            6478789.680647139
          ],
          [
            928185.0487527013,
            6478787.5
          ],
          [
            928162.5,
            6478766.87310084
          ],
          [
            928158.0065271074,
            6478762.5
          ],
          [
            928137.5,
            6478744.88843848
          ],
          [
            928127.1545770157,
            6478737.5
          ],
          [
            928112.5,
            6478728.40875991
          ],
          [
            928087.5,
            6478716.445447187
          ],
          [
            928077.1624319688,
            6478712.5
          ],
          [
            928062.5,
            6478706.190896764
          ],
          [
            928037.5,
            6478697.509065532
          ],
          [
            928012.5,
            6478690.795339703
          ],
          [
            927997.7124411243,
            6478687.5
          ],
          [
            927987.5,
            6478684.702462572
          ],
          [
            927962.4999999999,
            6478678.143383247
          ],
          [
            927937.5,
            6478670.220427416
          ],
          [
            927918.731811209,
            6478662.5
          ],
          [
            927912.5,
            6478659.163227159
          ],
          [
            927887.5,
            6478642.3947647605
          ]
        ]
      }
    },
    {
      "type": "Feature",
      "properties": {
        "method": "transverse height maximum"
      },
      "geometry": {
        "type": "LineString",
        "coordinates": [
          [
            928912.5,
            6479103.722703241
          ],
          [
            928906.1212585416,
            6479112.5
          ],
          [
            928887.4999999999,
            6479127.43140786
          ],
          [
            928862.5,
            6479135.154800368
          ],
          [
            928837.5,
            6479134.751000291
          ],
          [
            928812.5,
            6479129.4102175785
          ],
          [
            928787.5,
            6479116.835962916
          ],
          [
            928782.2243329491,
            6479112.5
          ],
          [
            928762.5,
            6479100.69599973
          ],
          [
            928744.6122010942,
            6479087.5
          ],
          [
            928737.5,
            6479082.620324167
          ],
          [
            928712.5,
            6479065.175646388
          ],
          [
            928708.5875552886,
            6479062.5
          ],
          [
            928687.5,
            6479049.5291891415
          ],
          [
            928666.6189851206,
            6479037.5
          ],
          [
            928662.4999999999,
            6479035.452357165
          ],
          [
            928637.5,
            6479021.720736421
          ],
          [
            928623.5498488917,
            6479012.499999999
          ],
          [
            928612.5,
            6479006.454577465
          ],
          [
            928587.5,
            6478988.902443201
          ],
          [
            928585.2006840572,
            6478987.5
          ],
          [
            928562.5,
            6478975.186361053
          ],
          [
            928537.5,
            6478964.433271046
          ],
          [
            928512.5,
            6478973.748551834
          ],
          [
            928487.5,
            6478971.645221873
          ],
          [
            928472.4378392895,
            6478962.5
          ],
          [
            928462.5000000001,
            6478955.157985609
          ],
          [
            928441.9968846712,
            6478937.499999999
          ],
          [
            928437.5,
            6478931.08656716
          ],
          [
            928415.4530193907,
            6478912.5
          ],
          [
            928437.5,
            6478901.558121498
          ]
        ]
      }
    },
    {
      "type": "Feature",
      "properties": {
        "method": "transverse height maximum"
      },
      "geometry": {
        "type": "LineString",
        "coordinates": [
          [
            925012.5,
            6479899.44246464
          ],
          [
            925010.9599320637,
            6479912.499999999
          ],
          [
            925000.0,
            6479925.119358317
          ]
        ]
      }
    }
  ],
  "provenance": {
    "source_url": "https://data.geopf.fr/wms-r/wms?SERVICE=WMS&VERSION=1.3.0&REQUEST=GetMap&LAYERS=ELEVATION.ELEVATIONGRIDCOVERAGE.HIGHRES&STYLES=normal&CRS=EPSG%3A2154&BBOX=924500.0%2C6474500.0%2C930500.0%2C6480500.0&WIDTH=240&HEIGHT=240&FORMAT=image%2Ftiff",
    "dataset_url": "https://www.data.gouv.fr/datasets/rge-alti-r",
    "layer": "ELEVATION.ELEVATIONGRIDCOVERAGE.HIGHRES",
    "attribution": "Crests derived from © IGN RGE ALTI · Licence Ouverte 2.0",
    "licence": "Licence Ouverte 2.0",
    "retrieved_utc": "2026-09-22T15:24:28.557881+00:00",
    "derived_utc": "2026-09-22T15:29:06.952850+00:00",
    "derivation_code_sha256": "097f79508273c65e26912088bd99b8e73fa7f20c2eed2ff01fec7fabbd3821be",
    "response_bytes": 230534,
    "response_sha256": "b398a93eda52edd034e4332359e6fdb1032c10fdb82d6a0398161ea331b7a81d",
    "terrain_file": "ign-terrain-185-1295.tif",
    "raster_bounds_epsg2154": [
      924500.0,
      6474500.0,
      930500.0,
      6480500.0
    ],
    "bounds_epsg2154": [
      925000.0,
      6475000.0,
      930000.0,
      6480000.0
    ],
    "parameters": {
      "grid_m": 25,
      "buffer_m": 500,
      "gaussian_sigma_m": 50,
      "minimum_transverse_curvature_per_m": 0.0003,
      "transverse_probe_m": 200,
      "minimum_drop_each_side_m": 5,
      "minimum_line_length_m": 200
    },
    "terrain_height_range_m": [
      234.40577697753906,
      2025.4847412109375
    ],
    "method": "Gaussian-smoothed DEM; zero derivative along most concave Hessian eigenvector; negative curvature, two-sided drop and length filters. No flight coordinates used.",
    "limitations": "Approximate, scale-dependent crests; not an official or exhaustive ridge network. Gaps remain at weak ridges, orientation transitions and junctions; no invented links."
  }
}
