{
  "type": "FeatureCollection",
  "crs": {
    "type": "name",
    "properties": {
      "name": "EPSG:2154"
    }
  },
  "features": [
    {
      "type": "Feature",
      "properties": {
        "method": "transverse height maximum"
      },
      "geometry": {
        "type": "LineString",
        "coordinates": [
          [
            916660.9715733691,
            6461112.5
          ],
          [
            916662.5,
            6461127.000244743
          ],
          [
            916664.1620347528,
            6461137.5
          ],
          [
            916662.5,
            6461144.498137223
          ],
          [
            916659.5994075136,
            6461162.5
          ],
          [
            916651.1930203427,
            6461187.5
          ],
          [
            916639.6198958937,
            6461212.5
          ],
          [
            916637.5,
            6461218.1345816385
          ],
          [
            916625.4956687021,
            6461237.5
          ],
          [
            916623.145162201,
            6461262.5
          ],
          [
            916624.7635837442,
            6461287.5
          ],
          [
            916626.4878209638,
            6461312.5
          ],
          [
            916628.1481326841,
            6461337.5
          ],
          [
            916630.0822481415,
            6461362.500000001
          ],
          [
            916632.4763321256,
            6461387.5
          ]
        ]
      }
    },
    {
      "type": "Feature",
      "properties": {
        "method": "transverse height maximum"
      },
      "geometry": {
        "type": "LineString",
        "coordinates": [
          [
            916262.5000000001,
            6461397.261348404
          ],
          [
            916271.3579164258,
            6461412.5
          ],
          [
            916287.5,
            6461433.879539548
          ],
          [
            916290.2466949207,
            6461437.5
          ],
          [
            916303.8453724767,
            6461462.5
          ],
          [
            916304.1961026731,
            6461487.5
          ],
          [
            916309.0540471874,
            6461512.5
          ],
          [
            916312.5,
            6461516.061564008
          ],
          [
            916323.5019727458,
            6461537.5
          ],
          [
            916337.5,
            6461559.187268209
          ],
          [
            916339.1892641104,
            6461562.5
          ],
          [
            916353.0246807205,
            6461587.5
          ],
          [
            916362.5,
            6461602.980044001
          ],
          [
            916368.3614877902,
            6461612.5
          ],
          [
            916387.0075542834,
            6461637.5
          ],
          [
            916387.5,
            6461638.075768236
          ],
          [
            916407.6731158047,
            6461662.5
          ],
          [
            916412.5000000001,
            6461668.02581897
          ],
          [
            916427.8061761623,
            6461687.5
          ],
          [
            916437.5,
            6461700.808069545
          ],
          [
            916445.3151946169,
            6461712.5
          ],
          [
            916458.8065119683,
            6461737.5
          ],
          [
            916462.5000000001,
            6461747.269241681
          ]
        ]
      }
    },
    {
      "type": "Feature",
      "properties": {
        "method": "transverse height maximum"
      },
      "geometry": {
        "type": "LineString",
        "coordinates": [
          [
            915000.0,
            6462730.043207042
          ],
          [
            915002.8895051016,
            6462737.5
          ],
          [
            915010.8460591708,
            6462762.5
          ],
          [
            915012.5,
            6462768.850296616
          ],
          [
            915016.8911660363,
            6462787.5
          ],
          [
            915023.0969882215,
            6462812.5
          ],
          [
            915029.6627610407,
            6462837.5
          ],
          [
            915035.9228141066,
            6462862.5
          ],
          [
            915037.5000000001,
            6462869.670648667
          ],
          [
            915041.0932417661,
            6462887.5
          ],
          [
            915045.6093694912,
            6462912.5
          ],
          [
            915048.959605166,
            6462937.5
          ],
          [
            915049.6459535776,
            6462962.5
          ],
          [
            915044.5495614533,
            6462987.5
          ],
          [
            915037.5,
            6463000.428223691
          ],
          [
            915032.8312826091,
            6463012.499999999
          ],
          [
            915023.4313836829,
            6463037.5
          ],
          [
            915016.8776922037,
            6463062.5
          ],
          [
            915015.5597641341,
            6463087.5
          ],
          [
            915018.3801876776,
            6463112.5
          ],
          [
            915022.3526111004,
            6463137.5
          ],
          [
            915026.1182636082,
            6463162.499999999
          ],
          [
            915029.3076788293,
            6463187.500000001
          ],
          [
            915031.7588084536,
            6463212.5
          ],
          [
            915033.7725912263,
            6463237.5
          ],
          [
            915036.3084751355,
            6463262.5
          ],
          [
            915037.5,
            6463268.333611112
          ],
          [
            915042.6109997873,
            6463287.5
          ]
        ]
      }
    },
    {
      "type": "Feature",
      "properties": {
        "method": "transverse height maximum"
      },
      "geometry": {
        "type": "LineString",
        "coordinates": [
          [
            916637.4999999999,
            6461973.242671058
          ],
          [
            916656.0959617856,
            6461987.5
          ],
          [
            916662.5,
            6462000.6288010655
          ],
          [
            916666.8380961719,
            6462012.5
          ],
          [
            916671.0628674764,
            6462037.5
          ],
          [
            916674.1651034392,
            6462062.5
          ],
          [
            916678.0473985096,
            6462087.5
          ],
          [
            916684.4835894903,
            6462112.5
          ],
          [
            916687.5,
            6462120.165617216
          ],
          [
            916694.1875125481,
            6462137.5
          ],
          [
            916705.5591228647,
            6462162.5
          ],
          [
            916712.5,
            6462175.9471348515
          ],
          [
            916718.7364453619,
            6462187.5
          ],
          [
            916732.9308220949,
            6462212.5
          ],
          [
            916737.4999999999,
            6462220.493643849
          ],
          [
            916749.2782629762,
            6462237.5
          ],
          [
            916760.9118737367,
            6462262.5
          ],
          [
            916762.5,
            6462283.117708729
          ],
          [
            916763.1520214066,
            6462287.5
          ],
          [
            916762.5,
            6462288.8492592815
          ],
          [
            916758.0252397936,
            6462312.5
          ],
          [
            916749.3463656368,
            6462337.5
          ],
          [
            916737.5,
            6462362.018303369
          ],
          [
            916737.3108980091,
            6462362.500000001
          ],
          [
            916723.932589592,
            6462387.5
          ],
          [
            916712.5,
            6462405.240854969
          ],
          [
            916707.7934818277,
            6462412.5
          ]
        ]
      }
    },
    {
      "type": "Feature",
      "properties": {
        "method": "transverse height maximum"
      },
      "geometry": {
        "type": "LineString",
        "coordinates": [
          [
            916410.1656031751,
            6462162.5
          ],
          [
            916412.5,
            6462170.6647529295
          ],
          [
            916417.7072029258,
            6462187.5
          ],
          [
            916428.816517676,
            6462212.5
          ],
          [
            916437.5,
            6462229.083570006
          ],
          [
            916442.4495680319,
            6462237.5
          ],
          [
            916457.2806711606,
            6462262.5
          ],
          [
            916462.5,
            6462271.166325004
          ],
          [
            916472.7927707711,
            6462287.5
          ],
          [
            916487.1103341287,
            6462312.5
          ],
          [
            916487.5,
            6462313.130977794
          ],
          [
            916502.0669121646,
            6462337.5
          ],
          [
            916512.5,
            6462351.565758107
          ],
          [
            916521.0382709402,
            6462362.5
          ],
          [
            916537.5,
            6462378.176724399
          ],
          [
            916559.8146584275,
            6462387.5
          ],
          [
            916562.5,
            6462388.401666845
          ]
        ]
      }
    },
    {
      "type": "Feature",
      "properties": {
        "method": "transverse height maximum"
      },
      "geometry": {
        "type": "LineString",
        "coordinates": [
          [
            916612.5000000001,
            6462502.261865112
          ],
          [
            916602.0151380993,
            6462512.5
          ],
          [
            916587.5,
            6462528.714335994
          ],
          [
            916582.561490747,
            6462537.5
          ],
          [
            916568.6782283068,
            6462562.5
          ],
          [
            916562.5,
            6462573.8393189525
          ],
          [
            916556.8749351746,
            6462587.500000001
          ],
          [
            916547.799127632,
            6462612.5
          ],
          [
            916540.2643329338,
            6462637.5
          ],
          [
            916537.5,
            6462647.947963215
          ],
          [
            916534.1218720796,
            6462662.5
          ],
          [
            916528.2972632968,
            6462687.5
          ],
          [
            916521.4111247289,
            6462712.5
          ],
          [
            916512.6544485583,
            6462737.5
          ],
          [
            916512.5,
            6462737.865412377
          ]
        ]
      }
    },
    {
      "type": "Feature",
      "properties": {
        "method": "transverse height maximum"
      },
      "geometry": {
        "type": "LineString",
        "coordinates": [
          [
            916484.5505189826,
            6462787.5
          ],
          [
            916462.5,
            6462811.526906058
          ],
          [
            916461.320567974,
            6462812.5
          ],
          [
            916444.0095795009,
            6462837.5
          ],
          [
            916438.7020223065,
            6462862.5
          ],
          [
            916438.4823811499,
            6462887.5
          ],
          [
            916441.176326497,
            6462912.5
          ],
          [
            916447.0417777058,
            6462937.5
          ],
          [
            916459.4726189175,
            6462962.5
          ],
          [
            916462.5,
            6462965.443793159
          ],
          [
            916483.9494819362,
            6462987.5
          ]
        ]
      }
    },
    {
      "type": "Feature",
      "properties": {
        "method": "transverse height maximum"
      },
      "geometry": {
        "type": "LineString",
        "coordinates": [
          [
            915287.5000000001,
            6463213.25378001
          ],
          [
            915309.3926984799,
            6463237.5
          ],
          [
            915312.5000000001,
            6463241.959955932
          ],
          [
            915327.4591200976,
            6463262.5
          ],
          [
            915336.0918895466,
            6463287.5
          ],
          [
            915337.5,
            6463295.770543471
          ],
          [
            915341.638237375,
            6463312.5
          ],
          [
            915350.0809937089,
            6463337.5
          ],
          [
            915362.5,
            6463360.533821793
          ],
          [
            915363.6774248427,
            6463362.5
          ],
          [
            915377.4789595037,
            6463387.5
          ],
          [
            915386.6645286569,
            6463412.5
          ],
          [
            915387.5,
            6463416.777195757
          ],
          [
            915390.6444823807,
            6463437.5
          ],
          [
            915393.0807019025,
            6463462.5
          ],
          [
            915395.0206838439,
            6463487.5
          ],
          [
            915396.9570485384,
            6463512.5
          ],
          [
            915398.9292316698,
            6463537.5
          ],
          [
            915400.7443430749,
            6463562.500000001
          ],
          [
            915402.3805211127,
            6463587.5
          ],
          [
            915403.9014483795,
            6463612.5
          ],
          [
            915404.5341623878,
            6463637.500000001
          ],
          [
            915402.6585014152,
            6463662.5
          ],
          [
            915397.7523161438,
            6463687.5
          ],
          [
            915390.674046306,
            6463712.5
          ],
          [
            915387.5,
            6463721.281687303
          ],
          [
            915382.9336085885,
            6463737.5
          ],
          [
            915373.6923251485,
            6463762.5
          ],
          [
            915362.5,
            6463784.853102551
          ],
          [
            915361.3606959924,
            6463787.5
          ],
          [
            915345.9725078404,
            6463812.5
          ],
          [
            915337.5,
            6463824.4640298225
          ],
          [
            915328.6090602194,
            6463837.5
          ],
          [
            915312.5000000001,
            6463859.204786952
          ],
          [
            915309.9766866545,
            6463862.499999999
          ],
          [
            915289.4284040037,
            6463887.5
          ],
          [
            915287.5,
            6463889.714010054
          ],
          [
            915268.1144935833,
            6463912.5
          ],
          [
            915262.5,
            6463919.3433304215
          ],
          [
            915251.0125495471,
            6463937.5
          ],
          [
            915239.7436476727,
            6463962.5
          ],
          [
            915237.5,
            6463970.307022777
          ],
          [
            915233.8153083622,
            6463987.5
          ],
          [
            915231.112007223,
            6464012.5
          ],
          [
            915230.2109324262,
            6464037.5
          ],
          [
            915230.2346467087,
            6464062.499999999
          ],
          [
            915230.7254392441,
            6464087.5
          ],
          [
            915231.7717290178,
            6464112.499999999
          ],
          [
            915233.8060532031,
            6464137.5
          ],
          [
            915237.184130857,
            6464162.5
          ],
          [
            915237.5,
            6464164.831530808
          ],
          [
            915241.5481002975,
            6464187.5
          ],
          [
            915242.9434017555,
            6464212.5
          ],
          [
            915238.7549910225,
            6464237.5
          ],
          [
            915237.5,
            6464240.787521523
          ],
          [
            915225.7216156025,
            6464262.5
          ],
          [
            915212.5,
            6464279.772064904
          ],
          [
            915195.6799237642,
            6464287.5
          ],
          [
            915187.5,
            6464293.075286079
          ],
          [
            915176.2055690312,
            6464287.5
          ],
          [
            915162.5,
            6464279.391453904
          ]
        ]
      }
    },
    {
      "type": "Feature",
      "properties": {
        "method": "transverse height maximum"
      },
      "geometry": {
        "type": "LineString",
        "coordinates": [
          [
            916662.5,
            6463396.443667116
          ],
          [
            916649.6724087384,
            6463412.5
          ],
          [
            916637.4999999999,
            6463428.3020584965
          ],
          [
            916631.3486236986,
            6463437.5
          ],
          [
            916615.3855502745,
            6463462.5
          ],
          [
            916612.5,
            6463467.429769753
          ],
          [
            916602.6980352168,
            6463487.5
          ],
          [
            916596.6653719576,
            6463512.5
          ],
          [
            916596.8191666527,
            6463537.5
          ],
          [
            916599.6662405708,
            6463562.5
          ],
          [
            916603.4653012435,
            6463587.499999999
          ],
          [
            916608.1985094877,
            6463612.5
          ],
          [
            916612.5,
            6463629.076508218
          ],
          [
            916615.8724247147,
            6463637.5
          ],
          [
            916628.5700458337,
            6463662.5
          ],
          [
            916637.5,
            6463678.703989881
          ],
          [
            916646.6445523953,
            6463687.5
          ],
          [
            916662.5,
            6463711.6035353625
          ]
        ]
      }
    },
    {
      "type": "Feature",
      "properties": {
        "method": "transverse height maximum"
      },
      "geometry": {
        "type": "LineString",
        "coordinates": [
          [
            917589.978363602,
            6463837.5
          ],
          [
            917612.5,
            6463862.079300164
          ],
          [
            917612.8572205052,
            6463862.5
          ],
          [
            917633.3994066364,
            6463887.499999999
          ],
          [
            917637.5,
            6463892.314730114
          ],
          [
            917653.7304045843,
            6463912.500000001
          ],
          [
            917662.5000000001,
            6463922.9418472005
          ],
          [
            917673.9378885655,
            6463937.5
          ],
          [
            917687.5,
            6463953.829329983
          ],
          [
            917694.2382523022,
            6463962.5
          ],
          [
            917712.5,
            6463984.447516963
          ],
          [
            917714.9460801737,
            6463987.5
          ],
          [
            917735.9411037045,
            6464012.500000001
          ],
          [
            917737.5,
            6464014.314299652
          ],
          [
            917757.4690958848,
            6464037.5
          ],
          [
            917762.5,
            6464043.140648661
          ],
          [
            917780.3135592367,
            6464062.5
          ],
          [
            917787.5,
            6464070.031781834
          ],
          [
            917804.5655728529,
            6464087.5
          ]
        ]
      }
    },
    {
      "type": "Feature",
      "properties": {
        "method": "transverse height maximum"
      },
      "geometry": {
        "type": "LineString",
        "coordinates": [
          [
            917862.5,
            6464145.454951245
          ],
          [
            917878.367633239,
            6464162.5
          ],
          [
            917887.5,
            6464172.20787808
          ],
          [
            917900.3194137502,
            6464187.5
          ],
          [
            917912.5,
            6464202.132802425
          ],
          [
            917920.2076435782,
            6464212.5
          ],
          [
            917937.5,
            6464235.216405016
          ],
          [
            917939.1261915481,
            6464237.5
          ],
          [
            917956.6391884474,
            6464262.499999999
          ],
          [
            917962.5,
            6464270.413921589
          ],
          [
            917975.1131408815,
            6464287.5
          ],
          [
            917987.5,
            6464303.078873157
          ],
          [
            917995.4645903619,
            6464312.5
          ],
          [
            918012.5,
            6464331.110144262
          ]
        ]
      }
    },
    {
      "type": "Feature",
      "properties": {
        "method": "transverse height maximum"
      },
      "geometry": {
        "type": "LineString",
        "coordinates": [
          [
            918137.5,
            6464444.290419574
          ],
          [
            918154.7108824066,
            6464462.5
          ],
          [
            918162.5,
            6464470.863666865
          ],
          [
            918176.9973504599,
            6464487.5
          ],
          [
            918187.5,
            6464499.298843024
          ],
          [
            918199.2379436424,
            6464512.5
          ],
          [
            918212.5,
            6464526.872107416
          ],
          [
            918222.4866010682,
            6464537.5
          ],
          [
            918237.5,
            6464553.045685042
          ],
          [
            918246.494897308,
            6464562.5
          ],
          [
            918262.5,
            6464579.401165177
          ],
          [
            918269.5294843874,
            6464587.5
          ],
          [
            918287.5,
            6464609.389334021
          ],
          [
            918289.6360345335,
            6464612.5
          ],
          [
            918303.2629366184,
            6464637.5
          ],
          [
            918312.5,
            6464660.110227022
          ],
          [
            918313.2372834256,
            6464662.5
          ],
          [
            918319.1538273628,
            6464687.5
          ],
          [
            918326.5912391559,
            6464712.5
          ],
          [
            918337.5,
            6464736.21692099
          ],
          [
            918337.9889516796,
            6464737.5
          ],
          [
            918349.9476334554,
            6464762.5
          ],
          [
            918362.5,
            6464781.359873276
          ],
          [
            918366.210671425,
            6464787.5
          ],
          [
            918385.0689389963,
            6464812.5
          ],
          [
            918387.4999999999,
            6464815.276795291
          ]
        ]
      }
    },
    {
      "type": "Feature",
      "properties": {
        "method": "transverse height maximum"
      },
      "geometry": {
        "type": "LineString",
        "coordinates": [
          [
            917862.5,
            6464471.196931502
          ],
          [
            917856.4950711122,
            6464487.5
          ],
          [
            917845.9674579024,
            6464512.5
          ],
          [
            917837.4999999999,
            6464529.772612379
          ],
          [
            917833.5505800568,
            6464537.5
          ],
          [
            917819.8042596516,
            6464562.5
          ],
          [
            917812.5,
            6464576.832524161
          ],
          [
            917806.7084467252,
            6464587.5
          ],
          [
            917795.8636828433,
            6464612.5
          ],
          [
            917787.5,
            6464636.092048004
          ],
          [
            917786.9005738568,
            6464637.5
          ],
          [
            917777.0304859636,
            6464662.499999999
          ],
          [
            917767.8531222325,
            6464687.5
          ],
          [
            917762.5,
            6464701.9715059465
          ],
          [
            917757.9717093947,
            6464712.5
          ],
          [
            917748.8542409826,
            6464737.5
          ],
          [
            917741.7755442554,
            6464762.5
          ]
        ]
      }
    },
    {
      "type": "Feature",
      "properties": {
        "method": "transverse height maximum"
      },
      "geometry": {
        "type": "LineString",
        "coordinates": [
          [
            916687.5,
            6464568.310839121
          ],
          [
            916667.3631758374,
            6464587.5
          ],
          [
            916662.5,
            6464592.108368718
          ],
          [
            916642.4412529842,
            6464612.5
          ],
          [
            916637.5,
            6464617.763200903
          ],
          [
            916617.5460229283,
            6464637.5
          ],
          [
            916612.5,
            6464642.9547123
          ],
          [
            916594.7775179141,
            6464662.5
          ],
          [
            916587.5,
            6464671.671124929
          ],
          [
            916578.0232979609,
            6464687.5
          ],
          [
            916566.4902947694,
            6464712.5
          ],
          [
            916562.5,
            6464722.140365142
          ],
          [
            916557.7376021635,
            6464737.5
          ],
          [
            916550.9286905277,
            6464762.5
          ],
          [
            916544.7251784474,
            6464787.5
          ],
          [
            916538.8502441358,
            6464812.5
          ],
          [
            916537.5,
            6464818.553439282
          ],
          [
            916533.2452213214,
            6464837.5
          ],
          [
            916528.1184242509,
            6464862.500000001
          ],
          [
            916523.410256174,
            6464887.5
          ],
          [
            916519.0040215668,
            6464912.5
          ],
          [
            916514.4951039643,
            6464937.5
          ],
          [
            916512.5,
            6464946.814391006
          ],
          [
            916508.8707308859,
            6464962.5
          ],
          [
            916501.9550458501,
            6464987.499999999
          ],
          [
            916497.8341420706,
            6465000.0
          ]
        ]
      }
    },
    {
      "type": "Feature",
      "properties": {
        "method": "transverse height maximum"
      },
      "geometry": {
        "type": "LineString",
        "coordinates": [
          [
            919893.0806668819,
            6464937.5
          ],
          [
            919898.8518185372,
            6464962.5
          ],
          [
            919900.2738300415,
            6464987.5
          ],
          [
            919899.4470249615,
            6465000.0
          ]
        ]
      }
    },
    {
      "type": "Feature",
      "properties": {
        "method": "transverse height maximum"
      },
      "geometry": {
        "type": "LineString",
        "coordinates": [
          [
            918587.5,
            6464967.345328757
          ],
          [
            918603.7186326326,
            6464987.5
          ],
          [
            918612.5,
            6464999.523828695
          ],
          [
            918612.7755420476,
            6465000.0
          ]
        ]
      }
    },
    {
      "type": "Feature",
      "properties": {
        "method": "transverse height maximum"
      },
      "geometry": {
        "type": "LineString",
        "coordinates": [
          [
            915680.1669012326,
            6461937.5
          ],
          [
            915662.5,
            6461948.128889971
          ],
          [
            915647.1185209344,
            6461962.5
          ],
          [
            915637.5,
            6461970.973754157
          ],
          [
            915620.72650992,
            6461987.5
          ],
          [
            915612.5,
            6461995.339313635
          ],
          [
            915594.872212194,
            6462012.5
          ],
          [
            915587.5,
            6462019.573224745
          ],
          [
            915568.7870186862,
            6462037.5
          ],
          [
            915562.5,
            6462043.659812351
          ],
          [
            915546.5013947346,
            6462062.5
          ],
          [
            915537.5,
            6462077.535056054
          ]
        ]
      }
    },
    {
      "type": "Feature",
      "properties": {
        "method": "transverse height maximum"
      },
      "geometry": {
        "type": "LineString",
        "coordinates": [
          [
            917006.1176540636,
            6462187.5
          ],
          [
            916994.8122093308,
            6462212.5
          ],
          [
            916987.5,
            6462222.074131218
          ],
          [
            916974.295450065,
            6462237.5
          ],
          [
            916962.5,
            6462248.264054613
          ],
          [
            916940.3914668277,
            6462262.5
          ],
          [
            916937.5,
            6462264.397067685
          ],
          [
            916912.5,
            6462276.38166216
          ],
          [
            916887.5,
            6462284.717905808
          ],
          [
            916873.3490236863,
            6462287.5
          ],
          [
            916862.5,
            6462289.882331783
          ],
          [
            916837.5,
            6462289.109628768
          ]
        ]
      }
    },
    {
      "type": "Feature",
      "properties": {
        "method": "transverse height maximum"
      },
      "geometry": {
        "type": "LineString",
        "coordinates": [
          [
            915905.4441744984,
            6463262.5
          ],
          [
            915906.0636089526,
            6463287.5
          ],
          [
            915899.2517487209,
            6463312.5
          ],
          [
            915889.1545036485,
            6463337.5
          ],
          [
            915887.5,
            6463341.740933877
          ],
          [
            915862.5,
            6463357.621444004
          ],
          [
            915837.5000000001,
            6463359.603680208
          ],
          [
            915812.5,
            6463360.001523941
          ],
          [
            915787.5,
            6463362.140427041
          ],
          [
            915786.2783023854,
            6463362.5
          ],
          [
            915762.5,
            6463370.502514915
          ],
          [
            915737.5,
            6463374.709225008
          ],
          [
            915725.696840302,
            6463362.5
          ]
        ]
      }
    },
    {
      "type": "Feature",
      "properties": {
        "method": "transverse height maximum"
      },
      "geometry": {
        "type": "LineString",
        "coordinates": [
          [
            916212.5,
            6463422.399795475
          ],
          [
            916201.934293962,
            6463437.5
          ],
          [
            916194.4523804517,
            6463462.5
          ],
          [
            916194.3060698587,
            6463487.5
          ],
          [
            916198.7633338905,
            6463512.5
          ],
          [
            916209.0807496302,
            6463537.499999999
          ],
          [
            916212.5,
            6463541.933017519
          ],
          [
            916237.5,
            6463540.932157204
          ],
          [
            916239.2974825244,
            6463537.5
          ],
          [
            916257.6402569258,
            6463512.5
          ],
          [
            916262.5,
            6463507.778839561
          ],
          [
            916273.0428562555,
            6463487.5
          ],
          [
            916287.5,
            6463476.421164575
          ]
        ]
      }
    },
    {
      "type": "Feature",
      "properties": {
        "method": "transverse height maximum"
      },
      "geometry": {
        "type": "LineString",
        "coordinates": [
          [
            915760.6316796186,
            6463762.5
          ],
          [
            915748.2812860203,
            6463787.5
          ],
          [
            915737.5000000001,
            6463801.369994995
          ],
          [
            915720.0787905416,
            6463812.5
          ],
          [
            915712.5,
            6463817.388356498
          ],
          [
            915687.5,
            6463823.912374361
          ],
          [
            915662.4999999999,
            6463830.636582349
          ],
          [
            915637.5000000001,
            6463828.922892
          ],
          [
            915618.4309991796,
            6463812.500000001
          ],
          [
            915612.5,
            6463808.662268164
          ],
          [
            915599.785916049,
            6463787.5
          ],
          [
            915587.5,
            6463773.316047424
          ]
        ]
      }
    },
    {
      "type": "Feature",
      "properties": {
        "method": "transverse height maximum"
      },
      "geometry": {
        "type": "LineString",
        "coordinates": [
          [
            917563.3547546715,
            6463812.5
          ],
          [
            917562.5,
            6463811.765417647
          ],
          [
            917537.5,
            6463792.172840937
          ],
          [
            917531.8355052267,
            6463787.5
          ],
          [
            917512.5,
            6463772.62880664
          ],
          [
            917500.6531368232,
            6463762.5
          ],
          [
            917487.5,
            6463751.852262407
          ],
          [
            917471.1843230553,
            6463737.499999999
          ],
          [
            917462.5,
            6463730.125930159
          ],
          [
            917442.6837051004,
            6463712.5
          ],
          [
            917437.5,
            6463707.9660859695
          ],
          [
            917414.8765364145,
            6463687.5
          ],
          [
            917412.4999999999,
            6463685.34373228
          ],
          [
            917388.179501119,
            6463662.500000001
          ],
          [
            917387.5000000001,
            6463661.862893939
          ],
          [
            917362.5,
            6463638.14877615
          ],
          [
            917361.8159778785,
            6463637.5
          ],
          [
            917337.5,
            6463616.464670275
          ],
          [
            917332.8540152928,
            6463612.5
          ],
          [
            917312.5,
            6463596.934141718
          ],
          [
            917300.2991422284,
            6463587.5
          ],
          [
            917287.5,
            6463578.539423074
          ],
          [
            917265.1302328063,
            6463562.5
          ],
          [
            917262.5,
            6463560.7971445285
          ],
          [
            917237.5,
            6463545.899460696
          ],
          [
            917224.1111518805,
            6463537.5
          ],
          [
            917212.5,
            6463531.225880944
          ],
          [
            917187.5,
            6463518.054101182
          ],
          [
            917177.1523640924,
            6463512.5
          ],
          [
            917162.5,
            6463506.287991518
          ],
          [
            917137.5,
            6463495.467006016
          ],
          [
            917121.2985691993,
            6463487.5
          ],
          [
            917112.5,
            6463484.0282037845
          ],
          [
            917087.5,
            6463473.567284999
          ],
          [
            917064.9396294901,
            6463462.5
          ],
          [
            917062.5,
            6463461.53605292
          ],
          [
            917037.5,
            6463451.9521949645
          ],
          [
            917012.5,
            6463441.294987303
          ],
          [
            917004.23191096,
            6463437.5
          ],
          [
            916987.5,
            6463431.537604606
          ],
          [
            916962.5,
            6463421.476259408
          ],
          [
            916944.1404846568,
            6463412.5
          ],
          [
            916937.4999999999,
            6463409.804196767
          ],
          [
            916912.5,
            6463399.462943388
          ],
          [
            916887.5,
            6463388.050564125
          ],
          [
            916886.0933026943,
            6463387.5
          ],
          [
            916862.5,
            6463380.824476776
          ],
          [
            916837.5,
            6463375.0773782935
          ],
          [
            916812.5,
            6463370.38826659
          ],
          [
            916787.5,
            6463366.509479401
          ],
          [
            916762.5,
            6463363.38892525
          ],
          [
            916750.1002856191,
            6463362.5
          ],
          [
            916737.5,
            6463361.88906705
          ],
          [
            916726.0631377025,
            6463362.5
          ],
          [
            916712.5,
            6463363.6099633705
          ],
          [
            916687.5,
            6463374.598905272
          ]
        ]
      }
    },
    {
      "type": "Feature",
      "properties": {
        "method": "transverse height maximum"
      },
      "geometry": {
        "type": "LineString",
        "coordinates": [
          [
            915536.4716640519,
            6465000.0
          ],
          [
            915515.4452603968,
            6464987.5
          ],
          [
            915512.5,
            6464985.597063453
          ],
          [
            915487.5,
            6464968.239614194
          ],
          [
            915480.7352430804,
            6464962.5
          ],
          [
            915462.5,
            6464945.683010051
          ],
          [
            915454.8566623208,
            6464937.5
          ],
          [
            915437.5,
            6464917.322055217
          ],
          [
            915433.4397611833,
            6464912.5
          ]
        ]
      }
    }
  ],
  "provenance": {
    "source_url": "https://data.geopf.fr/wms-r/wms?SERVICE=WMS&VERSION=1.3.0&REQUEST=GetMap&LAYERS=ELEVATION.ELEVATIONGRIDCOVERAGE.HIGHRES&STYLES=normal&CRS=EPSG%3A2154&BBOX=914500.0%2C6459500.0%2C920500.0%2C6465500.0&WIDTH=240&HEIGHT=240&FORMAT=image%2Ftiff",
    "dataset_url": "https://www.data.gouv.fr/datasets/rge-alti-r",
    "layer": "ELEVATION.ELEVATIONGRIDCOVERAGE.HIGHRES",
    "attribution": "Crests derived from © IGN RGE ALTI · Licence Ouverte 2.0",
    "licence": "Licence Ouverte 2.0",
    "retrieved_utc": "2026-10-06T17:43:42.483485+00:00",
    "derived_utc": "2026-10-06T17:43:42.535644+00:00",
    "derivation_code_sha256": "fd8cc5fb145d8bd120ab0393208bb2cd7eed981b9b9d5f7f08d50835d79fd2f3",
    "response_bytes": 230534,
    "response_sha256": "88e63b2b313d52f70dd4302eb7442dd19d032233dd70d8684f3d0ee541642364",
    "terrain_file": "ign-terrain-183-1292.tif",
    "raster_bounds_epsg2154": [
      914500.0,
      6459500.0,
      920500.0,
      6465500.0
    ],
    "bounds_epsg2154": [
      915000.0,
      6460000.0,
      920000.0,
      6465000.0
    ],
    "parameters": {
      "grid_m": 25,
      "buffer_m": 500,
      "gaussian_sigma_m": 50,
      "minimum_transverse_curvature_per_m": 0.0003,
      "transverse_probe_m": 200,
      "minimum_drop_each_side_m": 5,
      "minimum_line_length_m": 200
    },
    "terrain_height_range_m": [
      208.70692443847656,
      1393.07177734375
    ],
    "method": "Gaussian-smoothed DEM; zero derivative along most concave Hessian eigenvector; negative curvature, two-sided drop and length filters. No flight coordinates used.",
    "limitations": "Approximate, scale-dependent crests; not an official or exhaustive ridge network. Gaps remain at weak ridges, orientation transitions and junctions; no invented links."
  }
}
