{
  "type": "FeatureCollection",
  "crs": {
    "type": "name",
    "properties": {
      "name": "EPSG:2154"
    }
  },
  "features": [
    {
      "type": "Feature",
      "properties": {
        "method": "transverse height maximum"
      },
      "geometry": {
        "type": "LineString",
        "coordinates": [
          [
            995783.3885053823,
            6760000.0
          ],
          [
            995785.9139109729,
            6760012.5
          ],
          [
            995787.5,
            6760016.770048491
          ],
          [
            995792.485768368,
            6760037.5
          ],
          [
            995797.13446804,
            6760062.5
          ],
          [
            995797.0129608088,
            6760087.5
          ],
          [
            995792.5995314782,
            6760112.5
          ],
          [
            995787.5,
            6760130.36452013
          ],
          [
            995762.5,
            6760121.035583362
          ]
        ]
      }
    },
    {
      "type": "Feature",
      "properties": {
        "method": "transverse height maximum"
      },
      "geometry": {
        "type": "LineString",
        "coordinates": [
          [
            1000000.0,
            6760025.730255127
          ],
          [
            999987.5,
            6760013.507165803
          ],
          [
            999984.600308289,
            6760012.5
          ],
          [
            999962.5000000001,
            6760002.538161622
          ],
          [
            999937.5,
            6760001.269172815
          ],
          [
            999924.9069411674,
            6760012.5
          ],
          [
            999914.8021057326,
            6760037.5
          ],
          [
            999912.5,
            6760045.254143399
          ],
          [
            999908.9968326793,
            6760062.5
          ],
          [
            999905.1366369431,
            6760087.499999999
          ],
          [
            999903.2501795957,
            6760112.5
          ],
          [
            999903.2878308016,
            6760137.499999999
          ],
          [
            999904.73509025,
            6760162.5
          ],
          [
            999907.4199384182,
            6760187.5
          ],
          [
            999912.5,
            6760210.884253262
          ],
          [
            999912.9726337546,
            6760212.5
          ],
          [
            999935.2262084908,
            6760237.5
          ]
        ]
      }
    },
    {
      "type": "Feature",
      "properties": {
        "method": "transverse height maximum"
      },
      "geometry": {
        "type": "LineString",
        "coordinates": [
          [
            998131.1747802454,
            6760137.499999999
          ],
          [
            998123.8929551049,
            6760162.5
          ],
          [
            998115.7273970476,
            6760187.5
          ],
          [
            998112.5,
            6760196.52484526
          ],
          [
            998106.9122566683,
            6760212.5
          ],
          [
            998098.2985558228,
            6760237.5
          ],
          [
            998090.9636331357,
            6760262.5
          ],
          [
            998087.5,
            6760281.004373225
          ],
          [
            998085.3982696509,
            6760287.5
          ],
          [
            998081.2054059042,
            6760312.5
          ],
          [
            998074.9075875665,
            6760337.5
          ],
          [
            998063.6988986911,
            6760362.5
          ],
          [
            998062.5,
            6760364.874178724
          ],
          [
            998048.4555380414,
            6760387.5
          ],
          [
            998037.5,
            6760405.73754923
          ],
          [
            998012.5,
            6760401.3137454325
          ],
          [
            998008.8544124855,
            6760387.5
          ]
        ]
      }
    },
    {
      "type": "Feature",
      "properties": {
        "method": "transverse height maximum"
      },
      "geometry": {
        "type": "LineString",
        "coordinates": [
          [
            996587.5,
            6760497.988288712
          ],
          [
            996581.011218578,
            6760512.5
          ],
          [
            996568.5122401934,
            6760537.5
          ],
          [
            996562.5,
            6760547.939497485
          ],
          [
            996554.3878121743,
            6760562.5
          ],
          [
            996537.5,
            6760587.369908397
          ],
          [
            996537.4106720672,
            6760587.499999999
          ],
          [
            996517.1247873642,
            6760612.5
          ],
          [
            996512.5,
            6760617.772094388
          ],
          [
            996495.1966511494,
            6760637.5
          ],
          [
            996487.5,
            6760646.276725054
          ],
          [
            996472.9965154468,
            6760662.5
          ],
          [
            996462.5,
            6760674.787270233
          ],
          [
            996451.1380753529,
            6760687.5
          ],
          [
            996437.5,
            6760703.648195791
          ],
          [
            996429.5429662066,
            6760712.5
          ],
          [
            996412.4999999999,
            6760731.768132757
          ],
          [
            996406.9432113358,
            6760737.5
          ],
          [
            996387.5,
            6760754.833647706
          ],
          [
            996362.5,
            6760761.118326115
          ]
        ]
      }
    },
    {
      "type": "Feature",
      "properties": {
        "method": "transverse height maximum"
      },
      "geometry": {
        "type": "LineString",
        "coordinates": [
          [
            996387.5,
            6760806.761446991
          ],
          [
            996390.678226885,
            6760812.5
          ],
          [
            996409.8757727179,
            6760837.5
          ],
          [
            996412.5,
            6760840.593029453
          ],
          [
            996428.7972977703,
            6760862.5
          ],
          [
            996437.5,
            6760873.657379322
          ],
          [
            996447.5604435374,
            6760887.5
          ],
          [
            996462.5,
            6760907.3803834645
          ],
          [
            996466.207724002,
            6760912.5
          ],
          [
            996484.6839992374,
            6760937.500000001
          ],
          [
            996487.5,
            6760941.300284274
          ],
          [
            996502.8700759375,
            6760962.5
          ],
          [
            996512.5,
            6760976.0007947385
          ],
          [
            996521.0215605465,
            6760987.5
          ],
          [
            996537.5,
            6761009.088740064
          ]
        ]
      }
    },
    {
      "type": "Feature",
      "properties": {
        "method": "transverse height maximum"
      },
      "geometry": {
        "type": "LineString",
        "coordinates": [
          [
            998087.4999999999,
            6760894.573123491
          ],
          [
            998101.3838811889,
            6760912.5
          ],
          [
            998112.5,
            6760928.687976793
          ],
          [
            998117.5047638994,
            6760937.5
          ],
          [
            998127.860011242,
            6760962.500000001
          ],
          [
            998134.6449584316,
            6760987.5
          ],
          [
            998137.5,
            6761006.105293211
          ],
          [
            998138.4851673597,
            6761012.5
          ],
          [
            998139.7809639107,
            6761037.5
          ],
          [
            998137.8674259409,
            6761062.5
          ],
          [
            998137.5,
            6761064.986846692
          ],
          [
            998124.1862346482,
            6761087.5
          ]
        ]
      }
    },
    {
      "type": "Feature",
      "properties": {
        "method": "transverse height maximum"
      },
      "geometry": {
        "type": "LineString",
        "coordinates": [
          [
            999112.5,
            6761369.229753423
          ],
          [
            999119.4721618582,
            6761387.5
          ],
          [
            999125.6120102254,
            6761412.5
          ],
          [
            999131.3254246155,
            6761437.499999999
          ],
          [
            999137.299239421,
            6761462.5
          ],
          [
            999137.5000000001,
            6761463.229021673
          ],
          [
            999145.5437728454,
            6761487.5
          ],
          [
            999155.8829036652,
            6761512.5
          ],
          [
            999162.5,
            6761526.033259186
          ],
          [
            999170.0581832285,
            6761537.5
          ],
          [
            999182.5218479688,
            6761562.5
          ],
          [
            999187.5,
            6761578.305477213
          ],
          [
            999189.4906948423,
            6761587.5
          ],
          [
            999195.4823487692,
            6761612.5
          ],
          [
            999212.5,
            6761633.269297437
          ],
          [
            999214.3974557178,
            6761637.5
          ],
          [
            999231.0804278841,
            6761662.5
          ],
          [
            999237.5,
            6761672.397365626
          ],
          [
            999243.9700815291,
            6761687.5
          ],
          [
            999251.9898825076,
            6761712.5
          ],
          [
            999257.5752176152,
            6761737.5
          ],
          [
            999262.2194214681,
            6761762.5
          ],
          [
            999262.5,
            6761763.977137734
          ],
          [
            999266.5110763955,
            6761787.5
          ],
          [
            999270.4885865882,
            6761812.5
          ],
          [
            999273.7518687714,
            6761837.5
          ],
          [
            999275.5728599486,
            6761862.500000001
          ],
          [
            999275.1970769047,
            6761887.5
          ],
          [
            999272.2637497112,
            6761912.5
          ],
          [
            999266.8501606404,
            6761937.5
          ],
          [
            999262.5000000001,
            6761952.107891754
          ],
          [
            999259.2109319598,
            6761962.5
          ],
          [
            999250.4315874313,
            6761987.5
          ],
          [
            999241.5295150357,
            6762012.5
          ],
          [
            999237.5,
            6762025.88767303
          ],
          [
            999234.0010387056,
            6762037.5
          ],
          [
            999228.955700819,
            6762062.500000001
          ],
          [
            999226.1821903453,
            6762087.5
          ],
          [
            999225.1992119403,
            6762112.500000001
          ],
          [
            999226.142759131,
            6762137.499999999
          ],
          [
            999230.5944614193,
            6762162.5
          ],
          [
            999237.5,
            6762182.299892843
          ],
          [
            999239.4680752044,
            6762187.5
          ],
          [
            999249.7984264388,
            6762212.5
          ],
          [
            999254.5271325804,
            6762237.5
          ],
          [
            999251.5322103939,
            6762262.499999999
          ],
          [
            999245.5577038273,
            6762287.5
          ],
          [
            999239.1576195136,
            6762312.5
          ],
          [
            999237.5,
            6762319.203970525
          ],
          [
            999233.8087690797,
            6762337.5
          ],
          [
            999229.2927881074,
            6762362.5
          ],
          [
            999225.3274921229,
            6762387.5
          ],
          [
            999222.0580833281,
            6762412.5
          ],
          [
            999219.975049691,
            6762437.5
          ],
          [
            999219.8450458914,
            6762462.5
          ],
          [
            999221.9893910307,
            6762487.5
          ],
          [
            999225.597781061,
            6762512.5
          ],
          [
            999229.3533488741,
            6762537.500000001
          ],
          [
            999232.1298137394,
            6762562.5
          ],
          [
            999233.0237638579,
            6762587.5
          ],
          [
            999231.1831628737,
            6762612.5
          ],
          [
            999226.0216069071,
            6762637.500000001
          ],
          [
            999218.0806666848,
            6762662.5
          ],
          [
            999212.5,
            6762677.758508302
          ],
          [
            999208.823516601,
            6762687.5
          ],
          [
            999199.7056464036,
            6762712.5
          ],
          [
            999191.428168288,
            6762737.5
          ],
          [
            999187.5,
            6762750.16708629
          ],
          [
            999183.3614060783,
            6762762.5
          ],
          [
            999175.5731675486,
            6762787.5
          ],
          [
            999168.3649963756,
            6762812.5
          ],
          [
            999162.5,
            6762833.748838215
          ],
          [
            999161.2503513834,
            6762837.5
          ],
          [
            999152.2219687622,
            6762862.5
          ],
          [
            999138.8144435791,
            6762887.5
          ],
          [
            999137.5,
            6762889.3116268935
          ]
        ]
      }
    },
    {
      "type": "Feature",
      "properties": {
        "method": "transverse height maximum"
      },
      "geometry": {
        "type": "LineString",
        "coordinates": [
          [
            997140.0974141135,
            6761387.5
          ],
          [
            997142.4845770469,
            6761412.5
          ],
          [
            997146.4864522235,
            6761437.5
          ],
          [
            997151.9777262713,
            6761462.5
          ],
          [
            997159.568839848,
            6761487.500000001
          ],
          [
            997162.5,
            6761494.816218702
          ],
          [
            997170.0824135145,
            6761512.5
          ],
          [
            997183.124533469,
            6761537.5
          ],
          [
            997187.5,
            6761544.856307017
          ],
          [
            997198.2996377902,
            6761562.5
          ],
          [
            997212.5,
            6761584.393881887
          ],
          [
            997214.5703156359,
            6761587.5
          ],
          [
            997232.0193011379,
            6761612.5
          ],
          [
            997237.5,
            6761619.855542541
          ],
          [
            997251.8016224982,
            6761637.5
          ],
          [
            997262.5000000001,
            6761649.849671968
          ]
        ]
      }
    },
    {
      "type": "Feature",
      "properties": {
        "method": "transverse height maximum"
      },
      "geometry": {
        "type": "LineString",
        "coordinates": [
          [
            997064.1876409245,
            6761812.5
          ],
          [
            997065.4837997974,
            6761837.5
          ],
          [
            997067.3897870391,
            6761862.5
          ],
          [
            997070.420854901,
            6761887.5
          ],
          [
            997079.2725041648,
            6761912.5
          ],
          [
            997087.5,
            6761927.452744284
          ],
          [
            997098.3902788443,
            6761937.5
          ],
          [
            997112.5,
            6761953.450616765
          ],
          [
            997137.5,
            6761955.714681903
          ],
          [
            997162.5,
            6761952.917824152
          ]
        ]
      }
    },
    {
      "type": "Feature",
      "properties": {
        "method": "transverse height maximum"
      },
      "geometry": {
        "type": "LineString",
        "coordinates": [
          [
            999763.8988849067,
            6762787.5
          ],
          [
            999764.4118399129,
            6762812.5
          ],
          [
            999762.5,
            6762831.90750379
          ],
          [
            999761.9770852051,
            6762837.5
          ],
          [
            999758.2255224198,
            6762862.5
          ],
          [
            999754.6999970698,
            6762887.5
          ],
          [
            999751.8270492866,
            6762912.5
          ],
          [
            999748.7416798696,
            6762937.5
          ],
          [
            999743.7767404618,
            6762962.5
          ],
          [
            999737.5,
            6762983.713717006
          ],
          [
            999736.4461876604,
            6762987.5
          ],
          [
            999729.4856991009,
            6763012.500000001
          ],
          [
            999723.4644447042,
            6763037.5
          ],
          [
            999718.189069966,
            6763062.5
          ],
          [
            999712.7915650802,
            6763087.5
          ],
          [
            999712.5,
            6763088.609332531
          ],
          [
            999706.4746416145,
            6763112.5
          ],
          [
            999697.2776909476,
            6763137.5
          ],
          [
            999687.5,
            6763157.22009384
          ],
          [
            999684.9746632492,
            6763162.5
          ],
          [
            999672.1056261929,
            6763187.5
          ],
          [
            999662.5,
            6763208.306406956
          ],
          [
            999660.624410508,
            6763212.5
          ],
          [
            999651.1743629889,
            6763237.5
          ],
          [
            999642.4072345821,
            6763262.5
          ],
          [
            999637.5,
            6763275.794133902
          ],
          [
            999632.8599345327,
            6763287.500000001
          ],
          [
            999620.8278567368,
            6763312.5
          ],
          [
            999612.5,
            6763324.908434623
          ],
          [
            999603.4325083628,
            6763337.5
          ]
        ]
      }
    },
    {
      "type": "Feature",
      "properties": {
        "method": "transverse height maximum"
      },
      "geometry": {
        "type": "LineString",
        "coordinates": [
          [
            998837.5,
            6762826.339521148
          ],
          [
            998848.7468538723,
            6762837.5
          ],
          [
            998862.5,
            6762851.659212329
          ],
          [
            998872.1516470275,
            6762862.5
          ],
          [
            998887.5,
            6762881.514747894
          ],
          [
            998892.2796717717,
            6762887.5
          ],
          [
            998909.7241126581,
            6762912.5
          ],
          [
            998912.5000000001,
            6762917.108325515
          ],
          [
            998925.4554500411,
            6762937.5
          ],
          [
            998937.5,
            6762959.467657675
          ],
          [
            998939.530727362,
            6762962.5
          ],
          [
            998954.5616762387,
            6762987.5
          ],
          [
            998962.5,
            6763002.69844167
          ],
          [
            998969.4892815577,
            6763012.5
          ],
          [
            998980.6460296138,
            6763037.5
          ],
          [
            998987.3431833452,
            6763062.5
          ],
          [
            998987.5,
            6763063.2690208135
          ],
          [
            998992.314414748,
            6763087.5
          ],
          [
            998995.7716108697,
            6763112.5
          ],
          [
            998999.0562502934,
            6763137.5
          ],
          [
            999003.4615761612,
            6763162.5
          ],
          [
            999009.24307615,
            6763187.5
          ],
          [
            999012.5,
            6763200.343135767
          ],
          [
            999015.4972431537,
            6763212.5
          ],
          [
            999020.6523274536,
            6763237.5
          ],
          [
            999023.999735477,
            6763262.5
          ],
          [
            999025.626576191,
            6763287.5
          ],
          [
            999026.0632592291,
            6763312.5
          ],
          [
            999026.239113892,
            6763337.5
          ],
          [
            999027.1618567571,
            6763362.5
          ],
          [
            999029.2866515636,
            6763387.5
          ],
          [
            999032.4770064227,
            6763412.5
          ],
          [
            999036.4778375267,
            6763437.500000001
          ],
          [
            999037.4999999999,
            6763443.105374733
          ],
          [
            999041.0642862114,
            6763462.5
          ],
          [
            999045.8705066221,
            6763487.5
          ],
          [
            999050.7195913052,
            6763512.499999999
          ],
          [
            999055.2306769075,
            6763537.5
          ],
          [
            999058.2256788034,
            6763562.5
          ],
          [
            999058.1440085311,
            6763587.5
          ],
          [
            999055.8415959628,
            6763612.5
          ],
          [
            999053.3224447172,
            6763637.5
          ],
          [
            999051.3822727986,
            6763662.5
          ],
          [
            999050.0305335077,
            6763687.500000001
          ],
          [
            999049.1166840161,
            6763712.5
          ],
          [
            999048.5173293132,
            6763737.5
          ],
          [
            999048.1550977266,
            6763762.5
          ],
          [
            999048.0201341944,
            6763787.5
          ],
          [
            999048.2051613164,
            6763812.5
          ],
          [
            999048.8607596882,
            6763837.5
          ],
          [
            999050.1210091871,
            6763862.5
          ]
        ]
      }
    },
    {
      "type": "Feature",
      "properties": {
        "method": "transverse height maximum"
      },
      "geometry": {
        "type": "LineString",
        "coordinates": [
          [
            998056.6989271898,
            6763012.5
          ],
          [
            998050.6534168281,
            6763037.5
          ],
          [
            998054.7415128766,
            6763062.5
          ],
          [
            998062.5,
            6763080.659319475
          ],
          [
            998066.4336793973,
            6763087.5
          ],
          [
            998077.762342772,
            6763112.5
          ],
          [
            998086.4441160926,
            6763137.5
          ],
          [
            998087.5,
            6763140.074772489
          ],
          [
            998097.4806908368,
            6763162.5
          ],
          [
            998111.1254736795,
            6763187.5
          ],
          [
            998112.5,
            6763189.802763538
          ],
          [
            998128.71730955,
            6763212.5
          ],
          [
            998137.5,
            6763224.651663174
          ],
          [
            998148.7694416741,
            6763237.5
          ],
          [
            998162.5,
            6763252.685209276
          ],
          [
            998173.5529459188,
            6763262.5
          ],
          [
            998187.5,
            6763282.747006717
          ],
          [
            998189.8015199228,
            6763287.5
          ],
          [
            998193.9066552261,
            6763312.5
          ],
          [
            998194.7505429246,
            6763337.5
          ],
          [
            998194.7840811022,
            6763362.5
          ],
          [
            998194.7914874717,
            6763387.5
          ],
          [
            998195.0135493168,
            6763412.5
          ],
          [
            998195.2715300876,
            6763437.5
          ],
          [
            998195.437413262,
            6763462.5
          ],
          [
            998196.2113189176,
            6763487.5
          ],
          [
            998198.8971686977,
            6763512.5
          ],
          [
            998205.1334406867,
            6763537.5
          ],
          [
            998212.5,
            6763552.666872017
          ],
          [
            998223.2786400088,
            6763562.5
          ],
          [
            998237.5,
            6763570.402656242
          ],
          [
            998262.5,
            6763570.5089210905
          ],
          [
            998287.5,
            6763566.093959038
          ]
        ]
      }
    },
    {
      "type": "Feature",
      "properties": {
        "method": "transverse height maximum"
      },
      "geometry": {
        "type": "LineString",
        "coordinates": [
          [
            995459.1592979046,
            6763337.5
          ],
          [
            995437.5,
            6763313.56018723
          ],
          [
            995436.2549590159,
            6763312.5
          ],
          [
            995412.5,
            6763297.435958572
          ],
          [
            995387.5,
            6763292.497014693
          ],
          [
            995362.5000000001,
            6763311.753177053
          ],
          [
            995362.1452170444,
            6763312.5
          ],
          [
            995357.0993373544,
            6763337.5
          ],
          [
            995356.3370087986,
            6763362.5
          ],
          [
            995357.7879801525,
            6763387.5
          ],
          [
            995361.7531403989,
            6763412.5
          ]
        ]
      }
    },
    {
      "type": "Feature",
      "properties": {
        "method": "transverse height maximum"
      },
      "geometry": {
        "type": "LineString",
        "coordinates": [
          [
            997187.5,
            6763318.597205215
          ],
          [
            997175.5870658541,
            6763337.5
          ],
          [
            997162.5,
            6763352.1833205875
          ],
          [
            997158.376578188,
            6763362.5
          ],
          [
            997146.1142449824,
            6763387.5
          ],
          [
            997137.5,
            6763402.568497169
          ],
          [
            997132.404145763,
            6763412.5
          ],
          [
            997118.0720069228,
            6763437.5
          ],
          [
            997112.5,
            6763446.0080720475
          ],
          [
            997101.5676095996,
            6763462.5
          ],
          [
            997087.5000000001,
            6763481.027765798
          ],
          [
            997082.3967125805,
            6763487.5
          ],
          [
            997062.5,
            6763510.497475418
          ],
          [
            997060.8087964506,
            6763512.5
          ],
          [
            997039.6034553167,
            6763537.5
          ],
          [
            997037.5,
            6763540.291414024
          ],
          [
            997023.2767212251,
            6763562.5
          ],
          [
            997016.454221567,
            6763587.5
          ],
          [
            997020.7011105681,
            6763612.5
          ],
          [
            997028.7535477958,
            6763637.500000001
          ],
          [
            997036.301673803,
            6763662.5
          ],
          [
            997037.5,
            6763668.136205241
          ],
          [
            997040.9002097007,
            6763687.5
          ],
          [
            997042.5072392517,
            6763712.5
          ],
          [
            997042.1101621377,
            6763737.5
          ],
          [
            997040.3729294193,
            6763762.5
          ],
          [
            997037.5674083442,
            6763787.5
          ],
          [
            997037.5,
            6763788.058550863
          ],
          [
            997034.5341242441,
            6763812.5
          ],
          [
            997032.4839304291,
            6763837.499999999
          ]
        ]
      }
    },
    {
      "type": "Feature",
      "properties": {
        "method": "transverse height maximum"
      },
      "geometry": {
        "type": "LineString",
        "coordinates": [
          [
            995212.5,
            6763582.456861137
          ],
          [
            995208.5326954664,
            6763587.5
          ],
          [
            995192.4485279251,
            6763612.5
          ],
          [
            995187.5,
            6763621.249126518
          ],
          [
            995177.6622746196,
            6763637.500000001
          ],
          [
            995163.5208714369,
            6763662.5
          ],
          [
            995162.5,
            6763664.550853134
          ],
          [
            995150.1077240112,
            6763687.499999999
          ],
          [
            995138.3789726613,
            6763712.5
          ],
          [
            995137.5,
            6763714.915858062
          ],
          [
            995128.1316628304,
            6763737.5
          ],
          [
            995119.4967346403,
            6763762.5
          ],
          [
            995112.5,
            6763786.647686738
          ],
          [
            995112.1916331941,
            6763787.5
          ],
          [
            995105.0061743062,
            6763812.5
          ],
          [
            995098.2401121011,
            6763837.5
          ],
          [
            995090.3583934832,
            6763862.5
          ],
          [
            995087.5,
            6763869.433782442
          ],
          [
            995080.7431286009,
            6763887.5
          ],
          [
            995068.3971321357,
            6763912.5
          ],
          [
            995062.5,
            6763921.659845654
          ],
          [
            995053.0628007938,
            6763937.5
          ],
          [
            995037.5,
            6763958.091308782
          ],
          [
            995034.4528969931,
            6763962.5
          ],
          [
            995014.5942542781,
            6763987.5
          ],
          [
            995012.5,
            6763990.535987893
          ],
          [
            995000.0,
            6764009.571887157
          ]
        ]
      }
    },
    {
      "type": "Feature",
      "properties": {
        "method": "transverse height maximum"
      },
      "geometry": {
        "type": "LineString",
        "coordinates": [
          [
            995000.0,
            6764090.920249243
          ],
          [
            995008.5876851087,
            6764112.5
          ],
          [
            995012.5,
            6764118.450925361
          ],
          [
            995023.3517694398,
            6764137.5
          ],
          [
            995037.5,
            6764157.670096338
          ],
          [
            995040.0652626011,
            6764162.5
          ],
          [
            995054.0604627114,
            6764187.5
          ],
          [
            995062.5,
            6764201.649976766
          ],
          [
            995067.1362957591,
            6764212.5
          ],
          [
            995078.2311251074,
            6764237.5
          ],
          [
            995087.5,
            6764257.517537679
          ],
          [
            995089.3194191457,
            6764262.5
          ],
          [
            995099.4276541201,
            6764287.5
          ],
          [
            995111.8491578619,
            6764312.500000001
          ],
          [
            995112.5000000001,
            6764313.608199532
          ],
          [
            995126.2867846561,
            6764337.500000001
          ],
          [
            995137.5,
            6764352.760755747
          ],
          [
            995145.8542732924,
            6764362.5
          ],
          [
            995162.5,
            6764378.886782079
          ]
        ]
      }
    },
    {
      "type": "Feature",
      "properties": {
        "method": "transverse height maximum"
      },
      "geometry": {
        "type": "LineString",
        "coordinates": [
          [
            999433.7703294562,
            6763687.5
          ],
          [
            999435.8275596948,
            6763712.500000001
          ],
          [
            999437.5,
            6763720.606989419
          ],
          [
            999441.4919895672,
            6763737.5
          ],
          [
            999446.8141089913,
            6763762.5
          ],
          [
            999439.3460127057,
            6763787.5
          ],
          [
            999437.5,
            6763789.6539758155
          ],
          [
            999420.670425853,
            6763812.5
          ],
          [
            999412.5,
            6763821.878932299
          ],
          [
            999401.6592784217,
            6763837.5
          ],
          [
            999387.5,
            6763860.561469889
          ],
          [
            999386.5363796754,
            6763862.5
          ],
          [
            999374.7512326794,
            6763887.5
          ],
          [
            999364.4732311182,
            6763912.5
          ],
          [
            999362.5,
            6763917.910090683
          ],
          [
            999355.2272737247,
            6763937.500000001
          ],
          [
            999344.9080155351,
            6763962.5
          ],
          [
            999337.5,
            6763974.161531951
          ]
        ]
      }
    },
    {
      "type": "Feature",
      "properties": {
        "method": "transverse height maximum"
      },
      "geometry": {
        "type": "LineString",
        "coordinates": [
          [
            999299.9861399492,
            6764012.5
          ],
          [
            999287.5,
            6764023.507866672
          ],
          [
            999271.178078598,
            6764037.5
          ],
          [
            999262.5,
            6764047.441808898
          ],
          [
            999250.5584303332,
            6764062.5
          ],
          [
            999237.8993259692,
            6764087.5
          ],
          [
            999237.5,
            6764088.460599619
          ],
          [
            999226.8504381307,
            6764112.5
          ],
          [
            999212.5,
            6764134.84948165
          ],
          [
            999209.9071856017,
            6764137.5
          ],
          [
            999187.5,
            6764152.898414953
          ],
          [
            999165.0581364993,
            6764162.5
          ],
          [
            999162.5,
            6764164.329526324
          ],
          [
            999148.6335723385,
            6764187.5
          ],
          [
            999143.5198725048,
            6764212.5
          ],
          [
            999140.1394809219,
            6764237.5
          ],
          [
            999137.6141242135,
            6764262.5
          ],
          [
            999137.5,
            6764263.871415252
          ],
          [
            999135.5650843654,
            6764287.5
          ],
          [
            999133.4823040004,
            6764312.5
          ],
          [
            999130.1176755588,
            6764337.5
          ],
          [
            999124.2294526717,
            6764362.5
          ],
          [
            999116.0245716291,
            6764387.5
          ],
          [
            999112.5,
            6764396.545378148
          ],
          [
            999106.1193182302,
            6764412.500000001
          ],
          [
            999095.8623838116,
            6764437.5
          ],
          [
            999087.5000000001,
            6764459.01336754
          ],
          [
            999086.0569912995,
            6764462.5
          ],
          [
            999077.9974537261,
            6764487.5
          ],
          [
            999073.4500826936,
            6764512.5
          ],
          [
            999071.0055388381,
            6764537.5
          ],
          [
            999069.3886446019,
            6764562.5
          ],
          [
            999068.2088379281,
            6764587.5
          ],
          [
            999067.6433358546,
            6764612.5
          ],
          [
            999068.0049160696,
            6764637.5
          ],
          [
            999069.4100693476,
            6764662.5
          ],
          [
            999071.7114952847,
            6764687.5
          ],
          [
            999074.5006738311,
            6764712.5
          ],
          [
            999077.1303039955,
            6764737.5
          ],
          [
            999079.2799565309,
            6764762.499999999
          ],
          [
            999081.3266166744,
            6764787.5
          ],
          [
            999083.6188366875,
            6764812.5
          ],
          [
            999086.1506130733,
            6764837.499999999
          ],
          [
            999087.5,
            6764850.12384294
          ],
          [
            999088.7699403561,
            6764862.5
          ],
          [
            999091.3969216574,
            6764887.5
          ],
          [
            999094.1042026267,
            6764912.5
          ],
          [
            999096.9625674672,
            6764937.5
          ],
          [
            999100.0666149101,
            6764962.5
          ],
          [
            999103.5599157317,
            6764987.500000001
          ],
          [
            999105.6495763195,
            6765000.0
          ]
        ]
      }
    },
    {
      "type": "Feature",
      "properties": {
        "method": "transverse height maximum"
      },
      "geometry": {
        "type": "LineString",
        "coordinates": [
          [
            996390.0845252537,
            6764412.5
          ],
          [
            996387.5,
            6764415.9420598205
          ],
          [
            996370.4884820835,
            6764437.5
          ],
          [
            996362.5,
            6764448.761799609
          ],
          [
            996351.3675258016,
            6764462.5
          ],
          [
            996337.5,
            6764482.382148168
          ],
          [
            996333.3353453714,
            6764487.5
          ],
          [
            996316.9797525983,
            6764512.5
          ],
          [
            996312.5,
            6764520.6503405105
          ],
          [
            996301.3287161596,
            6764537.5
          ],
          [
            996287.5,
            6764560.5846498255
          ],
          [
            996285.951329978,
            6764562.499999999
          ],
          [
            996269.3355733327,
            6764587.5
          ],
          [
            996262.4999999999,
            6764600.10161783
          ],
          [
            996252.6867331725,
            6764612.5
          ]
        ]
      }
    },
    {
      "type": "Feature",
      "properties": {
        "method": "transverse height maximum"
      },
      "geometry": {
        "type": "LineString",
        "coordinates": [
          [
            995302.2846722411,
            6764512.5
          ],
          [
            995302.2784299622,
            6764537.5
          ],
          [
            995308.354062419,
            6764562.5
          ],
          [
            995312.5,
            6764572.073749952
          ],
          [
            995319.2423019123,
            6764587.5
          ],
          [
            995332.8505174022,
            6764612.5
          ],
          [
            995337.5,
            6764620.998527452
          ],
          [
            995347.6444189921,
            6764637.5
          ],
          [
            995359.7776836085,
            6764662.5
          ],
          [
            995362.5,
            6764671.050430749
          ],
          [
            995368.1907458133,
            6764687.5
          ],
          [
            995371.9881705687,
            6764712.5
          ],
          [
            995373.8797473507,
            6764737.5
          ],
          [
            995376.550270973,
            6764762.5
          ],
          [
            995381.530599247,
            6764787.5
          ],
          [
            995387.5,
            6764805.153173421
          ],
          [
            995390.4883206857,
            6764812.5
          ],
          [
            995406.9319087086,
            6764837.499999999
          ],
          [
            995412.5000000001,
            6764842.836011842
          ]
        ]
      }
    },
    {
      "type": "Feature",
      "properties": {
        "method": "transverse height maximum"
      },
      "geometry": {
        "type": "LineString",
        "coordinates": [
          [
            997137.5,
            6764743.978360557
          ],
          [
            997128.9191389814,
            6764762.5
          ],
          [
            997116.3218279487,
            6764787.5
          ],
          [
            997112.5,
            6764794.297711995
          ],
          [
            997105.1271995426,
            6764812.5
          ],
          [
            997095.1874429133,
            6764837.5
          ],
          [
            997087.5,
            6764857.213890903
          ],
          [
            997085.6268008263,
            6764862.5
          ],
          [
            997077.3857208822,
            6764887.5
          ],
          [
            997069.4792921316,
            6764912.5
          ],
          [
            997062.5,
            6764935.187595102
          ],
          [
            997061.7685047073,
            6764937.5
          ],
          [
            997053.9272664656,
            6764962.499999999
          ],
          [
            997041.5573433,
            6764987.5
          ]
        ]
      }
    },
    {
      "type": "Feature",
      "properties": {
        "method": "transverse height maximum"
      },
      "geometry": {
        "type": "LineString",
        "coordinates": [
          [
            998062.9698437043,
            6760112.5
          ],
          [
            998062.5,
            6760111.858247095
          ],
          [
            998037.5,
            6760088.100223335
          ],
          [
            998036.3062963134,
            6760087.5
          ],
          [
            998012.5,
            6760078.180349354
          ],
          [
            997987.5,
            6760070.031835411
          ],
          [
            997963.8471803443,
            6760062.5
          ],
          [
            997962.5,
            6760062.0580699565
          ],
          [
            997937.5000000001,
            6760053.674740922
          ],
          [
            997912.5,
            6760045.284079364
          ],
          [
            997887.7498086583,
            6760037.5
          ],
          [
            997887.5,
            6760037.391173011
          ],
          [
            997862.5,
            6760029.669337024
          ],
          [
            997837.5,
            6760025.027867357
          ],
          [
            997813.1819798398,
            6760037.5
          ],
          [
            997812.5,
            6760037.965056373
          ],
          [
            997794.3971676836,
            6760062.5
          ],
          [
            997787.5,
            6760070.225328321
          ],
          [
            997769.8264288316,
            6760087.5
          ],
          [
            997762.5,
            6760094.37082206
          ],
          [
            997742.5499275702,
            6760112.5
          ],
          [
            997737.5,
            6760117.302489211
          ],
          [
            997716.8376909222,
            6760137.5
          ]
        ]
      }
    },
    {
      "type": "Feature",
      "properties": {
        "method": "transverse height maximum"
      },
      "geometry": {
        "type": "LineString",
        "coordinates": [
          [
            995319.8509779248,
            6760312.5
          ],
          [
            995312.5,
            6760316.084948843
          ],
          [
            995287.5,
            6760327.680137284
          ],
          [
            995262.5000000001,
            6760335.026439773
          ],
          [
            995238.5587066744,
            6760337.5
          ],
          [
            995237.5,
            6760337.594869921
          ],
          [
            995233.057854954,
            6760337.5
          ],
          [
            995212.5,
            6760337.042608788
          ],
          [
            995187.5,
            6760335.246185011
          ],
          [
            995162.5000000001,
            6760333.124466771
          ],
          [
            995137.5,
            6760330.574027977
          ],
          [
            995112.4999999999,
            6760327.308148287
          ],
          [
            995087.5,
            6760323.412874326
          ],
          [
            995062.5,
            6760318.35700298
          ],
          [
            995046.5301958185,
            6760312.5
          ],
          [
            995037.5,
            6760308.913857895
          ],
          [
            995012.5,
            6760293.279333084
          ],
          [
            995004.9775672423,
            6760287.5
          ],
          [
            995000.0,
            6760283.7678842265
          ]
        ]
      }
    },
    {
      "type": "Feature",
      "properties": {
        "method": "transverse height maximum"
      },
      "geometry": {
        "type": "LineString",
        "coordinates": [
          [
            997237.5,
            6760528.8968147505
          ],
          [
            997224.9597421816,
            6760512.5
          ],
          [
            997212.5,
            6760502.63860242
          ],
          [
            997194.4161404881,
            6760487.5
          ],
          [
            997187.5,
            6760481.7436702475
          ],
          [
            997162.5,
            6760464.117543372
          ],
          [
            997159.8759273894,
            6760462.5
          ],
          [
            997137.5,
            6760450.118986194
          ],
          [
            997112.5,
            6760443.10116997
          ],
          [
            997087.5,
            6760440.664150425
          ],
          [
            997062.5,
            6760441.315813374
          ],
          [
            997037.5,
            6760443.678337088
          ],
          [
            997012.5,
            6760446.71918703
          ],
          [
            996987.5,
            6760449.800883324
          ],
          [
            996962.5,
            6760452.812582004
          ],
          [
            996937.5,
            6760456.0299923895
          ],
          [
            996912.5,
            6760459.733606012
          ],
          [
            996896.45868187,
            6760462.5
          ],
          [
            996887.5,
            6760464.020731527
          ],
          [
            996862.5,
            6760468.743026008
          ],
          [
            996837.5,
            6760474.112297476
          ],
          [
            996812.5,
            6760480.368445301
          ],
          [
            996787.5,
            6760487.401456396
          ],
          [
            996787.0921545128,
            6760487.5
          ],
          [
            996762.5,
            6760493.301384604
          ],
          [
            996737.5,
            6760496.620281509
          ],
          [
            996712.5,
            6760497.1350356685
          ],
          [
            996687.5,
            6760495.629945919
          ],
          [
            996662.5,
            6760493.106828672
          ],
          [
            996637.5,
            6760490.838117705
          ]
        ]
      }
    },
    {
      "type": "Feature",
      "properties": {
        "method": "transverse height maximum"
      },
      "geometry": {
        "type": "LineString",
        "coordinates": [
          [
            996337.5,
            6760773.1617283095
          ],
          [
            996312.5,
            6760772.359932228
          ],
          [
            996287.5,
            6760771.660484869
          ],
          [
            996262.5,
            6760772.060461604
          ],
          [
            996237.5,
            6760773.878962831
          ],
          [
            996212.5,
            6760776.78307949
          ],
          [
            996187.5,
            6760780.186081329
          ],
          [
            996162.5,
            6760783.785141048
          ],
          [
            996138.765117308,
            6760787.5
          ],
          [
            996137.5,
            6760787.698166542
          ],
          [
            996112.5,
            6760791.905334308
          ],
          [
            996087.5,
            6760796.2491024975
          ],
          [
            996062.5,
            6760800.239237285
          ],
          [
            996037.4999999999,
            6760803.858788638
          ],
          [
            996012.4999999999,
            6760807.360365168
          ],
          [
            995987.5,
            6760810.768513208
          ],
          [
            995972.5266024381,
            6760812.5
          ],
          [
            995962.5,
            6760813.789532138
          ],
          [
            995937.5,
            6760815.595006245
          ],
          [
            995912.5,
            6760814.77474558
          ],
          [
            995901.7929413174,
            6760812.5
          ],
          [
            995887.5,
            6760809.521652844
          ],
          [
            995862.5,
            6760800.001699303
          ],
          [
            995837.5,
            6760790.486135395
          ],
          [
            995825.5251611798,
            6760787.5
          ],
          [
            995812.5,
            6760784.110724885
          ],
          [
            995787.5,
            6760780.604809703
          ],
          [
            995762.5,
            6760777.802339736
          ],
          [
            995737.5,
            6760771.494556449
          ],
          [
            995724.9108647429,
            6760762.5
          ],
          [
            995722.7220407741,
            6760737.5
          ]
        ]
      }
    },
    {
      "type": "Feature",
      "properties": {
        "method": "transverse height maximum"
      },
      "geometry": {
        "type": "LineString",
        "coordinates": [
          [
            997163.4480736005,
            6761312.5
          ],
          [
            997162.5,
            6761313.32687659
          ],
          [
            997137.5,
            6761329.957309338
          ],
          [
            997112.4999999999,
            6761333.361103496
          ],
          [
            997087.5,
            6761328.765801899
          ],
          [
            997062.5,
            6761321.84836531
          ],
          [
            997037.5,
            6761313.523699189
          ],
          [
            997034.8748877244,
            6761312.5
          ],
          [
            997012.5,
            6761303.912075873
          ],
          [
            996987.5,
            6761293.021927158
          ],
          [
            996976.6926248284,
            6761287.5
          ],
          [
            996962.5,
            6761279.993121973
          ],
          [
            996937.5,
            6761265.8981188955
          ],
          [
            996931.8530840767,
            6761262.5
          ],
          [
            996912.5000000001,
            6761250.844074731
          ],
          [
            996890.5157610201,
            6761237.5
          ],
          [
            996887.4999999999,
            6761235.598885155
          ],
          [
            996862.5,
            6761219.7143792845
          ],
          [
            996851.7944023698,
            6761212.5
          ],
          [
            996837.5,
            6761202.649302572
          ],
          [
            996816.7031030764,
            6761187.5
          ],
          [
            996812.5,
            6761184.387639973
          ],
          [
            996787.5,
            6761164.970119743
          ],
          [
            996784.4790183981,
            6761162.5
          ],
          [
            996762.5,
            6761144.965980727
          ],
          [
            996752.9889428113,
            6761137.5
          ],
          [
            996737.4999999999,
            6761125.899209072
          ],
          [
            996717.5432030995,
            6761112.5
          ],
          [
            996712.5,
            6761109.273512069
          ],
          [
            996687.5,
            6761095.825066855
          ],
          [
            996669.3125243324,
            6761087.499999999
          ],
          [
            996662.5000000001,
            6761084.423373949
          ],
          [
            996637.5,
            6761074.384621739
          ],
          [
            996612.5,
            6761064.046233952
          ],
          [
            996609.0755402425,
            6761062.5
          ],
          [
            996587.5,
            6761051.867122583
          ],
          [
            996566.161761807,
            6761037.5
          ],
          [
            996562.5,
            6761034.685423043
          ]
        ]
      }
    },
    {
      "type": "Feature",
      "properties": {
        "method": "transverse height maximum"
      },
      "geometry": {
        "type": "LineString",
        "coordinates": [
          [
            998027.917218484,
            6761662.5
          ],
          [
            998014.521395096,
            6761687.5
          ],
          [
            998012.5,
            6761689.15109626
          ],
          [
            997987.5,
            6761700.409096912
          ],
          [
            997962.5000000001,
            6761701.0589540545
          ],
          [
            997937.5,
            6761699.280681892
          ],
          [
            997912.5,
            6761697.653863415
          ],
          [
            997887.5,
            6761696.751848662
          ],
          [
            997862.5,
            6761696.136995906
          ],
          [
            997837.5,
            6761694.310786466
          ],
          [
            997812.5,
            6761689.632580298
          ],
          [
            997805.1594546912,
            6761687.5
          ],
          [
            997787.5,
            6761682.017328987
          ],
          [
            997762.5,
            6761673.325069486
          ],
          [
            997737.5,
            6761665.197843759
          ],
          [
            997725.1845322184,
            6761662.5
          ],
          [
            997712.5,
            6761658.994399207
          ],
          [
            997687.5,
            6761658.37422747
          ],
          [
            997662.5,
            6761661.041022872
          ],
          [
            997652.287019454,
            6761662.5
          ],
          [
            997637.5,
            6761664.297422831
          ],
          [
            997612.5,
            6761667.402837526
          ],
          [
            997587.5,
            6761670.3851702735
          ],
          [
            997562.5,
            6761673.2624581475
          ],
          [
            997537.5,
            6761675.993740928
          ],
          [
            997512.5,
            6761678.16903201
          ],
          [
            997487.4999999999,
            6761679.261634192
          ],
          [
            997462.4999999999,
            6761679.359176067
          ],
          [
            997437.5,
            6761679.054076704
          ],
          [
            997412.5,
            6761679.045078482
          ],
          [
            997387.5000000001,
            6761680.117527379
          ],
          [
            997362.4999999999,
            6761682.574121432
          ],
          [
            997337.5,
            6761684.574064004
          ],
          [
            997312.5,
            6761682.154285227
          ],
          [
            997287.5,
            6761671.3761954345
          ]
        ]
      }
    },
    {
      "type": "Feature",
      "properties": {
        "method": "transverse height maximum"
      },
      "geometry": {
        "type": "LineString",
        "coordinates": [
          [
            996866.4233675853,
            6762437.5
          ],
          [
            996883.3421187416,
            6762462.5
          ],
          [
            996884.943790937,
            6762487.5
          ],
          [
            996862.5000000001,
            6762510.768507373
          ],
          [
            996861.2294296697,
            6762512.5
          ],
          [
            996837.5,
            6762524.185781564
          ],
          [
            996812.4999999999,
            6762532.90819561
          ],
          [
            996796.9538664909,
            6762537.5
          ],
          [
            996787.5,
            6762543.767330146
          ],
          [
            996762.5,
            6762557.962992978
          ],
          [
            996737.5,
            6762546.717730268
          ],
          [
            996730.0084316259,
            6762537.5
          ],
          [
            996712.5,
            6762532.208311642
          ],
          [
            996687.5,
            6762525.084067375
          ],
          [
            996662.5,
            6762519.719352843
          ],
          [
            996637.5,
            6762513.639446456
          ],
          [
            996633.8527587241,
            6762512.5
          ],
          [
            996612.5000000001,
            6762505.869624698
          ],
          [
            996587.5,
            6762496.293951544
          ],
          [
            996567.5012770792,
            6762487.5
          ],
          [
            996562.5000000001,
            6762485.241994293
          ],
          [
            996537.5,
            6762474.483740362
          ],
          [
            996512.5,
            6762463.528049353
          ],
          [
            996510.0576182377,
            6762462.5
          ],
          [
            996487.5,
            6762453.416416739
          ],
          [
            996462.5,
            6762444.306010026
          ],
          [
            996441.8675573756,
            6762437.5
          ],
          [
            996437.5,
            6762436.106611012
          ],
          [
            996412.5,
            6762429.298862183
          ],
          [
            996387.5,
            6762425.206591856
          ],
          [
            996362.5,
            6762423.738674287
          ],
          [
            996337.5,
            6762423.417937428
          ],
          [
            996312.5,
            6762423.309255371
          ],
          [
            996287.5,
            6762422.882528299
          ],
          [
            996262.5,
            6762421.415286451
          ],
          [
            996237.5,
            6762418.059018793
          ],
          [
            996212.7035650082,
            6762412.5
          ],
          [
            996212.4999999999,
            6762412.452498274
          ],
          [
            996187.5000000001,
            6762404.764139498
          ],
          [
            996162.5,
            6762394.99144403
          ],
          [
            996146.9700900643,
            6762387.5
          ],
          [
            996137.5,
            6762382.733797019
          ],
          [
            996112.5,
            6762369.41358697
          ],
          [
            996100.42044655,
            6762362.5
          ],
          [
            996087.5000000001,
            6762354.904924426
          ],
          [
            996062.5,
            6762337.9743721
          ],
          [
            996061.905608707,
            6762337.5
          ],
          [
            996037.5,
            6762317.424809111
          ],
          [
            996031.9544087825,
            6762312.5
          ],
          [
            996012.5,
            6762296.210898029
          ],
          [
            995998.208329806,
            6762287.5
          ],
          [
            995987.5,
            6762281.821362031
          ],
          [
            995962.5,
            6762274.140231886
          ],
          [
            995937.5,
            6762269.284166965
          ],
          [
            995912.5,
            6762265.331332992
          ],
          [
            995896.2604028222,
            6762262.5
          ],
          [
            995887.4999999999,
            6762261.052086039
          ],
          [
            995862.5,
            6762255.53247932
          ],
          [
            995837.5,
            6762247.790476976
          ],
          [
            995812.8076878986,
            6762237.500000001
          ],
          [
            995812.4999999999,
            6762237.372628907
          ],
          [
            995787.5,
            6762225.7503463095
          ],
          [
            995762.5,
            6762214.013801466
          ],
          [
            995758.8254980458,
            6762212.5
          ],
          [
            995737.5,
            6762203.9737293525
          ],
          [
            995712.5,
            6762196.474287958
          ],
          [
            995687.5,
            6762191.511338015
          ],
          [
            995662.5,
            6762188.658157791
          ],
          [
            995643.8038558727,
            6762187.5
          ],
          [
            995637.5000000001,
            6762187.047985644
          ],
          [
            995612.5,
            6762185.565105346
          ],
          [
            995587.4999999999,
            6762183.486658143
          ],
          [
            995562.5,
            6762181.178240505
          ],
          [
            995537.5,
            6762179.942110643
          ],
          [
            995512.5,
            6762180.240770986
          ],
          [
            995487.5,
            6762181.472536658
          ],
          [
            995462.5,
            6762182.880521229
          ],
          [
            995437.5,
            6762183.931125267
          ],
          [
            995412.5,
            6762184.238139333
          ],
          [
            995387.5,
            6762183.235118954
          ],
          [
            995362.5,
            6762179.9282874
          ],
          [
            995337.5,
            6762173.535732848
          ],
          [
            995312.5,
            6762164.438129279
          ],
          [
            995308.2146213765,
            6762162.5
          ],
          [
            995287.5000000001,
            6762152.901027304
          ],
          [
            995262.5,
            6762140.689522585
          ],
          [
            995256.5622586266,
            6762137.5
          ],
          [
            995237.5000000001,
            6762126.723026942
          ],
          [
            995214.0645744574,
            6762112.500000001
          ],
          [
            995212.5,
            6762111.454954076
          ],
          [
            995187.5,
            6762093.448758463
          ],
          [
            995179.4876689446,
            6762087.5
          ],
          [
            995162.5,
            6762073.03965824
          ],
          [
            995149.2674103306,
            6762062.5
          ],
          [
            995137.5,
            6762051.902835131
          ],
          [
            995117.6303067829,
            6762037.5
          ],
          [
            995112.4999999999,
            6762033.451019152
          ],
          [
            995087.5,
            6762021.210029541
          ],
          [
            995062.5,
            6762016.448895021
          ],
          [
            995037.5,
            6762015.663122077
          ],
          [
            995012.5,
            6762016.356345436
          ],
          [
            995000.0,
            6762016.7064757105
          ]
        ]
      }
    },
    {
      "type": "Feature",
      "properties": {
        "method": "transverse height maximum"
      },
      "geometry": {
        "type": "LineString",
        "coordinates": [
          [
            996727.2310634481,
            6763062.5
          ],
          [
            996712.5,
            6763067.172573095
          ],
          [
            996687.5,
            6763072.039751434
          ],
          [
            996662.5,
            6763074.133275271
          ],
          [
            996637.5,
            6763074.878233838
          ],
          [
            996612.5,
            6763080.144911768
          ],
          [
            996602.4464123197,
            6763087.500000001
          ],
          [
            996587.5,
            6763093.412913338
          ],
          [
            996562.5,
            6763107.543074008
          ],
          [
            996555.480314643,
            6763112.5
          ],
          [
            996537.5,
            6763121.304066538
          ],
          [
            996512.5,
            6763135.246111464
          ],
          [
            996509.2205348508,
            6763137.500000001
          ],
          [
            996487.5,
            6763148.946556149
          ],
          [
            996465.2995903144,
            6763162.5
          ],
          [
            996462.5,
            6763164.099071786
          ],
          [
            996437.4999999999,
            6763178.7546191355
          ],
          [
            996423.253215338,
            6763187.5
          ],
          [
            996412.5,
            6763194.583746299
          ],
          [
            996387.5,
            6763211.316560217
          ],
          [
            996385.6909441747,
            6763212.5
          ]
        ]
      }
    },
    {
      "type": "Feature",
      "properties": {
        "method": "transverse height maximum"
      },
      "geometry": {
        "type": "LineString",
        "coordinates": [
          [
            995412.4999999999,
            6763553.6566100735
          ],
          [
            995400.9244960619,
            6763537.5
          ],
          [
            995387.5,
            6763522.029575903
          ],
          [
            995375.783314772,
            6763512.5
          ],
          [
            995362.5,
            6763503.805866682
          ],
          [
            995337.5,
            6763504.19644502
          ],
          [
            995313.1643508618,
            6763512.5
          ],
          [
            995312.5,
            6763512.735661096
          ],
          [
            995287.5,
            6763524.248287083
          ],
          [
            995262.5000000001,
            6763537.282213316
          ],
          [
            995262.1861792529,
            6763537.5
          ],
          [
            995237.5,
            6763555.513297784
          ]
        ]
      }
    },
    {
      "type": "Feature",
      "properties": {
        "method": "transverse height maximum"
      },
      "geometry": {
        "type": "LineString",
        "coordinates": [
          [
            995762.5,
            6763727.007339149
          ],
          [
            995737.5,
            6763727.529384167
          ],
          [
            995712.5,
            6763723.892762601
          ],
          [
            995687.5,
            6763718.511486101
          ],
          [
            995667.9932875952,
            6763712.5
          ],
          [
            995662.5,
            6763710.641075332
          ],
          [
            995637.5,
            6763698.905118604
          ],
          [
            995613.436197198,
            6763687.5
          ],
          [
            995612.5,
            6763686.897232322
          ],
          [
            995587.4999999999,
            6763675.573365955
          ],
          [
            995562.5,
            6763666.770404617
          ],
          [
            995551.3809725039,
            6763662.5
          ],
          [
            995537.5,
            6763657.061754902
          ],
          [
            995512.5,
            6763645.024399409
          ],
          [
            995501.2369980267,
            6763637.5
          ],
          [
            995487.5,
            6763629.639523825
          ],
          [
            995464.1652921432,
            6763612.500000001
          ]
        ]
      }
    },
    {
      "type": "Feature",
      "properties": {
        "method": "transverse height maximum"
      },
      "geometry": {
        "type": "LineString",
        "coordinates": [
          [
            999962.5,
            6763975.7980004
          ],
          [
            999955.5184976308,
            6763962.5
          ],
          [
            999937.5000000001,
            6763950.300122094
          ],
          [
            999912.5,
            6763948.171911048
          ],
          [
            999887.4999999999,
            6763950.479339809
          ],
          [
            999862.5,
            6763953.4482091265
          ],
          [
            999837.5,
            6763956.666921366
          ],
          [
            999812.4999999999,
            6763960.34687892
          ],
          [
            999799.829529616,
            6763962.5
          ],
          [
            999787.5,
            6763964.649707322
          ],
          [
            999762.5,
            6763969.654870623
          ],
          [
            999737.5000000001,
            6763975.303454988
          ],
          [
            999712.5000000001,
            6763981.606532335
          ],
          [
            999690.7086017223,
            6763987.5
          ],
          [
            999687.5,
            6763988.375826064
          ],
          [
            999662.5,
            6763994.007396314
          ],
          [
            999637.5,
            6763998.39728188
          ],
          [
            999612.5,
            6764001.795187188
          ],
          [
            999587.5,
            6764004.456199931
          ],
          [
            999562.5,
            6764006.649858333
          ],
          [
            999537.5,
            6764008.820310393
          ],
          [
            999512.5,
            6764011.411772623
          ],
          [
            999501.3744727956,
            6764012.5
          ],
          [
            999487.5,
            6764013.717491936
          ],
          [
            999462.5,
            6764012.768585127
          ],
          [
            999461.7880901961,
            6764012.5
          ],
          [
            999437.5,
            6763988.930867438
          ],
          [
            999436.9556763734,
            6763987.5
          ]
        ]
      }
    },
    {
      "type": "Feature",
      "properties": {
        "method": "transverse height maximum"
      },
      "geometry": {
        "type": "LineString",
        "coordinates": [
          [
            998587.5,
            6764001.749392345
          ],
          [
            998612.5,
            6764002.397068213
          ],
          [
            998637.4141003361,
            6763987.5
          ],
          [
            998631.3228706598,
            6763962.5
          ],
          [
            998612.5,
            6763942.2441278165
          ],
          [
            998607.3216886877,
            6763937.5
          ],
          [
            998587.5,
            6763923.617709332
          ],
          [
            998570.5297087006,
            6763912.5
          ],
          [
            998562.5000000001,
            6763907.535729667
          ],
          [
            998537.5,
            6763892.573220967
          ],
          [
            998528.4432529804,
            6763887.5
          ],
          [
            998512.4999999999,
            6763878.23251893
          ],
          [
            998487.5,
            6763866.300289707
          ],
          [
            998478.0116537061,
            6763862.5
          ],
          [
            998462.5,
            6763855.760382547
          ],
          [
            998437.5,
            6763846.5484483875
          ],
          [
            998412.6911464458,
            6763837.5
          ],
          [
            998412.5,
            6763837.410287441
          ],
          [
            998387.5,
            6763824.519690771
          ],
          [
            998368.7737464447,
            6763812.5
          ],
          [
            998362.5,
            6763806.98399025
          ],
          [
            998343.1644234253,
            6763787.5
          ],
          [
            998337.5,
            6763780.608927498
          ],
          [
            998323.343575517,
            6763762.5
          ]
        ]
      }
    },
    {
      "type": "Feature",
      "properties": {
        "method": "transverse height maximum"
      },
      "geometry": {
        "type": "LineString",
        "coordinates": [
          [
            999036.9526792512,
            6764087.5
          ],
          [
            999012.5,
            6764074.025733733
          ],
          [
            998988.3294060347,
            6764062.5
          ],
          [
            998987.5,
            6764062.174781663
          ],
          [
            998962.5,
            6764051.329985499
          ],
          [
            998937.5,
            6764040.546895391
          ],
          [
            998930.162978279,
            6764037.5
          ],
          [
            998912.5,
            6764030.931967776
          ],
          [
            998887.5,
            6764023.573453951
          ],
          [
            998862.5,
            6764018.747152974
          ],
          [
            998837.5,
            6764016.058925117
          ],
          [
            998812.5,
            6764014.529419887
          ],
          [
            998787.5,
            6764013.340394004
          ],
          [
            998770.1942142164,
            6764012.500000001
          ],
          [
            998762.5,
            6764012.089175861
          ],
          [
            998737.4999999999,
            6764010.823448857
          ],
          [
            998712.5,
            6764010.135108479
          ],
          [
            998687.4999999999,
            6764011.024414256
          ],
          [
            998678.4359391781,
            6764012.5
          ],
          [
            998662.5,
            6764015.728621186
          ],
          [
            998639.5143905614,
            6764037.5
          ],
          [
            998637.5,
            6764039.337939665
          ],
          [
            998618.0809266544,
            6764062.5
          ],
          [
            998612.5,
            6764067.953215664
          ],
          [
            998592.2115585036,
            6764087.5
          ],
          [
            998587.5,
            6764091.605799816
          ],
          [
            998563.5122865199,
            6764112.5
          ]
        ]
      }
    },
    {
      "type": "Feature",
      "properties": {
        "method": "transverse height maximum"
      },
      "geometry": {
        "type": "LineString",
        "coordinates": [
          [
            997662.5000000001,
            6764110.181012034
          ],
          [
            997641.0932722044,
            6764087.5
          ],
          [
            997637.5000000001,
            6764083.739048769
          ],
          [
            997618.3270603821,
            6764062.5
          ],
          [
            997612.5,
            6764056.121785022
          ],
          [
            997587.5,
            6764046.05133301
          ],
          [
            997562.5,
            6764043.270390675
          ],
          [
            997537.5,
            6764043.037334121
          ],
          [
            997512.5,
            6764044.004586646
          ],
          [
            997487.5,
            6764042.22665765
          ],
          [
            997462.5,
            6764037.626311583
          ],
          [
            997461.882370647,
            6764037.5
          ],
          [
            997437.5,
            6764032.473788544
          ],
          [
            997412.5000000001,
            6764028.094329171
          ],
          [
            997387.5,
            6764025.188638758
          ],
          [
            997362.5,
            6764026.303253305
          ],
          [
            997350.1514814737,
            6764037.5
          ],
          [
            997337.5,
            6764052.538171062
          ],
          [
            997330.8456087547,
            6764062.5
          ],
          [
            997312.5,
            6764086.267581036
          ],
          [
            997311.0360803539,
            6764087.5
          ],
          [
            997287.5,
            6764108.515411924
          ],
          [
            997281.4784356547,
            6764112.499999999
          ],
          [
            997262.4999999999,
            6764128.612730351
          ],
          [
            997251.4929687317,
            6764137.5
          ],
          [
            997237.5,
            6764153.943326054
          ],
          [
            997230.4341702255,
            6764162.5
          ]
        ]
      }
    },
    {
      "type": "Feature",
      "properties": {
        "method": "transverse height maximum"
      },
      "geometry": {
        "type": "LineString",
        "coordinates": [
          [
            998437.5,
            6764215.248364655
          ],
          [
            998412.5,
            6764232.8098535845
          ],
          [
            998405.9348629689,
            6764237.5
          ],
          [
            998387.5,
            6764250.6034294665
          ],
          [
            998370.9369679779,
            6764262.5
          ],
          [
            998362.5,
            6764269.23607931
          ],
          [
            998339.0663730629,
            6764287.5
          ],
          [
            998337.5,
            6764289.033429609
          ],
          [
            998312.5,
            6764308.996470798
          ],
          [
            998306.9429069351,
            6764312.5
          ],
          [
            998287.5,
            6764325.316630711
          ],
          [
            998265.8474727591,
            6764337.5
          ],
          [
            998262.5,
            6764339.222290443
          ],
          [
            998237.5,
            6764352.972240335
          ],
          [
            998222.7072647688,
            6764362.5
          ],
          [
            998212.5,
            6764368.595520461
          ],
          [
            998187.5,
            6764386.099421557
          ],
          [
            998185.8208654887,
            6764387.5
          ],
          [
            998162.5,
            6764404.975166122
          ],
          [
            998153.6219534574,
            6764412.5
          ],
          [
            998137.5,
            6764424.981651807
          ],
          [
            998122.147875643,
            6764437.5
          ],
          [
            998112.5,
            6764445.026276486
          ],
          [
            998089.9035617431,
            6764462.5
          ],
          [
            998087.5,
            6764464.318865767
          ],
          [
            998062.5000000001,
            6764481.519403477
          ],
          [
            998053.0547794513,
            6764487.500000001
          ],
          [
            998037.5,
            6764496.727611822
          ],
          [
            998012.5,
            6764510.508577338
          ],
          [
            998008.8837351527,
            6764512.5
          ],
          [
            997987.5,
            6764524.203485943
          ],
          [
            997964.2481878115,
            6764537.5
          ],
          [
            997962.5,
            6764538.702528739
          ],
          [
            997937.5,
            6764556.832439108
          ],
          [
            997930.3173288424,
            6764562.5
          ]
        ]
      }
    },
    {
      "type": "Feature",
      "properties": {
        "method": "transverse height maximum"
      },
      "geometry": {
        "type": "LineString",
        "coordinates": [
          [
            996637.5,
            6764387.152679777
          ],
          [
            996612.5,
            6764379.349163044
          ],
          [
            996587.4999999999,
            6764376.719687579
          ],
          [
            996562.5,
            6764375.308998965
          ],
          [
            996537.5,
            6764373.807581757
          ],
          [
            996512.5,
            6764372.308453585
          ],
          [
            996487.5,
            6764371.055844152
          ],
          [
            996462.5,
            6764370.474585346
          ],
          [
            996437.5,
            6764372.752801926
          ],
          [
            996412.5,
            6764386.676849819
          ]
        ]
      }
    },
    {
      "type": "Feature",
      "properties": {
        "method": "transverse height maximum"
      },
      "geometry": {
        "type": "LineString",
        "coordinates": [
          [
            995418.5498383997,
            6764412.5
          ],
          [
            995412.5,
            6764414.3819825705
          ],
          [
            995387.5,
            6764424.649137853
          ],
          [
            995362.5,
            6764436.194529876
          ],
          [
            995358.9574980526,
            6764437.5
          ],
          [
            995337.5,
            6764445.544682776
          ],
          [
            995312.5,
            6764451.353614532
          ],
          [
            995287.5,
            6764446.838339664
          ],
          [
            995266.4918150018,
            6764437.5
          ],
          [
            995262.5,
            6764435.838469994
          ],
          [
            995237.5,
            6764423.527316921
          ],
          [
            995215.8128124115,
            6764412.5
          ],
          [
            995212.5,
            6764410.806270525
          ],
          [
            995187.5,
            6764396.732571824
          ]
        ]
      }
    },
    {
      "type": "Feature",
      "properties": {
        "method": "transverse height maximum"
      },
      "geometry": {
        "type": "LineString",
        "coordinates": [
          [
            998937.5,
            6764469.447592337
          ],
          [
            998912.5,
            6764476.749299077
          ],
          [
            998887.5,
            6764477.920876087
          ],
          [
            998862.5,
            6764475.065220577
          ],
          [
            998837.5,
            6764469.601217392
          ],
          [
            998814.0439617474,
            6764462.5
          ],
          [
            998812.5000000001,
            6764461.400846402
          ],
          [
            998787.5,
            6764446.176130989
          ],
          [
            998767.6425219977,
            6764437.5
          ],
          [
            998787.5,
            6764427.297011871
          ]
        ]
      }
    },
    {
      "type": "Feature",
      "properties": {
        "method": "transverse height maximum"
      },
      "geometry": {
        "type": "LineString",
        "coordinates": [
          [
            997837.5,
            6764644.94835814
          ],
          [
            997812.5,
            6764646.544383624
          ],
          [
            997787.5,
            6764645.969381163
          ],
          [
            997772.7091950505,
            6764637.5
          ],
          [
            997762.5,
            6764624.146541218
          ],
          [
            997758.0136426969,
            6764612.5
          ],
          [
            997745.0999990935,
            6764587.500000001
          ],
          [
            997737.5,
            6764580.18292735
          ],
          [
            997712.5,
            6764567.990210403
          ],
          [
            997687.5,
            6764566.330940745
          ],
          [
            997662.5,
            6764570.990538717
          ],
          [
            997637.5000000001,
            6764577.7040813705
          ],
          [
            997612.5,
            6764584.134027658
          ],
          [
            997596.6059502026,
            6764587.5
          ]
        ]
      }
    },
    {
      "type": "Feature",
      "properties": {
        "method": "transverse height maximum"
      },
      "geometry": {
        "type": "LineString",
        "coordinates": [
          [
            998887.5,
            6764770.868022641
          ],
          [
            998862.5,
            6764772.7899059905
          ],
          [
            998837.5,
            6764775.458953304
          ],
          [
            998812.5,
            6764779.098006931
          ],
          [
            998787.5,
            6764783.9662208995
          ],
          [
            998773.1647829863,
            6764787.5
          ],
          [
            998762.5,
            6764790.05760326
          ],
          [
            998737.5,
            6764796.916608146
          ],
          [
            998712.5,
            6764804.608374207
          ],
          [
            998690.0324022934,
            6764812.5
          ],
          [
            998687.5,
            6764813.445183147
          ],
          [
            998662.5,
            6764822.711409254
          ],
          [
            998637.5,
            6764830.912167502
          ],
          [
            998612.5,
            6764837.162530554
          ],
          [
            998610.3612769089,
            6764837.5
          ],
          [
            998587.5,
            6764840.658922979
          ],
          [
            998562.5,
            6764841.930928042
          ],
          [
            998537.5,
            6764841.3669537995
          ],
          [
            998512.5,
            6764839.352978342
          ],
          [
            998497.9415467086,
            6764837.5
          ],
          [
            998487.5,
            6764836.069676947
          ],
          [
            998462.5000000001,
            6764831.790111705
          ],
          [
            998437.5000000001,
            6764827.430953492
          ],
          [
            998412.5,
            6764824.937441462
          ],
          [
            998387.4999999999,
            6764827.470457501
          ],
          [
            998363.7160821516,
            6764837.5
          ],
          [
            998362.5,
            6764838.02683209
          ],
          [
            998337.5,
            6764848.369113159
          ],
          [
            998312.5000000001,
            6764854.713788046
          ],
          [
            998287.5,
            6764844.573130288
          ],
          [
            998283.6259750775,
            6764837.5
          ],
          [
            998287.5000000001,
            6764821.743789708
          ],
          [
            998289.376763227,
            6764812.5
          ],
          [
            998296.5430023787,
            6764787.5
          ],
          [
            998287.5,
            6764763.608573577
          ],
          [
            998286.8705939777,
            6764762.5
          ],
          [
            998262.5,
            6764747.57776222
          ],
          [
            998247.3274898045,
            6764737.5
          ]
        ]
      }
    },
    {
      "type": "Feature",
      "properties": {
        "method": "transverse height maximum"
      },
      "geometry": {
        "type": "LineString",
        "coordinates": [
          [
            999613.2005681706,
            6764937.5
          ],
          [
            999612.5,
            6764938.119227939
          ],
          [
            999587.5,
            6764961.960789183
          ],
          [
            999586.9441649988,
            6764962.5
          ],
          [
            999562.5,
            6764984.089178002
          ],
          [
            999557.7381277424,
            6764987.5
          ],
          [
            999537.5,
            6764999.1517898785
          ],
          [
            999535.8800047936,
            6765000.0
          ]
        ]
      }
    }
  ],
  "provenance": {
    "source_url": "https://data.geopf.fr/wms-r/wms?SERVICE=WMS&VERSION=1.3.0&REQUEST=GetMap&LAYERS=ELEVATION.ELEVATIONGRIDCOVERAGE.HIGHRES&STYLES=normal&CRS=EPSG%3A2154&BBOX=994500.0%2C6759500.0%2C1000500.0%2C6765500.0&WIDTH=240&HEIGHT=240&FORMAT=image%2Ftiff",
    "dataset_url": "https://www.data.gouv.fr/datasets/rge-alti-r",
    "layer": "ELEVATION.ELEVATIONGRIDCOVERAGE.HIGHRES",
    "attribution": "Crests derived from © IGN RGE ALTI · Licence Ouverte 2.0",
    "licence": "Licence Ouverte 2.0",
    "retrieved_utc": "2026-09-22T15:24:24.806553+00:00",
    "derived_utc": "2026-09-22T15:29:06.588010+00:00",
    "derivation_code_sha256": "097f79508273c65e26912088bd99b8e73fa7f20c2eed2ff01fec7fabbd3821be",
    "response_bytes": 230534,
    "response_sha256": "bc98d806d25cad7ecdda72478ebf937c98c6e29837b90ce558e38201884334b7",
    "terrain_file": "ign-terrain-199-1352.tif",
    "raster_bounds_epsg2154": [
      994500.0,
      6759500.0,
      1000500.0,
      6765500.0
    ],
    "bounds_epsg2154": [
      995000.0,
      6760000.0,
      1000000.0,
      6765000.0
    ],
    "parameters": {
      "grid_m": 25,
      "buffer_m": 500,
      "gaussian_sigma_m": 50,
      "minimum_transverse_curvature_per_m": 0.0003,
      "transverse_probe_m": 200,
      "minimum_drop_each_side_m": 5,
      "minimum_line_length_m": 200
    },
    "terrain_height_range_m": [
      404.3233947753906,
      1141.54248046875
    ],
    "method": "Gaussian-smoothed DEM; zero derivative along most concave Hessian eigenvector; negative curvature, two-sided drop and length filters. No flight coordinates used.",
    "limitations": "Approximate, scale-dependent crests; not an official or exhaustive ridge network. Gaps remain at weak ridges, orientation transitions and junctions; no invented links."
  }
}
