{
  "type": "FeatureCollection",
  "crs": {
    "type": "name",
    "properties": {
      "name": "EPSG:2154"
    }
  },
  "features": [
    {
      "type": "Feature",
      "properties": {
        "method": "transverse height maximum"
      },
      "geometry": {
        "type": "LineString",
        "coordinates": [
          [
            570436.9809005352,
            6375000.0
          ],
          [
            570437.5,
            6375001.266622162
          ],
          [
            570442.472996139,
            6375012.5
          ],
          [
            570453.6140902966,
            6375037.5
          ],
          [
            570462.5,
            6375057.888312838
          ],
          [
            570464.8278331544,
            6375062.5
          ]
        ]
      }
    },
    {
      "type": "Feature",
      "properties": {
        "method": "transverse height maximum"
      },
      "geometry": {
        "type": "LineString",
        "coordinates": [
          [
            571695.1824446952,
            6375000.0
          ],
          [
            571705.8715563567,
            6375012.5
          ],
          [
            571712.5,
            6375020.434140463
          ],
          [
            571725.5782541983,
            6375037.499999999
          ],
          [
            571737.5,
            6375054.045327847
          ],
          [
            571743.2854911353,
            6375062.5
          ],
          [
            571757.8529956337,
            6375087.5
          ],
          [
            571762.5,
            6375097.725795695
          ],
          [
            571768.629124271,
            6375112.5
          ],
          [
            571775.7928260749,
            6375137.5
          ],
          [
            571781.3728030495,
            6375162.5
          ],
          [
            571787.2935330236,
            6375187.5
          ],
          [
            571787.5,
            6375188.2063608775
          ],
          [
            571793.5514301205,
            6375212.5
          ],
          [
            571801.8666590215,
            6375237.5
          ],
          [
            571812.5,
            6375262.369114785
          ],
          [
            571812.5494417761,
            6375262.5
          ],
          [
            571823.0846151058,
            6375287.5
          ],
          [
            571835.185891722,
            6375312.5
          ],
          [
            571837.5,
            6375316.995838242
          ],
          [
            571847.1940732636,
            6375337.5
          ],
          [
            571859.588374708,
            6375362.5
          ],
          [
            571862.5,
            6375368.665746662
          ],
          [
            571870.6621270613,
            6375387.5
          ],
          [
            571880.4736250833,
            6375412.5
          ],
          [
            571887.5,
            6375431.768958712
          ],
          [
            571889.6865792476,
            6375437.5
          ],
          [
            571899.7257814442,
            6375462.5
          ]
        ]
      }
    },
    {
      "type": "Feature",
      "properties": {
        "method": "transverse height maximum"
      },
      "geometry": {
        "type": "LineString",
        "coordinates": [
          [
            572464.0602272338,
            6375087.5
          ],
          [
            572462.5,
            6375091.214722091
          ],
          [
            572453.6691739347,
            6375112.5
          ],
          [
            572451.1253395828,
            6375137.500000001
          ],
          [
            572453.4081156257,
            6375162.5
          ],
          [
            572456.145111564,
            6375187.5
          ],
          [
            572457.8001791491,
            6375212.500000001
          ],
          [
            572458.377304076,
            6375237.5
          ],
          [
            572457.8961984199,
            6375262.500000001
          ],
          [
            572456.1235663295,
            6375287.5
          ],
          [
            572452.5830307202,
            6375312.5
          ],
          [
            572446.5337784766,
            6375337.5
          ],
          [
            572437.5,
            6375361.051712077
          ],
          [
            572436.9027108859,
            6375362.5
          ],
          [
            572423.1179680129,
            6375387.5
          ],
          [
            572412.5,
            6375403.169706545
          ],
          [
            572405.4028580757,
            6375412.5
          ],
          [
            572388.3440132098,
            6375437.5
          ],
          [
            572387.5,
            6375440.2428370975
          ],
          [
            572381.4534247087,
            6375462.499999999
          ],
          [
            572383.548786132,
            6375487.499999999
          ],
          [
            572387.5,
            6375510.690234941
          ],
          [
            572387.860128949,
            6375512.5
          ],
          [
            572392.8297573648,
            6375537.5
          ],
          [
            572397.5670364503,
            6375562.5
          ],
          [
            572401.942178318,
            6375587.5
          ],
          [
            572405.4211286952,
            6375612.5
          ],
          [
            572407.4540957565,
            6375637.499999999
          ],
          [
            572408.0386039453,
            6375662.5
          ],
          [
            572407.6295440318,
            6375687.5
          ],
          [
            572406.5590765759,
            6375712.5
          ],
          [
            572405.0139046677,
            6375737.499999999
          ],
          [
            572403.2169500387,
            6375762.5
          ],
          [
            572401.3783394577,
            6375787.5
          ],
          [
            572399.4927130473,
            6375812.5
          ],
          [
            572397.3583912151,
            6375837.5
          ],
          [
            572395.1221482847,
            6375862.5
          ],
          [
            572393.6167612781,
            6375887.5
          ],
          [
            572393.8503679066,
            6375912.5
          ]
        ]
      }
    },
    {
      "type": "Feature",
      "properties": {
        "method": "transverse height maximum"
      },
      "geometry": {
        "type": "LineString",
        "coordinates": [
          [
            572790.0659219129,
            6375287.5
          ],
          [
            572792.6965185407,
            6375312.5
          ],
          [
            572796.0294566579,
            6375337.5
          ],
          [
            572800.0159056392,
            6375362.5
          ],
          [
            572804.861039337,
            6375387.5
          ],
          [
            572811.0144048537,
            6375412.499999999
          ],
          [
            572812.5,
            6375417.37517508
          ],
          [
            572818.46262531,
            6375437.5
          ],
          [
            572826.7195233696,
            6375462.5
          ],
          [
            572835.217516068,
            6375487.5
          ],
          [
            572837.5,
            6375494.25059665
          ],
          [
            572843.2843256869,
            6375512.5
          ],
          [
            572850.7609658899,
            6375537.5
          ],
          [
            572857.8119225395,
            6375562.5
          ],
          [
            572862.5,
            6375579.721117678
          ],
          [
            572864.5937275076,
            6375587.5
          ],
          [
            572871.0583447517,
            6375612.5
          ],
          [
            572877.1522735753,
            6375637.5
          ],
          [
            572882.9435275109,
            6375662.499999999
          ],
          [
            572887.5,
            6375682.63632044
          ],
          [
            572888.6660493003,
            6375687.5
          ],
          [
            572894.8625141551,
            6375712.5
          ],
          [
            572902.0770272312,
            6375737.499999999
          ],
          [
            572910.1614488241,
            6375762.5
          ],
          [
            572912.5,
            6375770.168706881
          ],
          [
            572917.4226941471,
            6375787.5
          ],
          [
            572922.6967318625,
            6375812.5
          ],
          [
            572925.8447089683,
            6375837.5
          ],
          [
            572926.8974911734,
            6375862.5
          ],
          [
            572926.0092171673,
            6375887.500000001
          ],
          [
            572923.5077657744,
            6375912.5
          ],
          [
            572919.753952402,
            6375937.5
          ],
          [
            572914.7241763497,
            6375962.5
          ],
          [
            572912.5,
            6375970.797249362
          ],
          [
            572906.2882851542,
            6375987.5
          ],
          [
            572890.818978733,
            6376012.5
          ],
          [
            572887.5,
            6376016.807631
          ],
          [
            572862.5,
            6376018.374703053
          ],
          [
            572856.5473345144,
            6376012.5
          ],
          [
            572837.5,
            6376005.723840049
          ],
          [
            572815.4740832683,
            6375987.5
          ]
        ]
      }
    },
    {
      "type": "Feature",
      "properties": {
        "method": "transverse height maximum"
      },
      "geometry": {
        "type": "LineString",
        "coordinates": [
          [
            572787.5,
            6375996.289467451
          ],
          [
            572800.0175115786,
            6376012.5
          ],
          [
            572812.5,
            6376027.5939406585
          ],
          [
            572820.7821807449,
            6376037.5
          ],
          [
            572836.4790135416,
            6376062.5
          ],
          [
            572837.4999999999,
            6376064.418533475
          ],
          [
            572852.2435746039,
            6376087.5
          ],
          [
            572861.7274453563,
            6376112.5
          ],
          [
            572862.5,
            6376121.601570221
          ],
          [
            572863.4856311096,
            6376137.5
          ],
          [
            572862.5,
            6376141.576736143
          ],
          [
            572857.9692628242,
            6376162.5
          ],
          [
            572847.1541420933,
            6376187.5
          ],
          [
            572837.5,
            6376203.152683789
          ],
          [
            572830.9862927473,
            6376212.5
          ]
        ]
      }
    },
    {
      "type": "Feature",
      "properties": {
        "method": "transverse height maximum"
      },
      "geometry": {
        "type": "LineString",
        "coordinates": [
          [
            570312.5,
            6376229.390067571
          ],
          [
            570305.4142623261,
            6376237.5
          ],
          [
            570287.9543395912,
            6376262.5
          ],
          [
            570287.5,
            6376263.250553186
          ],
          [
            570272.8867542072,
            6376287.5
          ],
          [
            570262.5295210766,
            6376312.5
          ],
          [
            570262.5,
            6376312.578170763
          ],
          [
            570251.9316588503,
            6376337.5
          ],
          [
            570243.408379848,
            6376362.5
          ],
          [
            570237.5,
            6376380.737365842
          ],
          [
            570234.7780895428,
            6376387.500000001
          ],
          [
            570225.4780232112,
            6376412.5
          ],
          [
            570217.767720391,
            6376437.5
          ],
          [
            570212.5,
            6376458.384113909
          ],
          [
            570211.1331153429,
            6376462.5
          ],
          [
            570204.804127691,
            6376487.5
          ],
          [
            570200.6792638738,
            6376512.5
          ],
          [
            570199.0282901407,
            6376537.5
          ],
          [
            570199.9732747906,
            6376562.5
          ],
          [
            570202.9483633279,
            6376587.5
          ],
          [
            570207.3524209191,
            6376612.500000001
          ],
          [
            570212.5,
            6376635.8353123935
          ],
          [
            570212.7385250994,
            6376637.5
          ],
          [
            570216.5724352774,
            6376662.5
          ],
          [
            570220.6161899266,
            6376687.5
          ],
          [
            570224.8840954695,
            6376712.5
          ],
          [
            570229.2287206135,
            6376737.5
          ]
        ]
      }
    },
    {
      "type": "Feature",
      "properties": {
        "method": "transverse height maximum"
      },
      "geometry": {
        "type": "LineString",
        "coordinates": [
          [
            572137.5,
            6376255.925102716
          ],
          [
            572141.0482737987,
            6376262.5
          ],
          [
            572152.9101434082,
            6376287.5
          ],
          [
            572162.5,
            6376308.82989254
          ],
          [
            572163.962552367,
            6376312.5
          ],
          [
            572173.0388765989,
            6376337.5
          ],
          [
            572181.1860714725,
            6376362.5
          ],
          [
            572187.5,
            6376385.292469375
          ],
          [
            572188.1280822852,
            6376387.5
          ],
          [
            572193.7269428861,
            6376412.5
          ],
          [
            572197.6849563591,
            6376437.5
          ],
          [
            572199.814596519,
            6376462.5
          ],
          [
            572200.0259417517,
            6376487.5
          ],
          [
            572198.2729228716,
            6376512.5
          ],
          [
            572194.3395831715,
            6376537.5
          ],
          [
            572187.8712123189,
            6376562.5
          ],
          [
            572187.5,
            6376563.735650516
          ],
          [
            572180.9832242598,
            6376587.499999999
          ],
          [
            572174.5580210227,
            6376612.5
          ],
          [
            572171.7592401358,
            6376637.5
          ],
          [
            572173.7641593672,
            6376662.5
          ],
          [
            572177.1684625035,
            6376687.5
          ],
          [
            572180.6202685235,
            6376712.5
          ],
          [
            572184.6859641983,
            6376737.5
          ],
          [
            572187.5,
            6376750.884633101
          ],
          [
            572190.0086900502,
            6376762.5
          ],
          [
            572196.5543796953,
            6376787.5
          ],
          [
            572203.385499583,
            6376812.5
          ],
          [
            572209.4458434139,
            6376837.499999999
          ]
        ]
      }
    },
    {
      "type": "Feature",
      "properties": {
        "method": "transverse height maximum"
      },
      "geometry": {
        "type": "LineString",
        "coordinates": [
          [
            572827.4941172228,
            6376287.5
          ],
          [
            572837.5,
            6376308.204320029
          ],
          [
            572839.3633190267,
            6376312.5
          ],
          [
            572845.7516777832,
            6376337.5
          ],
          [
            572848.782909986,
            6376362.5
          ],
          [
            572848.7797531469,
            6376387.5
          ],
          [
            572846.3245875742,
            6376412.5
          ],
          [
            572841.9145104033,
            6376437.5
          ],
          [
            572837.5,
            6376454.724895282
          ],
          [
            572835.2929293093,
            6376462.499999999
          ],
          [
            572826.1400551035,
            6376487.5
          ],
          [
            572815.0830593085,
            6376512.5
          ],
          [
            572812.5,
            6376517.410483617
          ],
          [
            572800.6627045376,
            6376537.5
          ],
          [
            572787.5,
            6376558.068766917
          ],
          [
            572784.0531153432,
            6376562.5
          ],
          [
            572766.2023654468,
            6376587.5
          ],
          [
            572762.5,
            6376597.081661312
          ],
          [
            572756.687187035,
            6376612.5
          ],
          [
            572756.1718790153,
            6376637.5
          ],
          [
            572756.9213237589,
            6376662.5
          ],
          [
            572757.1930502654,
            6376687.500000001
          ],
          [
            572756.5168826261,
            6376712.5
          ],
          [
            572754.655230859,
            6376737.500000001
          ],
          [
            572751.465001775,
            6376762.5
          ],
          [
            572746.9052474102,
            6376787.5
          ],
          [
            572741.098212651,
            6376812.5
          ],
          [
            572737.5,
            6376826.009767084
          ],
          [
            572734.4135849713,
            6376837.5
          ],
          [
            572727.1412288081,
            6376862.5
          ],
          [
            572718.5937386488,
            6376887.5
          ],
          [
            572712.5,
            6376902.170841193
          ],
          [
            572707.7212332714,
            6376912.5
          ],
          [
            572693.8637122177,
            6376937.5
          ],
          [
            572687.5,
            6376947.084692711
          ],
          [
            572675.3256202947,
            6376962.5
          ]
        ]
      }
    },
    {
      "type": "Feature",
      "properties": {
        "method": "transverse height maximum"
      },
      "geometry": {
        "type": "LineString",
        "coordinates": [
          [
            570237.5,
            6376774.869184718
          ],
          [
            570243.4060903746,
            6376787.5
          ],
          [
            570260.6003332462,
            6376812.5
          ],
          [
            570262.5,
            6376815.158695423
          ],
          [
            570275.415580212,
            6376837.5
          ],
          [
            570287.5,
            6376855.118626813
          ],
          [
            570291.8861424528,
            6376862.5
          ],
          [
            570307.6457032415,
            6376887.5
          ],
          [
            570312.5,
            6376895.120467028
          ],
          [
            570322.4399927806,
            6376912.5
          ],
          [
            570336.8462322699,
            6376937.5
          ],
          [
            570337.5,
            6376938.856829019
          ],
          [
            570349.1420221243,
            6376962.5
          ],
          [
            570362.5,
            6376984.570020236
          ],
          [
            570364.583169705,
            6376987.5
          ],
          [
            570384.0363324732,
            6377012.5
          ],
          [
            570387.5,
            6377016.543482513
          ]
        ]
      }
    },
    {
      "type": "Feature",
      "properties": {
        "method": "transverse height maximum"
      },
      "geometry": {
        "type": "LineString",
        "coordinates": [
          [
            575000.0,
            6377304.739031524
          ],
          [
            574996.4027096727,
            6377312.5
          ],
          [
            574987.5,
            6377331.142846365
          ]
        ]
      }
    },
    {
      "type": "Feature",
      "properties": {
        "method": "transverse height maximum"
      },
      "geometry": {
        "type": "LineString",
        "coordinates": [
          [
            574387.5,
            6376862.736688562
          ],
          [
            574412.5,
            6376880.042482031
          ],
          [
            574414.6786034262,
            6376887.5
          ],
          [
            574422.4301456001,
            6376912.5
          ],
          [
            574430.2157046066,
            6376937.5
          ],
          [
            574437.5,
            6376959.984187804
          ],
          [
            574438.236165246,
            6376962.5
          ],
          [
            574445.5126730497,
            6376987.5
          ],
          [
            574452.1913492735,
            6377012.5
          ],
          [
            574457.7612267706,
            6377037.5
          ],
          [
            574461.3092072603,
            6377062.5
          ],
          [
            574462.2251121086,
            6377087.5
          ],
          [
            574461.1423081768,
            6377112.5
          ],
          [
            574459.284890532,
            6377137.5
          ],
          [
            574457.6061587019,
            6377162.499999999
          ],
          [
            574456.6860850266,
            6377187.499999999
          ],
          [
            574456.864042431,
            6377212.5
          ],
          [
            574458.3464103467,
            6377237.5
          ],
          [
            574461.2744715337,
            6377262.5
          ],
          [
            574462.5,
            6377269.656961581
          ],
          [
            574465.7092666547,
            6377287.5
          ],
          [
            574471.768736321,
            6377312.5
          ],
          [
            574480.0273011819,
            6377337.5
          ],
          [
            574487.5,
            6377354.236945301
          ],
          [
            574491.8192778841,
            6377362.5
          ],
          [
            574508.899476789,
            6377387.5
          ]
        ]
      }
    },
    {
      "type": "Feature",
      "properties": {
        "method": "transverse height maximum"
      },
      "geometry": {
        "type": "LineString",
        "coordinates": [
          [
            574049.8270266996,
            6376937.5
          ],
          [
            574044.0876431972,
            6376962.5
          ],
          [
            574037.5,
            6376986.5277788965
          ],
          [
            574037.2527429131,
            6376987.500000001
          ],
          [
            574029.4821927854,
            6377012.5
          ],
          [
            574021.722582261,
            6377037.5
          ],
          [
            574014.1529764822,
            6377062.5
          ],
          [
            574012.5,
            6377068.022554361
          ],
          [
            574006.3174121603,
            6377087.5
          ],
          [
            573999.0986330553,
            6377112.5
          ],
          [
            573992.4891011326,
            6377137.5
          ],
          [
            573987.5,
            6377157.66194145
          ],
          [
            573986.1268587095,
            6377162.5
          ],
          [
            573979.7048517443,
            6377187.5
          ],
          [
            573974.0714015934,
            6377212.5
          ],
          [
            573969.1002500445,
            6377237.5
          ],
          [
            573964.6722400428,
            6377262.5
          ],
          [
            573962.5,
            6377276.003786456
          ],
          [
            573960.419980772,
            6377287.499999999
          ],
          [
            573956.4409705886,
            6377312.5
          ],
          [
            573952.9740879071,
            6377337.5
          ],
          [
            573949.8297582441,
            6377362.5
          ],
          [
            573946.7634316741,
            6377387.5
          ],
          [
            573943.5098435475,
            6377412.5
          ],
          [
            573939.8760200969,
            6377437.5
          ],
          [
            573937.5,
            6377452.121540734
          ],
          [
            573935.5802683063,
            6377462.5
          ],
          [
            573930.8520843771,
            6377487.5
          ],
          [
            573926.385898131,
            6377512.5
          ],
          [
            573922.44947229,
            6377537.5
          ],
          [
            573919.285409376,
            6377562.5
          ],
          [
            573917.2462372532,
            6377587.5
          ],
          [
            573917.6274289918,
            6377612.5
          ],
          [
            573923.8904148587,
            6377637.5
          ],
          [
            573937.1273219803,
            6377662.5
          ],
          [
            573937.5,
            6377663.071924351
          ],
          [
            573951.7150464782,
            6377687.5
          ],
          [
            573962.5,
            6377704.318685101
          ],
          [
            573967.4870391625,
            6377712.5
          ],
          [
            573985.5489320777,
            6377737.5
          ]
        ]
      }
    },
    {
      "type": "Feature",
      "properties": {
        "method": "transverse height maximum"
      },
      "geometry": {
        "type": "LineString",
        "coordinates": [
          [
            572581.7194305522,
            6377062.5
          ],
          [
            572571.448908327,
            6377087.5
          ],
          [
            572562.5,
            6377111.573444486
          ],
          [
            572562.1139113024,
            6377112.5
          ],
          [
            572548.0610773405,
            6377137.5
          ],
          [
            572537.5,
            6377152.77746448
          ],
          [
            572530.6081712658,
            6377162.5
          ],
          [
            572512.5,
            6377185.342527439
          ],
          [
            572510.8809564324,
            6377187.499999999
          ],
          [
            572489.5505195673,
            6377212.5
          ],
          [
            572487.5,
            6377214.672959316
          ],
          [
            572469.0422504556,
            6377237.5
          ],
          [
            572462.5,
            6377244.54225747
          ],
          [
            572446.6078335663,
            6377262.5
          ],
          [
            572437.5,
            6377270.968044514
          ]
        ]
      }
    },
    {
      "type": "Feature",
      "properties": {
        "method": "transverse height maximum"
      },
      "geometry": {
        "type": "LineString",
        "coordinates": [
          [
            570937.5,
            6377506.453649317
          ],
          [
            570940.4175423847,
            6377512.5
          ],
          [
            570948.44056898,
            6377537.5
          ],
          [
            570958.3577702596,
            6377562.500000001
          ],
          [
            570962.5,
            6377569.328176343
          ],
          [
            570972.2092333575,
            6377587.5
          ],
          [
            570987.5,
            6377610.411471457
          ],
          [
            570988.6294499775,
            6377612.5
          ],
          [
            571002.4143275825,
            6377637.5
          ],
          [
            571012.5,
            6377655.317296757
          ],
          [
            571016.0336410862,
            6377662.5
          ],
          [
            571028.9028962038,
            6377687.499999999
          ],
          [
            571037.5,
            6377702.364635957
          ],
          [
            571042.9828659389,
            6377712.5
          ],
          [
            571058.4475421382,
            6377737.5
          ],
          [
            571062.5,
            6377743.275927649
          ],
          [
            571076.5361823579,
            6377762.5
          ],
          [
            571087.5,
            6377775.9731767895
          ],
          [
            571098.1602365496,
            6377787.5
          ],
          [
            571112.5,
            6377802.016388422
          ]
        ]
      }
    },
    {
      "type": "Feature",
      "properties": {
        "method": "transverse height maximum"
      },
      "geometry": {
        "type": "LineString",
        "coordinates": [
          [
            574962.5,
            6377514.176730088
          ],
          [
            574956.6825493869,
            6377537.5
          ],
          [
            574951.2460129956,
            6377562.5
          ],
          [
            574945.5813871396,
            6377587.5
          ],
          [
            574939.4771458397,
            6377612.5
          ],
          [
            574937.5,
            6377620.143360901
          ],
          [
            574933.6437934552,
            6377637.5
          ],
          [
            574928.0459194188,
            6377662.5
          ],
          [
            574922.9548813307,
            6377687.5
          ],
          [
            574922.2623971435,
            6377712.5
          ],
          [
            574937.5,
            6377736.1880332865
          ],
          [
            574938.3422572578,
            6377737.5
          ],
          [
            574958.1353331076,
            6377762.5
          ],
          [
            574962.5,
            6377768.353767882
          ],
          [
            574976.993784236,
            6377787.5
          ],
          [
            574987.5,
            6377805.281526758
          ],
          [
            574992.0813979335,
            6377812.5
          ],
          [
            574999.2517081543,
            6377837.5
          ],
          [
            575000.0,
            6377851.505822303
          ]
        ]
      }
    },
    {
      "type": "Feature",
      "properties": {
        "method": "transverse height maximum"
      },
      "geometry": {
        "type": "LineString",
        "coordinates": [
          [
            575000.0,
            6377894.928531449
          ],
          [
            574999.4618890134,
            6377912.5
          ],
          [
            574998.912506966,
            6377937.5
          ],
          [
            574999.0819763652,
            6377962.5
          ],
          [
            575000.0,
            6377976.611872349
          ]
        ]
      }
    },
    {
      "type": "Feature",
      "properties": {
        "method": "transverse height maximum"
      },
      "geometry": {
        "type": "LineString",
        "coordinates": [
          [
            574092.5976825072,
            6377837.5
          ],
          [
            574111.8234290176,
            6377862.5
          ],
          [
            574112.5,
            6377863.786484718
          ],
          [
            574123.6125452059,
            6377887.5
          ],
          [
            574127.4785060703,
            6377912.500000001
          ],
          [
            574125.4636318476,
            6377937.5
          ],
          [
            574120.0365696246,
            6377962.5
          ],
          [
            574112.5,
            6377987.103448331
          ],
          [
            574112.3698224028,
            6377987.5
          ],
          [
            574102.4114220253,
            6378012.5
          ],
          [
            574091.3928743353,
            6378037.5
          ],
          [
            574087.5,
            6378045.880389078
          ]
        ]
      }
    },
    {
      "type": "Feature",
      "properties": {
        "method": "transverse height maximum"
      },
      "geometry": {
        "type": "LineString",
        "coordinates": [
          [
            570462.5,
            6378175.42693376
          ],
          [
            570464.2840390966,
            6378187.5
          ],
          [
            570469.5517116479,
            6378212.5
          ],
          [
            570475.3194426071,
            6378237.5
          ],
          [
            570481.2241917879,
            6378262.500000001
          ],
          [
            570487.2365242834,
            6378287.5
          ],
          [
            570487.5,
            6378288.461355237
          ],
          [
            570495.7672000404,
            6378312.5
          ],
          [
            570503.3941093093,
            6378337.5
          ],
          [
            570510.1052407046,
            6378362.5
          ],
          [
            570512.5,
            6378372.096924355
          ],
          [
            570517.4102922111,
            6378387.5
          ],
          [
            570524.3068976983,
            6378412.5
          ],
          [
            570531.50691315,
            6378437.5
          ],
          [
            570537.5,
            6378453.450095072
          ],
          [
            570541.3619993583,
            6378462.5
          ],
          [
            570554.7804249652,
            6378487.5
          ],
          [
            570562.5,
            6378499.223959061
          ]
        ]
      }
    },
    {
      "type": "Feature",
      "properties": {
        "method": "transverse height maximum"
      },
      "geometry": {
        "type": "LineString",
        "coordinates": [
          [
            573118.7616002132,
            6378987.5
          ],
          [
            573131.7156850183,
            6379012.5
          ],
          [
            573137.5,
            6379024.512987074
          ],
          [
            573142.1771357844,
            6379037.5
          ],
          [
            573151.8139322515,
            6379062.5
          ],
          [
            573162.0085631969,
            6379087.500000001
          ],
          [
            573162.4999999999,
            6379088.716231627
          ],
          [
            573171.7706974315,
            6379112.5
          ],
          [
            573181.8950902568,
            6379137.5
          ],
          [
            573187.5,
            6379151.584526204
          ],
          [
            573192.3188893046,
            6379162.5
          ],
          [
            573202.6144930257,
            6379187.5
          ],
          [
            573212.5,
            6379210.483103818
          ],
          [
            573213.4263009356,
            6379212.5
          ],
          [
            573224.6385218173,
            6379237.5
          ],
          [
            573237.337912713,
            6379262.5
          ],
          [
            573237.5,
            6379262.805888083
          ],
          [
            573250.666213799,
            6379287.5
          ],
          [
            573262.5,
            6379309.165293506
          ],
          [
            573265.0245295771,
            6379312.5
          ],
          [
            573263.8930229164,
            6379337.5
          ],
          [
            573262.5,
            6379340.022366796
          ],
          [
            573253.0118361008,
            6379362.500000001
          ],
          [
            573239.902251696,
            6379387.5
          ],
          [
            573237.5,
            6379391.768584585
          ],
          [
            573226.4007194377,
            6379412.5
          ],
          [
            573214.8267933865,
            6379437.5
          ],
          [
            573212.5,
            6379444.13882118
          ],
          [
            573205.7855145691,
            6379462.499999999
          ],
          [
            573200.8555687652,
            6379487.5
          ],
          [
            573201.1355216119,
            6379512.5
          ],
          [
            573205.8625753331,
            6379537.5
          ],
          [
            573212.5,
            6379560.546610525
          ],
          [
            573212.9936768261,
            6379562.5
          ],
          [
            573220.5657109322,
            6379587.5
          ],
          [
            573228.7206963779,
            6379612.5
          ],
          [
            573237.274643773,
            6379637.5
          ],
          [
            573237.5,
            6379638.197220727
          ],
          [
            573245.5911913904,
            6379662.5
          ],
          [
            573253.6317349639,
            6379687.5
          ],
          [
            573261.4050322386,
            6379712.5
          ],
          [
            573262.5,
            6379716.374975066
          ],
          [
            573269.5987553777,
            6379737.5
          ],
          [
            573276.9597430702,
            6379762.5
          ],
          [
            573276.799423714,
            6379787.5
          ],
          [
            573272.856379464,
            6379812.5
          ],
          [
            573272.0178316718,
            6379837.5
          ],
          [
            573274.621718042,
            6379862.5
          ],
          [
            573279.8200062974,
            6379887.500000001
          ],
          [
            573287.5,
            6379912.477208038
          ],
          [
            573287.5057538014,
            6379912.5
          ],
          [
            573295.6468207313,
            6379937.5
          ],
          [
            573304.5504384385,
            6379962.5
          ],
          [
            573312.5,
            6379984.851357476
          ],
          [
            573313.4504314438,
            6379987.5
          ],
          [
            573317.3887527976,
            6380000.0
          ]
        ]
      }
    },
    {
      "type": "Feature",
      "properties": {
        "method": "transverse height maximum"
      },
      "geometry": {
        "type": "LineString",
        "coordinates": [
          [
            573662.5,
            6378998.622720808
          ],
          [
            573651.55912948,
            6379012.5
          ],
          [
            573637.5,
            6379027.5054395925
          ],
          [
            573629.6794465435,
            6379037.5
          ],
          [
            573612.5,
            6379058.340809229
          ],
          [
            573609.2706552779,
            6379062.499999999
          ],
          [
            573590.133192613,
            6379087.5
          ],
          [
            573587.5,
            6379091.087164974
          ],
          [
            573571.9475205456,
            6379112.5
          ],
          [
            573562.5,
            6379126.539349396
          ],
          [
            573554.8096825738,
            6379137.5
          ],
          [
            573538.1534482567,
            6379162.5
          ],
          [
            573537.5,
            6379163.506980271
          ]
        ]
      }
    },
    {
      "type": "Feature",
      "properties": {
        "method": "transverse height maximum"
      },
      "geometry": {
        "type": "LineString",
        "coordinates": [
          [
            572362.0802091508,
            6379237.5
          ],
          [
            572362.5,
            6379238.163966582
          ],
          [
            572377.5580071993,
            6379262.5
          ],
          [
            572387.5,
            6379278.366570919
          ],
          [
            572393.4625815243,
            6379287.5
          ],
          [
            572410.2536460708,
            6379312.499999999
          ],
          [
            572412.5,
            6379315.65626603
          ],
          [
            572428.4467434757,
            6379337.5
          ],
          [
            572437.5,
            6379349.153786446
          ],
          [
            572447.5570994254,
            6379362.5
          ],
          [
            572462.5,
            6379380.420852351
          ],
          [
            572468.2293788071,
            6379387.5
          ],
          [
            572487.5,
            6379408.8197509395
          ],
          [
            572490.7973575396,
            6379412.5
          ],
          [
            572512.5,
            6379435.802564657
          ],
          [
            572514.0561427483,
            6379437.5
          ],
          [
            572536.517986806,
            6379462.500000001
          ],
          [
            572537.5,
            6379463.658244476
          ]
        ]
      }
    },
    {
      "type": "Feature",
      "properties": {
        "method": "transverse height maximum"
      },
      "geometry": {
        "type": "LineString",
        "coordinates": [
          [
            574287.5,
            6379442.431415212
          ],
          [
            574299.2797216015,
            6379462.5
          ],
          [
            574312.5,
            6379485.129915677
          ],
          [
            574313.7759594123,
            6379487.5
          ],
          [
            574326.6680355549,
            6379512.5
          ],
          [
            574337.5,
            6379533.5384448385
          ],
          [
            574339.530404085,
            6379537.5
          ],
          [
            574351.6875441219,
            6379562.5
          ],
          [
            574362.5,
            6379584.366582406
          ],
          [
            574364.1109299124,
            6379587.5
          ],
          [
            574376.8171555728,
            6379612.5
          ],
          [
            574387.5,
            6379631.279493309
          ],
          [
            574391.1742002061,
            6379637.5
          ],
          [
            574408.3466115558,
            6379662.5
          ],
          [
            574412.5,
            6379667.470613548
          ],
          [
            574431.4494904354,
            6379687.5
          ]
        ]
      }
    },
    {
      "type": "Feature",
      "properties": {
        "method": "transverse height maximum"
      },
      "geometry": {
        "type": "LineString",
        "coordinates": [
          [
            574962.5,
            6379519.453332387
          ],
          [
            574978.5593047491,
            6379537.499999999
          ],
          [
            574987.5,
            6379549.913027451
          ],
          [
            574995.4877313544,
            6379562.5
          ],
          [
            575000.0,
            6379573.600445285
          ]
        ]
      }
    },
    {
      "type": "Feature",
      "properties": {
        "method": "transverse height maximum"
      },
      "geometry": {
        "type": "LineString",
        "coordinates": [
          [
            570104.0352914354,
            6379762.5
          ],
          [
            570112.5,
            6379787.055172283
          ],
          [
            570112.6430063774,
            6379787.5
          ],
          [
            570120.9460719055,
            6379812.5
          ],
          [
            570127.5721830713,
            6379837.5
          ],
          [
            570133.3501757856,
            6379862.500000001
          ],
          [
            570137.5,
            6379881.576785159
          ],
          [
            570138.7476236086,
            6379887.5
          ],
          [
            570143.5752133274,
            6379912.5
          ],
          [
            570147.9904054527,
            6379937.5
          ],
          [
            570152.3026800819,
            6379962.5
          ],
          [
            570156.5353901039,
            6379987.5
          ],
          [
            570158.5227762302,
            6380000.0
          ]
        ]
      }
    },
    {
      "type": "Feature",
      "properties": {
        "method": "transverse height maximum"
      },
      "geometry": {
        "type": "LineString",
        "coordinates": [
          [
            570787.5,
            6375053.513450738
          ],
          [
            570762.5,
            6375053.646980274
          ],
          [
            570737.5000000001,
            6375054.200735777
          ],
          [
            570712.5,
            6375057.1932483
          ],
          [
            570693.4110009101,
            6375062.5
          ],
          [
            570687.5,
            6375064.1161782965
          ],
          [
            570662.5,
            6375073.495982984
          ],
          [
            570637.5,
            6375084.116446794
          ],
          [
            570629.5486583539,
            6375087.5
          ],
          [
            570612.5,
            6375095.339978363
          ],
          [
            570587.5,
            6375105.118061796
          ],
          [
            570562.5,
            6375110.489821567
          ],
          [
            570537.5,
            6375111.532863394
          ],
          [
            570512.5,
            6375109.887307012
          ],
          [
            570487.5,
            6375104.025901325
          ]
        ]
      }
    },
    {
      "type": "Feature",
      "properties": {
        "method": "transverse height maximum"
      },
      "geometry": {
        "type": "LineString",
        "coordinates": [
          [
            570412.5,
            6375145.586627179
          ],
          [
            570387.5,
            6375159.228223913
          ],
          [
            570381.4454577963,
            6375162.5
          ],
          [
            570362.5,
            6375170.887971358
          ],
          [
            570337.5,
            6375181.828558364
          ],
          [
            570324.6544068927,
            6375187.5
          ],
          [
            570312.5,
            6375191.855859526
          ],
          [
            570287.5,
            6375199.922036436
          ],
          [
            570262.5,
            6375206.737876313
          ],
          [
            570237.5,
            6375212.168978409
          ],
          [
            570235.6702710718,
            6375212.5
          ],
          [
            570212.5,
            6375216.130185806
          ],
          [
            570187.5,
            6375220.117062077
          ],
          [
            570162.5,
            6375225.1560157295
          ],
          [
            570137.5,
            6375232.583200246
          ],
          [
            570126.2363052963,
            6375237.5
          ],
          [
            570112.5,
            6375243.650640319
          ],
          [
            570087.5,
            6375259.084971441
          ],
          [
            570082.8055456086,
            6375262.5
          ],
          [
            570062.5,
            6375277.903808457
          ],
          [
            570050.5499819954,
            6375287.5
          ],
          [
            570037.5,
            6375298.134411039
          ],
          [
            570019.7266110538,
            6375312.5
          ],
          [
            570012.5,
            6375318.396802454
          ],
          [
            570000.0,
            6375328.376004782
          ]
        ]
      }
    },
    {
      "type": "Feature",
      "properties": {
        "method": "transverse height maximum"
      },
      "geometry": {
        "type": "LineString",
        "coordinates": [
          [
            571462.5,
            6375369.283769105
          ],
          [
            571437.5,
            6375364.9550827
          ],
          [
            571420.9610074181,
            6375362.500000001
          ],
          [
            571412.5,
            6375361.41254354
          ],
          [
            571387.5,
            6375357.557920394
          ],
          [
            571362.5,
            6375353.427652794
          ],
          [
            571337.5,
            6375350.7808783855
          ],
          [
            571312.5,
            6375351.588970281
          ],
          [
            571287.5,
            6375355.234506723
          ],
          [
            571262.5,
            6375359.957540547
          ],
          [
            571249.8459069635,
            6375362.5
          ],
          [
            571237.5,
            6375365.23983859
          ],
          [
            571212.5,
            6375370.570993326
          ],
          [
            571187.5,
            6375374.889046616
          ],
          [
            571162.5,
            6375377.873349378
          ],
          [
            571137.5,
            6375379.274223366
          ],
          [
            571112.5,
            6375378.060906082
          ],
          [
            571087.5,
            6375372.395287127
          ],
          [
            571062.5,
            6375362.696022692
          ],
          [
            571062.1052781565,
            6375362.5
          ],
          [
            571037.5,
            6375351.51522258
          ],
          [
            571012.5,
            6375341.197107228
          ],
          [
            571001.9444373008,
            6375337.5
          ],
          [
            570987.5,
            6375332.343146892
          ],
          [
            570962.5,
            6375325.218619205
          ],
          [
            570937.5,
            6375318.93165404
          ],
          [
            570912.5281383019,
            6375312.499999999
          ],
          [
            570912.5,
            6375312.491973479
          ],
          [
            570887.5,
            6375304.55764869
          ],
          [
            570862.5,
            6375296.687932191
          ],
          [
            570837.5,
            6375288.855295058
          ],
          [
            570833.3389273998,
            6375287.5
          ],
          [
            570812.5,
            6375279.165221219
          ],
          [
            570787.5,
            6375269.821305219
          ],
          [
            570767.4202349557,
            6375262.500000001
          ],
          [
            570762.5,
            6375259.812199036
          ],
          [
            570737.5,
            6375247.236501221
          ]
        ]
      }
    },
    {
      "type": "Feature",
      "properties": {
        "method": "transverse height maximum"
      },
      "geometry": {
        "type": "LineString",
        "coordinates": [
          [
            571816.8213727175,
            6375887.5
          ],
          [
            571812.5,
            6375883.285321628
          ],
          [
            571787.5,
            6375864.553788451
          ],
          [
            571784.1404937597,
            6375862.5
          ],
          [
            571762.5,
            6375852.3822659645
          ],
          [
            571737.5,
            6375840.094294617
          ],
          [
            571732.8811448995,
            6375837.5
          ],
          [
            571712.5,
            6375827.854775816
          ],
          [
            571687.5,
            6375814.28230792
          ],
          [
            571684.3316272601,
            6375812.5
          ],
          [
            571662.5,
            6375801.115847785
          ],
          [
            571637.7518551884,
            6375787.5
          ],
          [
            571637.4999999999,
            6375787.359676995
          ],
          [
            571612.5,
            6375773.469339385
          ],
          [
            571594.5279716635,
            6375762.5
          ],
          [
            571587.5,
            6375757.542562256
          ],
          [
            571562.5,
            6375738.569118018
          ],
          [
            571560.785998909,
            6375737.5
          ],
          [
            571537.5,
            6375725.026355449
          ],
          [
            571512.5,
            6375723.077195468
          ],
          [
            571487.5,
            6375722.148983393
          ],
          [
            571462.5,
            6375720.919066122
          ],
          [
            571437.5,
            6375719.189054121
          ],
          [
            571412.5,
            6375716.306418828
          ],
          [
            571393.5954209835,
            6375712.5
          ],
          [
            571387.5,
            6375711.271942852
          ],
          [
            571362.5,
            6375703.883993984
          ],
          [
            571337.5,
            6375694.412993952
          ],
          [
            571321.8159810122,
            6375687.5
          ],
          [
            571312.5,
            6375683.0402225945
          ],
          [
            571287.5,
            6375670.765070758
          ]
        ]
      }
    },
    {
      "type": "Feature",
      "properties": {
        "method": "transverse height maximum"
      },
      "geometry": {
        "type": "LineString",
        "coordinates": [
          [
            572112.5,
            6376220.45594101
          ],
          [
            572104.954532935,
            6376212.5
          ],
          [
            572087.5,
            6376197.086565311
          ],
          [
            572074.497159692,
            6376187.5
          ],
          [
            572062.5,
            6376178.977442318
          ],
          [
            572037.5,
            6376162.701296634
          ],
          [
            572037.1451092158,
            6376162.5
          ],
          [
            572012.5,
            6376146.124300606
          ],
          [
            571997.113089368,
            6376137.5
          ],
          [
            571987.5,
            6376131.278513955
          ],
          [
            571962.5,
            6376117.352447211
          ],
          [
            571955.1499195746,
            6376112.5
          ],
          [
            571937.5,
            6376098.961712896
          ]
        ]
      }
    },
    {
      "type": "Feature",
      "properties": {
        "method": "transverse height maximum"
      },
      "geometry": {
        "type": "LineString",
        "coordinates": [
          [
            571137.8713380664,
            6376512.5
          ],
          [
            571137.5,
            6376512.677642485
          ],
          [
            571112.5,
            6376532.470837627
          ],
          [
            571103.1870833255,
            6376537.5
          ],
          [
            571087.5,
            6376543.483994936
          ],
          [
            571062.5,
            6376549.345720772
          ],
          [
            571037.5,
            6376550.393396847
          ],
          [
            571012.5,
            6376545.9538961155
          ],
          [
            570987.5,
            6376538.375007518
          ],
          [
            570984.4558677549,
            6376537.5
          ],
          [
            570962.5,
            6376529.079244337
          ],
          [
            570937.5,
            6376521.296699865
          ],
          [
            570912.5,
            6376514.570081598
          ],
          [
            570904.4566693199,
            6376512.5
          ],
          [
            570887.5,
            6376506.318449657
          ],
          [
            570862.5,
            6376497.288235347
          ],
          [
            570837.5,
            6376488.110014902
          ],
          [
            570835.9330827859,
            6376487.5
          ],
          [
            570812.5,
            6376476.68282222
          ],
          [
            570787.5,
            6376463.49550082
          ]
        ]
      }
    },
    {
      "type": "Feature",
      "properties": {
        "method": "transverse height maximum"
      },
      "geometry": {
        "type": "LineString",
        "coordinates": [
          [
            574812.5,
            6377438.051148342
          ],
          [
            574787.5,
            6377441.480123082
          ],
          [
            574762.5,
            6377443.202593271
          ],
          [
            574737.5,
            6377444.271858828
          ],
          [
            574712.5,
            6377444.880887255
          ],
          [
            574687.5,
            6377444.97008747
          ],
          [
            574662.5,
            6377444.3721322715
          ],
          [
            574637.5,
            6377442.820953557
          ],
          [
            574612.5,
            6377439.92431216
          ],
          [
            574599.5187609172,
            6377437.5
          ],
          [
            574587.5,
            6377434.926929029
          ],
          [
            574562.5,
            6377427.053474677
          ],
          [
            574537.5,
            6377414.0497909365
          ],
          [
            574535.4066558402,
            6377412.5
          ]
        ]
      }
    },
    {
      "type": "Feature",
      "properties": {
        "method": "transverse height maximum"
      },
      "geometry": {
        "type": "LineString",
        "coordinates": [
          [
            573845.3410659118,
            6377637.5
          ],
          [
            573837.5,
            6377642.605373508
          ],
          [
            573812.5,
            6377650.001759532
          ],
          [
            573787.5,
            6377658.141550546
          ],
          [
            573776.5532404154,
            6377662.5
          ],
          [
            573762.5,
            6377667.87571159
          ],
          [
            573737.5,
            6377679.051871742
          ],
          [
            573721.0356508539,
            6377687.5
          ],
          [
            573712.5,
            6377691.975965669
          ],
          [
            573687.5,
            6377706.096138804
          ],
          [
            573676.5671126324,
            6377712.5
          ],
          [
            573662.5,
            6377722.249629913
          ],
          [
            573639.6950010391,
            6377737.5
          ],
          [
            573637.5,
            6377740.904213176
          ],
          [
            573619.3336871243,
            6377762.5
          ]
        ]
      }
    },
    {
      "type": "Feature",
      "properties": {
        "method": "transverse height maximum"
      },
      "geometry": {
        "type": "LineString",
        "coordinates": [
          [
            574862.5,
            6377727.92071857
          ],
          [
            574837.5,
            6377732.758946606
          ],
          [
            574813.9964328255,
            6377737.5
          ],
          [
            574812.5,
            6377737.789279117
          ],
          [
            574787.5,
            6377743.3244094895
          ],
          [
            574762.5,
            6377749.553881339
          ],
          [
            574737.5,
            6377756.898064131
          ],
          [
            574721.8013761354,
            6377762.5
          ],
          [
            574712.5,
            6377766.1292794645
          ],
          [
            574687.5,
            6377777.685714649
          ],
          [
            574669.5958622543,
            6377787.5
          ],
          [
            574662.5,
            6377792.205164735
          ],
          [
            574637.5,
            6377809.641277428
          ],
          [
            574633.1078879348,
            6377812.499999999
          ],
          [
            574612.5,
            6377828.735070622
          ],
          [
            574593.7348149121,
            6377837.5
          ]
        ]
      }
    },
    {
      "type": "Feature",
      "properties": {
        "method": "transverse height maximum"
      },
      "geometry": {
        "type": "LineString",
        "coordinates": [
          [
            574062.5,
            6378079.024322504
          ],
          [
            574050.7550366718,
            6378087.5
          ],
          [
            574037.5,
            6378094.617930271
          ],
          [
            574012.5,
            6378107.415179915
          ],
          [
            574002.8975411573,
            6378112.499999999
          ],
          [
            573987.5,
            6378119.926713339
          ],
          [
            573962.5,
            6378132.000981651
          ],
          [
            573950.8710678038,
            6378137.499999999
          ],
          [
            573937.5,
            6378143.526596827
          ],
          [
            573912.5,
            6378153.957357119
          ],
          [
            573890.5777201098,
            6378162.5
          ],
          [
            573887.5,
            6378163.753659566
          ],
          [
            573862.5,
            6378173.409572621
          ],
          [
            573837.5,
            6378183.7478639195
          ],
          [
            573829.9848196248,
            6378187.500000001
          ],
          [
            573812.5,
            6378197.6962612895
          ],
          [
            573794.0399775339,
            6378212.5
          ],
          [
            573787.5,
            6378217.5986615885
          ],
          [
            573763.5250727254,
            6378237.5
          ],
          [
            573762.5,
            6378238.270994218
          ],
          [
            573737.5,
            6378255.99522585
          ],
          [
            573727.474332455,
            6378262.5
          ],
          [
            573712.5,
            6378271.39435911
          ],
          [
            573687.5,
            6378284.927570671
          ],
          [
            573682.4971979423,
            6378287.5
          ],
          [
            573662.5,
            6378297.505102472
          ],
          [
            573637.5,
            6378309.5574337
          ],
          [
            573631.0036487513,
            6378312.5
          ],
          [
            573612.5,
            6378322.407366665
          ],
          [
            573587.5,
            6378336.40162222
          ],
          [
            573584.9486911442,
            6378337.500000001
          ],
          [
            573568.0116067333,
            6378362.5
          ]
        ]
      }
    },
    {
      "type": "Feature",
      "properties": {
        "method": "transverse height maximum"
      },
      "geometry": {
        "type": "LineString",
        "coordinates": [
          [
            574512.5,
            6378489.71949543
          ],
          [
            574506.2268112871,
            6378487.5
          ],
          [
            574487.5,
            6378481.811486185
          ],
          [
            574462.5,
            6378477.591494793
          ],
          [
            574437.5,
            6378472.444600006
          ],
          [
            574412.5,
            6378465.06076713
          ],
          [
            574405.9610285899,
            6378462.5
          ],
          [
            574387.5,
            6378453.730013526
          ],
          [
            574362.5,
            6378439.916495325
          ],
          [
            574358.7627794121,
            6378437.5
          ],
          [
            574337.5,
            6378422.136983471
          ],
          [
            574326.4445847301,
            6378412.5
          ]
        ]
      }
    },
    {
      "type": "Feature",
      "properties": {
        "method": "transverse height maximum"
      },
      "geometry": {
        "type": "LineString",
        "coordinates": [
          [
            573987.5,
            6378618.611522365
          ],
          [
            573962.5,
            6378624.150505935
          ],
          [
            573937.5,
            6378623.391458119
          ],
          [
            573912.5,
            6378623.319131344
          ],
          [
            573887.5,
            6378624.309107007
          ],
          [
            573862.5,
            6378626.6908157
          ],
          [
            573837.5,
            6378630.822321933
          ],
          [
            573812.5,
            6378636.665467652
          ],
          [
            573809.264230514,
            6378637.5
          ],
          [
            573787.5,
            6378642.912299093
          ],
          [
            573762.5,
            6378648.140820713
          ],
          [
            573737.5,
            6378652.15107667
          ]
        ]
      }
    },
    {
      "type": "Feature",
      "properties": {
        "method": "transverse height maximum"
      },
      "geometry": {
        "type": "LineString",
        "coordinates": [
          [
            574912.5,
            6378679.230821172
          ],
          [
            574897.7770599388,
            6378687.5
          ],
          [
            574887.5,
            6378692.835259115
          ],
          [
            574862.5,
            6378702.706642494
          ],
          [
            574837.5,
            6378709.403850917
          ],
          [
            574812.4999999999,
            6378712.163807326
          ],
          [
            574787.5,
            6378710.377868913
          ],
          [
            574762.5,
            6378705.7150190715
          ],
          [
            574737.5,
            6378699.935849084
          ],
          [
            574712.5,
            6378693.474666309
          ],
          [
            574690.935353535,
            6378687.5
          ],
          [
            574687.5,
            6378686.560341413
          ],
          [
            574662.5,
            6378679.800861782
          ],
          [
            574637.5,
            6378673.706624808
          ]
        ]
      }
    },
    {
      "type": "Feature",
      "properties": {
        "method": "transverse height maximum"
      },
      "geometry": {
        "type": "LineString",
        "coordinates": [
          [
            574568.9871533395,
            6378712.5
          ],
          [
            574562.5,
            6378717.648280068
          ],
          [
            574538.055405177,
            6378737.5
          ],
          [
            574537.5,
            6378737.976610302
          ],
          [
            574512.5,
            6378756.834997494
          ],
          [
            574502.7340924143,
            6378762.5
          ],
          [
            574487.5,
            6378771.801423801
          ],
          [
            574462.5,
            6378781.143161528
          ],
          [
            574439.0668138204,
            6378787.5
          ],
          [
            574437.5,
            6378787.922283688
          ],
          [
            574412.5,
            6378794.695550914
          ],
          [
            574387.5000000001,
            6378802.586962355
          ],
          [
            574364.4429676686,
            6378812.5
          ],
          [
            574362.5,
            6378813.4809135925
          ],
          [
            574337.5,
            6378829.510821848
          ],
          [
            574327.6250792347,
            6378837.5
          ],
          [
            574312.5,
            6378851.303733367
          ],
          [
            574300.7804205265,
            6378862.5
          ],
          [
            574287.5,
            6378876.199867578
          ]
        ]
      }
    },
    {
      "type": "Feature",
      "properties": {
        "method": "transverse height maximum"
      },
      "geometry": {
        "type": "LineString",
        "coordinates": [
          [
            572587.5,
            6378762.076036478
          ],
          [
            572576.3173057117,
            6378762.5
          ],
          [
            572562.5,
            6378763.260354807
          ],
          [
            572537.5,
            6378768.291253419
          ],
          [
            572512.4999999999,
            6378775.853259954
          ],
          [
            572487.5,
            6378784.480945736
          ],
          [
            572478.4343199024,
            6378787.500000001
          ],
          [
            572462.5,
            6378793.695759345
          ],
          [
            572437.5,
            6378800.669154972
          ],
          [
            572412.5,
            6378804.76607173
          ],
          [
            572387.5,
            6378806.729995656
          ],
          [
            572362.5,
            6378807.552570087
          ],
          [
            572337.5,
            6378808.060455423
          ],
          [
            572312.5,
            6378808.610456386
          ],
          [
            572287.5,
            6378809.170232795
          ],
          [
            572262.5,
            6378809.535370634
          ],
          [
            572237.5,
            6378809.5580860255
          ],
          [
            572212.5,
            6378809.275315521
          ],
          [
            572187.5,
            6378808.883793555
          ],
          [
            572162.5,
            6378808.697270975
          ],
          [
            572137.5,
            6378809.109285069
          ],
          [
            572112.4999999999,
            6378810.497157349
          ],
          [
            572092.734353599,
            6378812.5
          ],
          [
            572087.5,
            6378813.666128419
          ],
          [
            572062.5,
            6378821.73199724
          ],
          [
            572037.5,
            6378834.122189408
          ],
          [
            572030.5585894826,
            6378837.5
          ]
        ]
      }
    },
    {
      "type": "Feature",
      "properties": {
        "method": "transverse height maximum"
      },
      "geometry": {
        "type": "LineString",
        "coordinates": [
          [
            573512.5,
            6379195.6683368655
          ],
          [
            573495.080407089,
            6379212.5
          ],
          [
            573487.5,
            6379218.824406542
          ],
          [
            573462.5,
            6379236.887341537
          ],
          [
            573461.5840861844,
            6379237.5
          ],
          [
            573437.5,
            6379252.933060856
          ],
          [
            573421.8102092113,
            6379262.5
          ],
          [
            573412.5,
            6379268.216301493
          ],
          [
            573387.5,
            6379282.034417645
          ],
          [
            573375.1547540907,
            6379287.5
          ],
          [
            573362.5,
            6379293.16470238
          ],
          [
            573337.5,
            6379300.536004877
          ]
        ]
      }
    },
    {
      "type": "Feature",
      "properties": {
        "method": "transverse height maximum"
      },
      "geometry": {
        "type": "LineString",
        "coordinates": [
          [
            574262.5,
            6379410.908976306
          ],
          [
            574237.5,
            6379397.595105099
          ],
          [
            574212.5,
            6379391.49729227
          ],
          [
            574188.5397131427,
            6379387.5
          ],
          [
            574187.5,
            6379387.328446314
          ],
          [
            574162.5,
            6379383.535753812
          ],
          [
            574137.5,
            6379378.299243442
          ],
          [
            574112.5,
            6379366.615259312
          ],
          [
            574107.5770378931,
            6379362.5
          ],
          [
            574087.5,
            6379348.936440295
          ],
          [
            574072.3714220206,
            6379337.5
          ],
          [
            574062.5,
            6379331.226369665
          ],
          [
            574037.5,
            6379315.006158547
          ],
          [
            574033.7647231295,
            6379312.5
          ],
          [
            574012.5,
            6379299.362744738
          ],
          [
            573995.1479381073,
            6379287.500000001
          ],
          [
            573987.5,
            6379282.176285617
          ],
          [
            573962.5,
            6379262.731490931
          ],
          [
            573962.2068432235,
            6379262.5
          ],
          [
            573937.5,
            6379239.974632971
          ],
          [
            573934.7975593387,
            6379237.5
          ],
          [
            573913.2096160335,
            6379212.5
          ]
        ]
      }
    },
    {
      "type": "Feature",
      "properties": {
        "method": "transverse height maximum"
      },
      "geometry": {
        "type": "LineString",
        "coordinates": [
          [
            574937.5,
            6379496.767012055
          ],
          [
            574925.4830956026,
            6379487.5
          ],
          [
            574912.5,
            6379478.781107476
          ],
          [
            574887.5,
            6379464.352464107
          ],
          [
            574883.8951705558,
            6379462.5
          ],
          [
            574862.5,
            6379452.35897635
          ],
          [
            574837.5,
            6379439.756112206
          ],
          [
            574833.4899252496,
            6379437.5
          ],
          [
            574812.5,
            6379426.285292786
          ],
          [
            574787.5,
            6379412.960601373
          ],
          [
            574786.4724968388,
            6379412.5
          ],
          [
            574762.5,
            6379402.725228675
          ],
          [
            574737.5,
            6379395.218247209
          ],
          [
            574712.5,
            6379389.434133465
          ],
          [
            574703.544414617,
            6379387.5
          ],
          [
            574687.5,
            6379383.8990796115
          ],
          [
            574662.5,
            6379377.772759291
          ],
          [
            574637.5,
            6379372.375628781
          ]
        ]
      }
    },
    {
      "type": "Feature",
      "properties": {
        "method": "transverse height maximum"
      },
      "geometry": {
        "type": "LineString",
        "coordinates": [
          [
            572937.5,
            6379539.292756963
          ],
          [
            572912.5,
            6379542.45055887
          ],
          [
            572887.5,
            6379546.371046887
          ],
          [
            572862.5,
            6379550.878415699
          ],
          [
            572837.5,
            6379555.535914925
          ],
          [
            572812.4999999999,
            6379559.518854283
          ],
          [
            572787.5,
            6379561.431325137
          ],
          [
            572762.5,
            6379559.997909951
          ],
          [
            572737.5,
            6379555.73721909
          ],
          [
            572712.5,
            6379550.099583736
          ],
          [
            572687.5,
            6379543.840635026
          ],
          [
            572663.3058286309,
            6379537.5
          ],
          [
            572662.5,
            6379537.295534536
          ],
          [
            572637.5,
            6379531.171780415
          ],
          [
            572612.5,
            6379524.97178544
          ],
          [
            572587.5,
            6379516.995183023
          ],
          [
            572581.2177222498,
            6379512.5
          ],
          [
            572562.5,
            6379494.713527902
          ]
        ]
      }
    },
    {
      "type": "Feature",
      "properties": {
        "method": "transverse height maximum"
      },
      "geometry": {
        "type": "LineString",
        "coordinates": [
          [
            573612.5,
            6379633.150594507
          ],
          [
            573607.9564614499,
            6379637.5
          ],
          [
            573587.5,
            6379655.694869006
          ],
          [
            573578.7428591613,
            6379662.5
          ],
          [
            573562.5,
            6379674.255802896
          ],
          [
            573539.8730371718,
            6379687.5
          ],
          [
            573537.5,
            6379688.762608655
          ],
          [
            573512.5,
            6379700.257621032
          ],
          [
            573487.5,
            6379710.130946905
          ],
          [
            573481.2161003867,
            6379712.5
          ],
          [
            573462.5,
            6379719.383730364
          ],
          [
            573437.5,
            6379728.076135425
          ],
          [
            573412.5,
            6379736.518880859
          ],
          [
            573409.4999966339,
            6379737.5
          ],
          [
            573387.5,
            6379744.917392421
          ],
          [
            573362.5,
            6379752.219535106
          ]
        ]
      }
    },
    {
      "type": "Feature",
      "properties": {
        "method": "transverse height maximum"
      },
      "geometry": {
        "type": "LineString",
        "coordinates": [
          [
            574724.2833445752,
            6379887.5
          ],
          [
            574712.5,
            6379877.131273894
          ],
          [
            574694.9727848413,
            6379862.5
          ],
          [
            574687.5,
            6379856.541403446
          ],
          [
            574662.5,
            6379837.819730981
          ],
          [
            574662.0503968701,
            6379837.5
          ],
          [
            574637.5,
            6379820.581137756
          ],
          [
            574625.5545995896,
            6379812.5
          ],
          [
            574612.5,
            6379803.749737689
          ],
          [
            574587.9441449017,
            6379787.5
          ],
          [
            574587.5,
            6379787.202978683
          ],
          [
            574562.5,
            6379771.348359133
          ],
          [
            574548.360255824,
            6379762.500000001
          ],
          [
            574537.5,
            6379755.665535015
          ],
          [
            574512.5,
            6379740.504531201
          ],
          [
            574507.3202280113,
            6379737.5
          ],
          [
            574487.5,
            6379725.781307188
          ],
          [
            574465.6332091836,
            6379712.5
          ],
          [
            574462.5,
            6379710.412692248
          ]
        ]
      }
    }
  ],
  "provenance": {
    "source_url": "https://data.geopf.fr/wms-r/wms?SERVICE=WMS&VERSION=1.3.0&REQUEST=GetMap&LAYERS=ELEVATION.ELEVATIONGRIDCOVERAGE.HIGHRES&STYLES=normal&CRS=EPSG%3A2154&BBOX=569500.0%2C6374500.0%2C575500.0%2C6380500.0&WIDTH=240&HEIGHT=240&FORMAT=image%2Ftiff",
    "dataset_url": "https://www.data.gouv.fr/datasets/rge-alti-r",
    "layer": "ELEVATION.ELEVATIONGRIDCOVERAGE.HIGHRES",
    "attribution": "Crests derived from © IGN RGE ALTI · Licence Ouverte 2.0",
    "licence": "Licence Ouverte 2.0",
    "retrieved_utc": "2026-10-06T17:43:41.020748+00:00",
    "derived_utc": "2026-10-06T17:43:41.109975+00:00",
    "derivation_code_sha256": "fd8cc5fb145d8bd120ab0393208bb2cd7eed981b9b9d5f7f08d50835d79fd2f3",
    "response_bytes": 230534,
    "response_sha256": "8d02a7eac1d9b70e404cf78048a53fba7529758cdfc4eaa492cc4a3faf233706",
    "terrain_file": "ign-terrain-114-1275.tif",
    "raster_bounds_epsg2154": [
      569500.0,
      6374500.0,
      575500.0,
      6380500.0
    ],
    "bounds_epsg2154": [
      570000.0,
      6375000.0,
      575000.0,
      6380000.0
    ],
    "parameters": {
      "grid_m": 25,
      "buffer_m": 500,
      "gaussian_sigma_m": 50,
      "minimum_transverse_curvature_per_m": 0.0003,
      "transverse_probe_m": 200,
      "minimum_drop_each_side_m": 5,
      "minimum_line_length_m": 200
    },
    "terrain_height_range_m": [
      101.77841186523438,
      306.71575927734375
    ],
    "method": "Gaussian-smoothed DEM; zero derivative along most concave Hessian eigenvector; negative curvature, two-sided drop and length filters. No flight coordinates used.",
    "limitations": "Approximate, scale-dependent crests; not an official or exhaustive ridge network. Gaps remain at weak ridges, orientation transitions and junctions; no invented links."
  }
}
