{
  "type": "FeatureCollection",
  "crs": {
    "type": "name",
    "properties": {
      "name": "EPSG:2154"
    }
  },
  "features": [
    {
      "type": "Feature",
      "properties": {
        "method": "transverse height maximum"
      },
      "geometry": {
        "type": "LineString",
        "coordinates": [
          [
            442860.9807833556,
            6880000.0
          ],
          [
            442856.93468370027,
            6880012.5
          ],
          [
            442849.8658686409,
            6880037.5
          ],
          [
            442843.08977509494,
            6880062.5
          ],
          [
            442837.49999999994,
            6880082.121105541
          ],
          [
            442836.0392547453,
            6880087.5
          ],
          [
            442828.80894512305,
            6880112.500000001
          ],
          [
            442820.80520566157,
            6880137.5
          ],
          [
            442812.5,
            6880160.263621521
          ],
          [
            442811.7147453088,
            6880162.500000001
          ],
          [
            442802.43792579917,
            6880187.5
          ],
          [
            442792.101982408,
            6880212.5
          ],
          [
            442787.5,
            6880221.676921835
          ],
          [
            442779.53008920595,
            6880237.5
          ],
          [
            442763.83212526527,
            6880262.5
          ],
          [
            442762.5,
            6880264.282550123
          ],
          [
            442744.56614888617,
            6880287.5
          ],
          [
            442737.5,
            6880295.7465533195
          ],
          [
            442722.2881662653,
            6880312.5
          ],
          [
            442712.5,
            6880323.027450821
          ]
        ]
      }
    },
    {
      "type": "Feature",
      "properties": {
        "method": "transverse height maximum"
      },
      "geometry": {
        "type": "LineString",
        "coordinates": [
          [
            441304.9483933303,
            6881062.5
          ],
          [
            441307.5706174418,
            6881087.5
          ],
          [
            441304.7235921514,
            6881112.499999999
          ],
          [
            441303.44336137956,
            6881137.500000001
          ],
          [
            441303.8050225913,
            6881162.5
          ],
          [
            441303.4745254506,
            6881187.5
          ],
          [
            441300.9679613383,
            6881212.5
          ],
          [
            441296.66882467974,
            6881237.5
          ],
          [
            441291.3628654167,
            6881262.5
          ],
          [
            441287.5,
            6881279.19417479
          ],
          [
            441285.22818715,
            6881287.500000001
          ],
          [
            441278.4462984729,
            6881312.5
          ],
          [
            441271.06684629247,
            6881337.5
          ],
          [
            441262.5,
            6881362.333131247
          ],
          [
            441262.4314724195,
            6881362.5
          ],
          [
            441252.0699109246,
            6881387.5
          ],
          [
            441240.01785653364,
            6881412.5
          ],
          [
            441237.5,
            6881417.799354257
          ]
        ]
      }
    },
    {
      "type": "Feature",
      "properties": {
        "method": "transverse height maximum"
      },
      "geometry": {
        "type": "LineString",
        "coordinates": [
          [
            444974.8656533913,
            6882162.5
          ],
          [
            444985.43865620164,
            6882187.5
          ],
          [
            444987.49999999994,
            6882192.689324919
          ],
          [
            444994.2865673119,
            6882212.5
          ],
          [
            445000.0,
            6882226.112598265
          ]
        ]
      }
    },
    {
      "type": "Feature",
      "properties": {
        "method": "transverse height maximum"
      },
      "geometry": {
        "type": "LineString",
        "coordinates": [
          [
            440441.6491128563,
            6882687.5
          ],
          [
            440441.6177972237,
            6882712.5
          ],
          [
            440451.748826673,
            6882737.5
          ],
          [
            440462.5,
            6882760.914853823
          ],
          [
            440463.3604099724,
            6882762.5
          ],
          [
            440476.77335308574,
            6882787.5
          ],
          [
            440487.5,
            6882804.5072396975
          ],
          [
            440492.19818735844,
            6882812.5
          ],
          [
            440509.81195538456,
            6882837.5
          ],
          [
            440512.5,
            6882840.814098314
          ],
          [
            440528.51506528223,
            6882862.5
          ],
          [
            440537.5,
            6882874.429369947
          ],
          [
            440547.508978015,
            6882887.5
          ],
          [
            440562.5,
            6882908.549285629
          ],
          [
            440565.538575996,
            6882912.5
          ],
          [
            440582.19769243733,
            6882937.500000001
          ],
          [
            440587.49999999994,
            6882947.412122409
          ],
          [
            440596.5811572055,
            6882962.5
          ],
          [
            440608.87062185636,
            6882987.499999999
          ],
          [
            440612.50000000006,
            6882995.3744327
          ],
          [
            440621.47875430936,
            6883012.5
          ],
          [
            440635.22252938565,
            6883037.5
          ],
          [
            440637.5,
            6883041.241945262
          ],
          [
            440650.47148358746,
            6883062.5
          ],
          [
            440662.5,
            6883081.4556051195
          ],
          [
            440666.2656512449,
            6883087.5
          ],
          [
            440681.3902409981,
            6883112.5
          ],
          [
            440687.5,
            6883123.0842457935
          ],
          [
            440695.3994675305,
            6883137.5
          ],
          [
            440706.511190483,
            6883162.5
          ],
          [
            440711.9182920206,
            6883187.500000001
          ],
          [
            440708.65041624324,
            6883212.500000001
          ],
          [
            440697.550575647,
            6883237.5
          ],
          [
            440687.5,
            6883255.53622064
          ],
          [
            440681.5919005921,
            6883262.499999999
          ]
        ]
      }
    },
    {
      "type": "Feature",
      "properties": {
        "method": "transverse height maximum"
      },
      "geometry": {
        "type": "LineString",
        "coordinates": [
          [
            443987.5,
            6882843.1777741425
          ],
          [
            443998.14327259216,
            6882862.5
          ],
          [
            444012.5,
            6882885.528157438
          ],
          [
            444013.4126044551,
            6882887.5
          ],
          [
            444025.5466433534,
            6882912.5
          ],
          [
            444037.5,
            6882933.595098428
          ],
          [
            444039.18366325524,
            6882937.5
          ],
          [
            444050.3562004268,
            6882962.5
          ],
          [
            444062.5,
            6882986.098428562
          ],
          [
            444063.0669500378,
            6882987.5
          ],
          [
            444073.19249282824,
            6883012.5
          ],
          [
            444085.6795096,
            6883037.5
          ],
          [
            444087.5,
            6883040.989408916
          ],
          [
            444097.19507071876,
            6883062.5
          ],
          [
            444112.3083943132,
            6883087.5
          ],
          [
            444112.49999999994,
            6883087.811632094
          ],
          [
            444128.29444430623,
            6883112.5
          ],
          [
            444137.5,
            6883123.214668825
          ]
        ]
      }
    },
    {
      "type": "Feature",
      "properties": {
        "method": "transverse height maximum"
      },
      "geometry": {
        "type": "LineString",
        "coordinates": [
          [
            444087.5,
            6883150.431214053
          ],
          [
            444074.9153696666,
            6883162.5
          ],
          [
            444073.74764859665,
            6883187.5
          ],
          [
            444077.4133500489,
            6883212.5
          ],
          [
            444079.5357701696,
            6883237.499999999
          ],
          [
            444080.19949997735,
            6883262.5
          ],
          [
            444077.59073335346,
            6883287.5
          ],
          [
            444064.88011353626,
            6883312.5
          ],
          [
            444062.5,
            6883316.042176157
          ],
          [
            444037.50000000006,
            6883334.438490898
          ],
          [
            444016.4788273978,
            6883337.5
          ]
        ]
      }
    },
    {
      "type": "Feature",
      "properties": {
        "method": "transverse height maximum"
      },
      "geometry": {
        "type": "LineString",
        "coordinates": [
          [
            440323.17924982304,
            6883462.5
          ],
          [
            440337.5,
            6883476.200031094
          ],
          [
            440349.2849452476,
            6883487.5
          ],
          [
            440362.5,
            6883501.837473198
          ],
          [
            440371.6217337683,
            6883512.5
          ],
          [
            440387.5,
            6883534.20482359
          ],
          [
            440389.68455412687,
            6883537.5
          ],
          [
            440404.27062045666,
            6883562.5
          ],
          [
            440412.5,
            6883579.55385331
          ],
          [
            440416.1529696953,
            6883587.5
          ],
          [
            440426.37350792123,
            6883612.5
          ],
          [
            440434.63535316417,
            6883637.500000001
          ]
        ]
      }
    },
    {
      "type": "Feature",
      "properties": {
        "method": "transverse height maximum"
      },
      "geometry": {
        "type": "LineString",
        "coordinates": [
          [
            440601.9845087932,
            6880000.0
          ],
          [
            440587.5,
            6880011.422441347
          ],
          [
            440586.05399088725,
            6880012.499999999
          ],
          [
            440562.5,
            6880028.121038953
          ],
          [
            440547.8237538343,
            6880037.5
          ],
          [
            440537.5,
            6880043.620730967
          ],
          [
            440512.5,
            6880058.454703509
          ],
          [
            440505.85880888306,
            6880062.5
          ],
          [
            440487.5,
            6880073.643277547
          ],
          [
            440465.94726352434,
            6880087.5
          ],
          [
            440462.5,
            6880089.839229682
          ],
          [
            440437.5,
            6880106.383628535
          ],
          [
            440427.41204130696,
            6880112.5
          ],
          [
            440412.5,
            6880121.854539629
          ],
          [
            440387.5,
            6880133.288399981
          ],
          [
            440372.2416414556,
            6880137.5
          ],
          [
            440362.5,
            6880139.884757425
          ],
          [
            440337.5,
            6880143.798741443
          ],
          [
            440312.5,
            6880147.3188279085
          ],
          [
            440287.5,
            6880151.417067678
          ],
          [
            440262.5,
            6880156.544829221
          ],
          [
            440239.30483053066,
            6880162.5
          ],
          [
            440237.5,
            6880162.944491929
          ],
          [
            440212.5,
            6880169.988790237
          ],
          [
            440187.5,
            6880178.211828238
          ],
          [
            440163.6189349523,
            6880187.5
          ],
          [
            440162.5,
            6880187.966021687
          ],
          [
            440137.5,
            6880198.696077064
          ],
          [
            440112.50000000006,
            6880209.622336244
          ],
          [
            440105.613877929,
            6880212.5
          ],
          [
            440087.5,
            6880219.951049832
          ],
          [
            440062.50000000006,
            6880229.073800999
          ],
          [
            440038.2827675585,
            6880237.5
          ],
          [
            440037.5,
            6880237.7596260635
          ],
          [
            440012.5,
            6880246.076857179
          ],
          [
            440000.0,
            6880250.554035073
          ]
        ]
      }
    },
    {
      "type": "Feature",
      "properties": {
        "method": "transverse height maximum"
      },
      "geometry": {
        "type": "LineString",
        "coordinates": [
          [
            442230.9234870783,
            6880062.5
          ],
          [
            442212.5,
            6880048.391770083
          ],
          [
            442198.626851802,
            6880037.5
          ],
          [
            442187.5,
            6880030.169247544
          ],
          [
            442162.5,
            6880012.800738095
          ],
          [
            442162.09935481974,
            6880012.5
          ],
          [
            442143.05948845914,
            6880000.0
          ]
        ]
      }
    },
    {
      "type": "Feature",
      "properties": {
        "method": "transverse height maximum"
      },
      "geometry": {
        "type": "LineString",
        "coordinates": [
          [
            442637.5,
            6880388.770581937
          ],
          [
            442612.5,
            6880406.464474535
          ],
          [
            442602.5547937704,
            6880412.5
          ],
          [
            442587.5,
            6880422.692774947
          ],
          [
            442562.5,
            6880437.136926879
          ],
          [
            442561.83299498376,
            6880437.5
          ],
          [
            442537.49999999994,
            6880450.942494553
          ],
          [
            442514.1649643089,
            6880462.5
          ],
          [
            442512.5,
            6880463.318037151
          ],
          [
            442487.5,
            6880474.651253433
          ],
          [
            442462.50000000006,
            6880484.68760327
          ],
          [
            442455.88492415834,
            6880487.5
          ],
          [
            442437.5,
            6880494.055860509
          ],
          [
            442412.50000000006,
            6880502.869361554
          ],
          [
            442387.50000000006,
            6880511.998677108
          ],
          [
            442386.23080190993,
            6880512.499999999
          ],
          [
            442362.5,
            6880521.408285989
          ],
          [
            442337.5,
            6880530.682466942
          ],
          [
            442320.09141275386,
            6880537.5
          ],
          [
            442312.5,
            6880540.547346337
          ],
          [
            442287.5,
            6880550.968088204
          ],
          [
            442262.5,
            6880562.143906075
          ],
          [
            442261.77832035976,
            6880562.5
          ],
          [
            442237.5,
            6880574.658730124
          ],
          [
            442213.7576531183,
            6880587.5
          ],
          [
            442212.5,
            6880588.212546195
          ],
          [
            442187.5,
            6880602.979841848
          ],
          [
            442172.15960900433,
            6880612.5
          ],
          [
            442162.5,
            6880618.665351103
          ],
          [
            442137.5,
            6880634.776509249
          ],
          [
            442133.4120967628,
            6880637.5
          ],
          [
            442112.50000000006,
            6880651.828155429
          ],
          [
            442098.003923309,
            6880662.5
          ],
          [
            442087.5,
            6880670.195272935
          ],
          [
            442064.85644297744,
            6880687.5
          ],
          [
            442062.5,
            6880689.243891145
          ],
          [
            442037.5,
            6880707.433968449
          ],
          [
            442030.50481565396,
            6880712.5
          ],
          [
            442012.5,
            6880724.279294409
          ],
          [
            441990.53417085303,
            6880737.5
          ],
          [
            441987.5,
            6880739.21400783
          ],
          [
            441962.5,
            6880751.720652354
          ],
          [
            441938.97508576384,
            6880762.5
          ],
          [
            441937.5,
            6880763.176263235
          ],
          [
            441912.5,
            6880773.657612554
          ],
          [
            441887.5,
            6880783.836925849
          ],
          [
            441879.0597746099,
            6880787.5
          ],
          [
            441862.5,
            6880794.537905973
          ],
          [
            441837.5,
            6880805.712673622
          ],
          [
            441823.2897560032,
            6880812.5
          ],
          [
            441812.5,
            6880817.63913231
          ],
          [
            441787.50000000006,
            6880828.87281817
          ],
          [
            441766.9340099138,
            6880837.5
          ],
          [
            441762.5,
            6880839.486896933
          ],
          [
            441737.5,
            6880849.742091451
          ],
          [
            441712.5,
            6880860.055571097
          ],
          [
            441706.3647846628,
            6880862.5
          ],
          [
            441687.5,
            6880870.99437239
          ],
          [
            441662.50000000006,
            6880881.025516386
          ],
          [
            441642.91060313815,
            6880887.5
          ],
          [
            441637.5,
            6880889.9905399
          ],
          [
            441612.5,
            6880896.066855089
          ],
          [
            441587.5,
            6880891.441410668
          ],
          [
            441582.7267511041,
            6880887.5
          ]
        ]
      }
    },
    {
      "type": "Feature",
      "properties": {
        "method": "transverse height maximum"
      },
      "geometry": {
        "type": "LineString",
        "coordinates": [
          [
            444225.0017026632,
            6880912.500000001
          ],
          [
            444216.210873636,
            6880937.5
          ],
          [
            444212.5,
            6880938.624245438
          ],
          [
            444187.5,
            6880943.006458978
          ],
          [
            444162.5,
            6880944.072725972
          ],
          [
            444137.5,
            6880942.725542428
          ],
          [
            444112.5,
            6880939.7568670465
          ],
          [
            444099.02545633883,
            6880937.499999999
          ],
          [
            444087.49999999994,
            6880935.044790994
          ],
          [
            444062.5,
            6880928.714231726
          ],
          [
            444037.5,
            6880921.7525213435
          ],
          [
            444012.5,
            6880914.079675879
          ],
          [
            444007.67442279845,
            6880912.5
          ],
          [
            443987.5,
            6880904.824414752
          ],
          [
            443962.5,
            6880895.965600898
          ],
          [
            443937.5,
            6880888.272145508
          ],
          [
            443934.07687639614,
            6880887.5
          ],
          [
            443912.5,
            6880881.959214517
          ],
          [
            443887.5,
            6880877.980025665
          ],
          [
            443862.5,
            6880876.414063425
          ],
          [
            443837.5,
            6880876.891871549
          ],
          [
            443812.5,
            6880878.0489788735
          ],
          [
            443787.5,
            6880878.141597189
          ],
          [
            443762.5,
            6880876.424977596
          ],
          [
            443737.5,
            6880873.144376035
          ],
          [
            443712.5,
            6880868.79086646
          ],
          [
            443687.5,
            6880863.7400648715
          ],
          [
            443681.7607468152,
            6880862.5
          ],
          [
            443662.5,
            6880857.902133686
          ],
          [
            443637.49999999994,
            6880852.001252266
          ],
          [
            443612.5,
            6880846.106174585
          ],
          [
            443587.5,
            6880840.171081273
          ],
          [
            443575.660569452,
            6880837.5
          ],
          [
            443562.49999999994,
            6880834.487955442
          ],
          [
            443537.49999999994,
            6880829.683037364
          ],
          [
            443512.5,
            6880825.3852609405
          ],
          [
            443487.5,
            6880820.221161301
          ],
          [
            443462.5,
            6880813.043559886
          ],
          [
            443461.1574660566,
            6880812.5
          ],
          [
            443437.5,
            6880803.274935253
          ],
          [
            443412.5,
            6880790.252205193
          ],
          [
            443408.4228750305,
            6880787.5
          ],
          [
            443387.5,
            6880772.843455167
          ],
          [
            443374.72618423344,
            6880762.5
          ],
          [
            443362.5,
            6880752.141899731
          ],
          [
            443346.1350643383,
            6880737.5
          ],
          [
            443337.5,
            6880729.827429818
          ],
          [
            443318.46669461846,
            6880712.5
          ],
          [
            443312.5,
            6880707.579329865
          ],
          [
            443288.299244689,
            6880687.5
          ],
          [
            443287.5,
            6880686.948019171
          ],
          [
            443262.5,
            6880669.725806681
          ],
          [
            443252.17873883573,
            6880662.5
          ],
          [
            443237.5,
            6880653.19236325
          ],
          [
            443214.8972609958,
            6880637.5
          ],
          [
            443212.5,
            6880635.814656966
          ],
          [
            443187.5,
            6880616.150526415
          ],
          [
            443183.31013212854,
            6880612.5
          ]
        ]
      }
    },
    {
      "type": "Feature",
      "properties": {
        "method": "transverse height maximum"
      },
      "geometry": {
        "type": "LineString",
        "coordinates": [
          [
            444760.03137966344,
            6880937.5
          ],
          [
            444737.50000000006,
            6880927.125403753
          ],
          [
            444712.5,
            6880919.526655079
          ],
          [
            444687.5,
            6880913.670206
          ],
          [
            444681.8218167377,
            6880912.5
          ],
          [
            444662.5,
            6880907.04435568
          ],
          [
            444637.5,
            6880902.147785454
          ],
          [
            444612.5,
            6880897.36879056
          ],
          [
            444587.5,
            6880889.56426942
          ],
          [
            444583.54998687503,
            6880887.5
          ],
          [
            444562.5,
            6880875.887974977
          ],
          [
            444540.1629763253,
            6880862.5
          ],
          [
            444537.5,
            6880860.90793513
          ],
          [
            444512.5,
            6880845.677122644
          ],
          [
            444497.4372828483,
            6880837.5
          ],
          [
            444487.50000000006,
            6880831.971496839
          ],
          [
            444462.5,
            6880819.709325952
          ],
          [
            444445.40742374066,
            6880812.499999999
          ]
        ]
      }
    },
    {
      "type": "Feature",
      "properties": {
        "method": "transverse height maximum"
      },
      "geometry": {
        "type": "LineString",
        "coordinates": [
          [
            444137.5,
            6881424.757560179
          ],
          [
            444121.43545326975,
            6881412.500000001
          ],
          [
            444112.5,
            6881406.158906372
          ],
          [
            444087.5,
            6881390.515063423
          ],
          [
            444082.15994251904,
            6881387.5
          ],
          [
            444062.5,
            6881376.807846366
          ],
          [
            444037.5,
            6881364.462865184
          ],
          [
            444033.2811530946,
            6881362.5
          ],
          [
            444012.50000000006,
            6881353.186130395
          ],
          [
            443987.5,
            6881342.6272305455
          ],
          [
            443975.09793196194,
            6881337.5
          ],
          [
            443962.49999999994,
            6881332.603536054
          ],
          [
            443937.5,
            6881323.0710905725
          ],
          [
            443912.5,
            6881313.6797226025
          ],
          [
            443909.3691145945,
            6881312.5
          ],
          [
            443887.5,
            6881305.214906091
          ],
          [
            443862.5,
            6881297.136909317
          ],
          [
            443837.5,
            6881289.244829491
          ],
          [
            443831.6369972213,
            6881287.5
          ],
          [
            443812.49999999994,
            6881282.551785342
          ]
        ]
      }
    },
    {
      "type": "Feature",
      "properties": {
        "method": "transverse height maximum"
      },
      "geometry": {
        "type": "LineString",
        "coordinates": [
          [
            441010.50753322226,
            6881737.5
          ],
          [
            440987.5,
            6881745.049509997
          ],
          [
            440962.5,
            6881753.438912201
          ],
          [
            440937.77362219134,
            6881762.5
          ],
          [
            440937.5,
            6881762.600233365
          ],
          [
            440912.5,
            6881773.645682985
          ],
          [
            440887.5,
            6881786.836660765
          ],
          [
            440886.47628694423,
            6881787.499999999
          ],
          [
            440862.5,
            6881804.090649974
          ],
          [
            440851.6654254658,
            6881812.5
          ],
          [
            440837.5,
            6881824.89242559
          ],
          [
            440820.1509580689,
            6881837.5
          ],
          [
            440812.5,
            6881843.54186442
          ],
          [
            440787.5,
            6881854.948176423
          ],
          [
            440762.5,
            6881861.680413092
          ],
          [
            440755.30214093335,
            6881862.5
          ],
          [
            440737.5,
            6881864.644356626
          ],
          [
            440725.69314534357,
            6881862.5
          ],
          [
            440712.5,
            6881854.7977027325
          ]
        ]
      }
    },
    {
      "type": "Feature",
      "properties": {
        "method": "transverse height maximum"
      },
      "geometry": {
        "type": "LineString",
        "coordinates": [
          [
            444551.3876379695,
            6881762.5
          ],
          [
            444537.5,
            6881749.485688285
          ],
          [
            444524.3284394733,
            6881737.5
          ],
          [
            444512.5,
            6881727.901402614
          ],
          [
            444494.0635070326,
            6881712.5
          ],
          [
            444487.49999999994,
            6881707.551316964
          ],
          [
            444463.68035485444,
            6881687.5
          ],
          [
            444462.49999999994,
            6881686.566845449
          ],
          [
            444437.5,
            6881665.308150888
          ],
          [
            444434.2465241579,
            6881662.5
          ],
          [
            444412.5,
            6881645.052503904
          ],
          [
            444402.86875279306,
            6881637.5
          ],
          [
            444387.49999999994,
            6881626.141408156
          ],
          [
            444368.49266570015,
            6881612.5
          ],
          [
            444362.5,
            6881608.252804393
          ],
          [
            444337.5,
            6881591.025378263
          ],
          [
            444332.32387290144,
            6881587.5
          ],
          [
            444312.5,
            6881573.67823444
          ],
          [
            444295.6828430385,
            6881562.5
          ],
          [
            444287.5,
            6881556.659703809
          ],
          [
            444262.5,
            6881539.627167125
          ],
          [
            444259.3374313803,
            6881537.5
          ],
          [
            444237.5,
            6881521.057146777
          ],
          [
            444226.3650726949,
            6881512.5
          ],
          [
            444212.5,
            6881499.870842591
          ],
          [
            444199.5273902206,
            6881487.5
          ]
        ]
      }
    },
    {
      "type": "Feature",
      "properties": {
        "method": "transverse height maximum"
      },
      "geometry": {
        "type": "LineString",
        "coordinates": [
          [
            440287.5,
            6882218.700728494
          ],
          [
            440262.49999999994,
            6882228.808210212
          ],
          [
            440245.72924596525,
            6882237.5
          ],
          [
            440237.5,
            6882241.065316077
          ],
          [
            440212.5,
            6882252.939473732
          ],
          [
            440194.7831747879,
            6882262.5
          ],
          [
            440187.5,
            6882266.200533591
          ],
          [
            440162.50000000006,
            6882279.612546094
          ],
          [
            440148.8818813566,
            6882287.5
          ],
          [
            440137.5,
            6882294.476617026
          ],
          [
            440112.5,
            6882310.203829729
          ],
          [
            440108.59187313897,
            6882312.5
          ],
          [
            440087.5,
            6882326.686101561
          ],
          [
            440066.7148431706,
            6882337.5
          ],
          [
            440062.5,
            6882339.9019587515
          ],
          [
            440037.5,
            6882346.965577946
          ],
          [
            440012.5,
            6882350.0807111105
          ],
          [
            440000.0,
            6882351.121751461
          ]
        ]
      }
    },
    {
      "type": "Feature",
      "properties": {
        "method": "transverse height maximum"
      },
      "geometry": {
        "type": "LineString",
        "coordinates": [
          [
            443521.2662988299,
            6882512.5
          ],
          [
            443512.5,
            6882508.98057367
          ],
          [
            443487.5,
            6882499.309086482
          ],
          [
            443462.5,
            6882491.003833917
          ],
          [
            443449.12756075244,
            6882487.500000001
          ],
          [
            443437.5,
            6882484.2592640165
          ],
          [
            443412.50000000006,
            6882479.219128793
          ],
          [
            443387.5,
            6882475.565944417
          ],
          [
            443362.5,
            6882472.971677278
          ],
          [
            443337.5,
            6882471.248331416
          ],
          [
            443312.5,
            6882470.1482743975
          ],
          [
            443287.5,
            6882469.366519518
          ],
          [
            443262.5,
            6882468.725880883
          ],
          [
            443237.5,
            6882468.345996842
          ],
          [
            443212.5,
            6882468.657329848
          ],
          [
            443187.5,
            6882470.29030608
          ],
          [
            443162.5,
            6882473.939701308
          ],
          [
            443137.49999999994,
            6882479.4438449135
          ],
          [
            443112.5,
            6882482.892572921
          ],
          [
            443087.5,
            6882480.378180537
          ],
          [
            443062.5,
            6882474.110301496
          ],
          [
            443037.5,
            6882466.125833848
          ],
          [
            443028.73654449545,
            6882462.5
          ],
          [
            443012.5,
            6882455.144587165
          ],
          [
            442987.5,
            6882442.940516278
          ],
          [
            442977.0590003785,
            6882437.5
          ],
          [
            442962.49999999994,
            6882429.451238799
          ],
          [
            442937.5,
            6882416.311940713
          ],
          [
            442929.9997592228,
            6882412.5
          ],
          [
            442912.50000000006,
            6882402.7425134685
          ],
          [
            442887.5,
            6882390.249424626
          ],
          [
            442881.57117218454,
            6882387.5
          ],
          [
            442862.5,
            6882377.306211098
          ],
          [
            442837.5,
            6882366.214170695
          ],
          [
            442827.9694413976,
            6882362.5
          ],
          [
            442812.5,
            6882355.306499281
          ],
          [
            442787.5,
            6882344.911459536
          ],
          [
            442769.0401305943,
            6882337.5
          ],
          [
            442762.5,
            6882334.0324940765
          ],
          [
            442737.5,
            6882321.357063236
          ],
          [
            442719.23769413936,
            6882312.5
          ],
          [
            442712.5,
            6882308.877271492
          ],
          [
            442687.5,
            6882295.727647537
          ],
          [
            442671.4580659504,
            6882287.5
          ],
          [
            442662.5,
            6882282.990591097
          ],
          [
            442637.5,
            6882270.715178474
          ],
          [
            442620.000251263,
            6882262.500000001
          ],
          [
            442612.5,
            6882259.080606539
          ],
          [
            442587.5,
            6882247.914344425
          ],
          [
            442562.77284148877,
            6882237.5
          ],
          [
            442562.5,
            6882237.372506159
          ],
          [
            442537.5,
            6882225.693900625
          ],
          [
            442512.5,
            6882214.895851247
          ],
          [
            442506.7558354259,
            6882212.5
          ],
          [
            442487.49999999994,
            6882203.228642306
          ],
          [
            442462.5,
            6882192.644246193
          ],
          [
            442449.1416876514,
            6882187.5
          ],
          [
            442437.5,
            6882182.181439325
          ],
          [
            442412.5,
            6882172.147863842
          ],
          [
            442387.5,
            6882163.414243637
          ],
          [
            442384.60406974,
            6882162.5
          ],
          [
            442362.5,
            6882154.054951614
          ],
          [
            442337.5,
            6882145.933115576
          ],
          [
            442312.5,
            6882138.76466252
          ],
          [
            442307.82912030997,
            6882137.5
          ],
          [
            442287.50000000006,
            6882130.945137699
          ],
          [
            442262.5,
            6882123.421149932
          ],
          [
            442237.5,
            6882115.931363588
          ],
          [
            442226.6703900609,
            6882112.5
          ],
          [
            442212.5,
            6882107.441734712
          ],
          [
            442187.5,
            6882098.102925293
          ],
          [
            442162.5,
            6882088.179764987
          ],
          [
            442160.829370878,
            6882087.5
          ],
          [
            442137.50000000006,
            6882077.827777748
          ],
          [
            442112.5,
            6882067.806507845
          ],
          [
            442098.81331634277,
            6882062.499999999
          ],
          [
            442087.5,
            6882058.150954583
          ],
          [
            442062.5,
            6882048.840171378
          ],
          [
            442037.5,
            6882039.528512166
          ],
          [
            442031.90154768,
            6882037.5
          ],
          [
            442012.5,
            6882030.774726928
          ],
          [
            441987.5,
            6882022.58087553
          ],
          [
            441962.5,
            6882014.860916199
          ],
          [
            441954.3974522392,
            6882012.5
          ],
          [
            441937.5,
            6882007.685960126
          ],
          [
            441912.50000000006,
            6882000.650839038
          ],
          [
            441887.5,
            6881993.898943857
          ],
          [
            441862.5,
            6881987.877288829
          ],
          [
            441860.70856470615,
            6881987.5
          ],
          [
            441837.5,
            6881982.054898754
          ],
          [
            441812.5,
            6881977.005254383
          ],
          [
            441787.5,
            6881973.241545429
          ],
          [
            441762.5,
            6881970.989656323
          ]
        ]
      }
    },
    {
      "type": "Feature",
      "properties": {
        "method": "transverse height maximum"
      },
      "geometry": {
        "type": "LineString",
        "coordinates": [
          [
            443887.5,
            6882677.769535193
          ],
          [
            443870.273879272,
            6882662.5
          ],
          [
            443862.5,
            6882656.683435422
          ],
          [
            443837.5,
            6882643.127223998
          ],
          [
            443826.9704744992,
            6882637.5
          ],
          [
            443812.5,
            6882630.964546207
          ],
          [
            443787.5,
            6882618.424374682
          ],
          [
            443776.9210747662,
            6882612.5
          ],
          [
            443762.50000000006,
            6882605.844539632
          ],
          [
            443737.5,
            6882593.537195082
          ],
          [
            443725.49185434124,
            6882587.5
          ],
          [
            443712.5,
            6882581.651952179
          ],
          [
            443687.5,
            6882570.454734103
          ],
          [
            443668.7954243921,
            6882562.5
          ],
          [
            443662.5,
            6882559.843518141
          ],
          [
            443637.5,
            6882550.529603058
          ]
        ]
      }
    },
    {
      "type": "Feature",
      "properties": {
        "method": "transverse height maximum"
      },
      "geometry": {
        "type": "LineString",
        "coordinates": [
          [
            445000.0,
            6882742.355329273
          ],
          [
            444987.5,
            6882743.152904916
          ],
          [
            444962.5,
            6882744.574347255
          ],
          [
            444937.5,
            6882745.180477736
          ],
          [
            444912.5,
            6882744.217300538
          ],
          [
            444887.5,
            6882741.297389017
          ],
          [
            444867.8216192529,
            6882737.5
          ],
          [
            444862.5,
            6882736.470687959
          ],
          [
            444837.5,
            6882730.425028673
          ],
          [
            444812.5,
            6882722.453621583
          ],
          [
            444789.58755248605,
            6882712.5
          ],
          [
            444787.5,
            6882711.538149657
          ],
          [
            444762.5,
            6882699.371691914
          ],
          [
            444741.1676205158,
            6882687.5
          ],
          [
            444737.50000000006,
            6882685.373245899
          ],
          [
            444712.5,
            6882672.657936924
          ],
          [
            444692.15121396945,
            6882662.5
          ],
          [
            444687.5,
            6882660.084619298
          ],
          [
            444662.5,
            6882650.010653048
          ],
          [
            444637.5,
            6882642.428108549
          ],
          [
            444612.5,
            6882639.7090135375
          ],
          [
            444587.5,
            6882642.177203749
          ],
          [
            444562.5,
            6882646.135301303
          ]
        ]
      }
    },
    {
      "type": "Feature",
      "properties": {
        "method": "transverse height maximum"
      },
      "geometry": {
        "type": "LineString",
        "coordinates": [
          [
            441187.5,
            6882741.469645818
          ],
          [
            441162.49999999994,
            6882751.457411657
          ],
          [
            441139.2712989014,
            6882762.5
          ],
          [
            441137.5,
            6882763.405241454
          ],
          [
            441112.5,
            6882776.286382449
          ],
          [
            441092.8331606821,
            6882787.5
          ],
          [
            441087.5,
            6882790.520592099
          ],
          [
            441062.5,
            6882804.588307014
          ],
          [
            441047.3907486926,
            6882812.5
          ],
          [
            441037.5,
            6882817.946822904
          ],
          [
            441012.5,
            6882830.44533745
          ],
          [
            440995.2388190286,
            6882837.5
          ]
        ]
      }
    },
    {
      "type": "Feature",
      "properties": {
        "method": "transverse height maximum"
      },
      "geometry": {
        "type": "LineString",
        "coordinates": [
          [
            442637.5,
            6883152.219773833
          ],
          [
            442612.5,
            6883161.0508362455
          ],
          [
            442607.68432856846,
            6883162.5
          ],
          [
            442587.5,
            6883168.984050511
          ],
          [
            442562.5,
            6883176.373702609
          ],
          [
            442537.5,
            6883184.522407191
          ],
          [
            442529.5315557451,
            6883187.5
          ],
          [
            442512.5,
            6883196.119376833
          ],
          [
            442487.5,
            6883209.6111052465
          ],
          [
            442480.5525796738,
            6883212.5
          ],
          [
            442462.5,
            6883217.697896573
          ],
          [
            442437.5,
            6883222.824207604
          ],
          [
            442412.5,
            6883227.867140567
          ],
          [
            442387.5,
            6883234.156459921
          ],
          [
            442376.3197968289,
            6883237.5
          ],
          [
            442362.5,
            6883240.786282479
          ],
          [
            442337.5,
            6883247.872336026
          ],
          [
            442312.5,
            6883257.175817142
          ],
          [
            442301.30979399174,
            6883262.5
          ],
          [
            442287.5,
            6883268.650026568
          ],
          [
            442262.5,
            6883284.191608983
          ],
          [
            442258.46907252615,
            6883287.499999999
          ],
          [
            442237.5,
            6883303.750919071
          ],
          [
            442229.21475601423,
            6883312.499999999
          ],
          [
            442212.5,
            6883328.9812403815
          ],
          [
            442202.702841939,
            6883337.499999999
          ],
          [
            442187.5,
            6883349.688701416
          ],
          [
            442162.5,
            6883354.82855005
          ],
          [
            442137.50000000006,
            6883353.388160413
          ],
          [
            442112.5,
            6883350.492953788
          ],
          [
            442087.5,
            6883347.464242917
          ],
          [
            442062.5,
            6883344.483306826
          ]
        ]
      }
    },
    {
      "type": "Feature",
      "properties": {
        "method": "transverse height maximum"
      },
      "geometry": {
        "type": "LineString",
        "coordinates": [
          [
            441801.66577587597,
            6883612.5
          ],
          [
            441787.50000000006,
            6883606.182916147
          ],
          [
            441762.5,
            6883594.50415021
          ],
          [
            441744.22114023915,
            6883587.5
          ],
          [
            441737.5,
            6883584.194610679
          ],
          [
            441712.5,
            6883574.451239
          ],
          [
            441687.5,
            6883566.24934304
          ],
          [
            441675.4552938508,
            6883562.5
          ],
          [
            441662.5,
            6883558.113925855
          ],
          [
            441637.5,
            6883550.030960574
          ],
          [
            441612.5,
            6883541.972822892
          ],
          [
            441598.44154389657,
            6883537.5
          ],
          [
            441587.5,
            6883533.69186622
          ],
          [
            441562.5,
            6883526.955653686
          ],
          [
            441537.5,
            6883523.856815774
          ],
          [
            441512.5,
            6883523.9669912495
          ],
          [
            441487.5,
            6883524.977771504
          ],
          [
            441462.5,
            6883525.093810846
          ],
          [
            441437.5,
            6883523.840222079
          ],
          [
            441412.5,
            6883521.380048418
          ],
          [
            441387.5,
            6883517.831297527
          ],
          [
            441362.5,
            6883513.199006267
          ],
          [
            441358.95009112643,
            6883512.5
          ]
        ]
      }
    },
    {
      "type": "Feature",
      "properties": {
        "method": "transverse height maximum"
      },
      "geometry": {
        "type": "LineString",
        "coordinates": [
          [
            444427.36257485114,
            6884237.5
          ],
          [
            444412.5,
            6884236.613233011
          ],
          [
            444387.50000000006,
            6884233.827565622
          ],
          [
            444362.5,
            6884230.1236452665
          ],
          [
            444337.5,
            6884225.629137321
          ],
          [
            444312.5,
            6884220.351904803
          ],
          [
            444287.5,
            6884214.347958539
          ],
          [
            444280.52640295675,
            6884212.5
          ],
          [
            444262.5,
            6884207.297937468
          ],
          [
            444237.5,
            6884199.968474854
          ],
          [
            444212.5,
            6884192.702661573
          ],
          [
            444194.1028175019,
            6884187.5
          ],
          [
            444187.5,
            6884185.0112596685
          ],
          [
            444162.5,
            6884175.977471285
          ],
          [
            444137.5,
            6884167.182968897
          ],
          [
            444122.2455428921,
            6884162.5
          ],
          [
            444112.5,
            6884159.111967882
          ],
          [
            444087.5,
            6884152.859779584
          ],
          [
            444062.5,
            6884148.671314423
          ],
          [
            444037.5,
            6884145.099396302
          ],
          [
            444012.5,
            6884141.564900577
          ],
          [
            443987.5,
            6884138.018460359
          ],
          [
            443983.84315703675,
            6884137.5
          ],
          [
            443962.5,
            6884134.261817953
          ],
          [
            443937.5,
            6884130.656929749
          ],
          [
            443912.5,
            6884127.476011005
          ],
          [
            443887.5,
            6884124.760576721
          ],
          [
            443862.5,
            6884122.374070701
          ],
          [
            443837.5,
            6884120.181802731
          ],
          [
            443812.5,
            6884118.075019943
          ],
          [
            443787.5,
            6884116.001409851
          ],
          [
            443762.5,
            6884114.1866513435
          ],
          [
            443737.5,
            6884113.0767062735
          ],
          [
            443712.5,
            6884112.563861526
          ],
          [
            443710.566050069,
            6884112.5
          ],
          [
            443687.49999999994,
            6884111.765570097
          ],
          [
            443662.5,
            6884109.904403069
          ],
          [
            443637.5,
            6884106.982804431
          ]
        ]
      }
    },
    {
      "type": "Feature",
      "properties": {
        "method": "transverse height maximum"
      },
      "geometry": {
        "type": "LineString",
        "coordinates": [
          [
            443162.5,
            6884253.385521595
          ],
          [
            443137.5,
            6884245.652887575
          ],
          [
            443112.5,
            6884243.20085059
          ],
          [
            443087.5,
            6884241.055068962
          ],
          [
            443062.5,
            6884239.433532149
          ],
          [
            443037.5,
            6884238.881912117
          ],
          [
            443012.5,
            6884240.535481583
          ],
          [
            442987.5,
            6884245.715801825
          ],
          [
            442962.5,
            6884253.734524566
          ],
          [
            442937.5,
            6884262.391428398
          ]
        ]
      }
    },
    {
      "type": "Feature",
      "properties": {
        "method": "transverse height maximum"
      },
      "geometry": {
        "type": "LineString",
        "coordinates": [
          [
            442937.18038313545,
            6884262.5
          ],
          [
            442912.5,
            6884270.672931775
          ],
          [
            442887.5,
            6884276.496313703
          ],
          [
            442862.5,
            6884280.081236171
          ],
          [
            442837.5,
            6884282.5972779635
          ],
          [
            442812.5,
            6884285.493849898
          ],
          [
            442800.1585233745,
            6884287.5
          ],
          [
            442787.5,
            6884289.686536339
          ],
          [
            442762.5,
            6884294.851473798
          ],
          [
            442737.5,
            6884300.109255168
          ],
          [
            442712.5,
            6884305.247540343
          ],
          [
            442687.50000000006,
            6884310.524469499
          ],
          [
            442678.9967806137,
            6884312.499999999
          ],
          [
            442662.5,
            6884316.745304724
          ],
          [
            442637.5,
            6884324.636099494
          ],
          [
            442612.5,
            6884335.08128524
          ],
          [
            442608.06097596587,
            6884337.5
          ],
          [
            442587.5,
            6884349.8845990235
          ],
          [
            442570.84204292577,
            6884362.5
          ],
          [
            442562.5,
            6884368.822425896
          ],
          [
            442541.24899312947,
            6884387.5
          ],
          [
            442537.5,
            6884390.716105677
          ],
          [
            442515.65062180615,
            6884412.5
          ]
        ]
      }
    }
  ],
  "provenance": {
    "source_url": "https://data.geopf.fr/wms-r/wms?SERVICE=WMS&VERSION=1.3.0&REQUEST=GetMap&LAYERS=ELEVATION.ELEVATIONGRIDCOVERAGE.HIGHRES&STYLES=normal&CRS=EPSG%3A2154&BBOX=439500.0%2C6879500.0%2C445500.0%2C6885500.0&WIDTH=240&HEIGHT=240&FORMAT=image%2Ftiff",
    "dataset_url": "https://www.data.gouv.fr/datasets/rge-alti-r",
    "layer": "ELEVATION.ELEVATIONGRIDCOVERAGE.HIGHRES",
    "attribution": "Crests derived from © IGN RGE ALTI · Licence Ouverte 2.0",
    "licence": "Licence Ouverte 2.0",
    "retrieved_utc": "2026-10-06T17:43:40.128257+00:00",
    "derived_utc": "2026-10-06T17:43:40.221747+00:00",
    "derivation_code_sha256": "fd8cc5fb145d8bd120ab0393208bb2cd7eed981b9b9d5f7f08d50835d79fd2f3",
    "response_bytes": 230534,
    "response_sha256": "643c6f6c6d62e8aa28e4a8d3e68a211e31c768aef3edee3aaef2fb50c81f2819",
    "terrain_file": "ign-terrain-88-1376.tif",
    "raster_bounds_epsg2154": [
      439500.0,
      6879500.0,
      445500.0,
      6885500.0
    ],
    "bounds_epsg2154": [
      440000.0,
      6880000.0,
      445000.0,
      6885000.0
    ],
    "parameters": {
      "grid_m": 25,
      "buffer_m": 500,
      "gaussian_sigma_m": 50,
      "minimum_transverse_curvature_per_m": 0.0003,
      "transverse_probe_m": 200,
      "minimum_drop_each_side_m": 5,
      "minimum_line_length_m": 200
    },
    "terrain_height_range_m": [
      19.05510711669922,
      276.48248291015625
    ],
    "method": "Gaussian-smoothed DEM; zero derivative along most concave Hessian eigenvector; negative curvature, two-sided drop and length filters. No flight coordinates used.",
    "limitations": "Approximate, scale-dependent crests; not an official or exhaustive ridge network. Gaps remain at weak ridges, orientation transitions and junctions; no invented links."
  }
}
