{
  "type": "FeatureCollection",
  "crs": {
    "type": "name",
    "properties": {
      "name": "EPSG:2154"
    }
  },
  "features": [
    {
      "type": "Feature",
      "properties": {
        "method": "transverse height maximum"
      },
      "geometry": {
        "type": "LineString",
        "coordinates": [
          [
            446235.3018281693,
            6875337.5
          ],
          [
            446228.1151057745,
            6875362.499999999
          ],
          [
            446220.68606252805,
            6875387.5
          ],
          [
            446212.5,
            6875411.588817842
          ],
          [
            446212.2237298596,
            6875412.5
          ],
          [
            446202.36042462813,
            6875437.5
          ],
          [
            446189.9448286249,
            6875462.5
          ],
          [
            446187.5,
            6875466.613192205
          ],
          [
            446175.26690298505,
            6875487.5
          ],
          [
            446162.5,
            6875506.787060304
          ],
          [
            446158.68821758433,
            6875512.500000001
          ],
          [
            446140.8931689901,
            6875537.5
          ],
          [
            446137.5,
            6875542.372524787
          ],
          [
            446121.7074785439,
            6875562.5
          ],
          [
            446112.5,
            6875574.554074249
          ]
        ]
      }
    },
    {
      "type": "Feature",
      "properties": {
        "method": "transverse height maximum"
      },
      "geometry": {
        "type": "LineString",
        "coordinates": [
          [
            446125.8373446894,
            6876112.5
          ],
          [
            446131.9312670026,
            6876137.5
          ],
          [
            446137.5,
            6876159.572562585
          ],
          [
            446138.3161767036,
            6876162.5
          ],
          [
            446144.7619311176,
            6876187.5
          ],
          [
            446147.7309372284,
            6876212.5
          ],
          [
            446146.11806842056,
            6876237.5
          ],
          [
            446140.90726776107,
            6876262.5
          ],
          [
            446137.5,
            6876273.640081935
          ],
          [
            446133.4673603605,
            6876287.5
          ],
          [
            446124.06695154664,
            6876312.5
          ],
          [
            446112.50000000006,
            6876337.240511236
          ],
          [
            446112.3797482145,
            6876337.5
          ],
          [
            446098.06004614965,
            6876362.5
          ],
          [
            446087.5,
            6876378.154456768
          ],
          [
            446081.0396728767,
            6876387.5
          ],
          [
            446062.5,
            6876410.624491258
          ],
          [
            446060.9253562461,
            6876412.500000001
          ],
          [
            446037.5,
            6876437.051508894
          ],
          [
            446037.0678830987,
            6876437.5
          ]
        ]
      }
    },
    {
      "type": "Feature",
      "properties": {
        "method": "transverse height maximum"
      },
      "geometry": {
        "type": "LineString",
        "coordinates": [
          [
            445779.97370081145,
            6876637.5
          ],
          [
            445768.23055646324,
            6876662.5
          ],
          [
            445762.5,
            6876681.324539086
          ],
          [
            445760.1910906552,
            6876687.5
          ],
          [
            445749.56069781346,
            6876712.5
          ],
          [
            445737.5,
            6876731.803686606
          ],
          [
            445733.4163409427,
            6876737.5
          ],
          [
            445712.99013239087,
            6876762.5
          ],
          [
            445712.5,
            6876763.061900775
          ],
          [
            445693.26416216395,
            6876787.5
          ],
          [
            445687.5,
            6876794.491335907
          ],
          [
            445674.1888377295,
            6876812.5
          ],
          [
            445662.5,
            6876827.927134217
          ],
          [
            445655.4780300001,
            6876837.5
          ],
          [
            445638.140265954,
            6876862.5
          ],
          [
            445637.5,
            6876863.521986954
          ],
          [
            445621.26823809027,
            6876887.5
          ],
          [
            445612.50000000006,
            6876900.43967834
          ],
          [
            445603.7610762407,
            6876912.5
          ],
          [
            445587.5,
            6876933.048475777
          ],
          [
            445583.786215156,
            6876937.5
          ],
          [
            445562.49999999994,
            6876959.287425461
          ]
        ]
      }
    },
    {
      "type": "Feature",
      "properties": {
        "method": "transverse height maximum"
      },
      "geometry": {
        "type": "LineString",
        "coordinates": [
          [
            445000.0,
            6877285.337158312
          ],
          [
            445003.7093261951,
            6877287.5
          ],
          [
            445012.5,
            6877292.829826686
          ],
          [
            445037.5,
            6877311.4200525675
          ],
          [
            445038.7072788109,
            6877312.5
          ],
          [
            445062.5,
            6877334.7000984885
          ],
          [
            445064.96146964637,
            6877337.5
          ],
          [
            445083.5455900866,
            6877362.5
          ],
          [
            445087.5,
            6877367.792377238
          ],
          [
            445100.2438005875,
            6877387.5
          ],
          [
            445112.5,
            6877402.384461935
          ],
          [
            445120.00606116146,
            6877412.5
          ],
          [
            445137.5,
            6877430.15363694
          ],
          [
            445144.33579770074,
            6877437.5
          ]
        ]
      }
    },
    {
      "type": "Feature",
      "properties": {
        "method": "transverse height maximum"
      },
      "geometry": {
        "type": "LineString",
        "coordinates": [
          [
            447937.5,
            6875438.116823538
          ],
          [
            447913.24437046,
            6875462.5
          ],
          [
            447912.5,
            6875463.213342055
          ],
          [
            447887.5,
            6875478.940106087
          ],
          [
            447870.27521410567,
            6875487.5
          ],
          [
            447862.5,
            6875491.419579221
          ],
          [
            447837.5,
            6875504.827349387
          ],
          [
            447824.2643726519,
            6875512.5
          ],
          [
            447812.5,
            6875520.104073755
          ],
          [
            447787.5,
            6875536.393970014
          ],
          [
            447785.9103698711,
            6875537.500000001
          ],
          [
            447762.5,
            6875554.7176999375
          ],
          [
            447751.51834754954,
            6875562.5
          ],
          [
            447737.5,
            6875572.824687943
          ],
          [
            447716.1730278752,
            6875587.5
          ],
          [
            447712.5,
            6875590.07323553
          ],
          [
            447687.5,
            6875608.604416539
          ],
          [
            447682.75298411143,
            6875612.5
          ]
        ]
      }
    },
    {
      "type": "Feature",
      "properties": {
        "method": "transverse height maximum"
      },
      "geometry": {
        "type": "LineString",
        "coordinates": [
          [
            447448.14799861884,
            6875787.5
          ],
          [
            447437.5,
            6875794.616490442
          ],
          [
            447412.5,
            6875810.476455118
          ],
          [
            447409.1410976794,
            6875812.499999999
          ],
          [
            447387.5,
            6875824.498300651
          ],
          [
            447362.50000000006,
            6875835.806529141
          ],
          [
            447357.98274931987,
            6875837.500000001
          ],
          [
            447337.5,
            6875844.872192081
          ],
          [
            447312.5,
            6875851.621767391
          ],
          [
            447287.5,
            6875857.128069343
          ],
          [
            447266.1272365665,
            6875862.5
          ],
          [
            447262.5,
            6875863.619745882
          ],
          [
            447237.5,
            6875873.566686198
          ],
          [
            447212.5,
            6875885.541883052
          ],
          [
            447208.86867566296,
            6875887.5
          ],
          [
            447187.5,
            6875899.216003148
          ],
          [
            447162.50268397393,
            6875912.5
          ],
          [
            447162.5,
            6875912.501384876
          ],
          [
            447137.5,
            6875925.906950804
          ],
          [
            447118.13470382645,
            6875937.5
          ],
          [
            447112.5,
            6875940.8328089705
          ],
          [
            447087.5,
            6875958.65986395
          ],
          [
            447083.33028490184,
            6875962.5
          ],
          [
            447062.5,
            6875979.793602454
          ],
          [
            447054.8473686058,
            6875987.5
          ],
          [
            447037.5,
            6876002.541537961
          ],
          [
            447026.4566603158,
            6876012.5
          ],
          [
            447012.5,
            6876024.303604198
          ],
          [
            446996.2213798531,
            6876037.5
          ],
          [
            446987.5,
            6876045.259230542
          ],
          [
            446967.5338596497,
            6876062.5
          ],
          [
            446962.5,
            6876067.6908961255
          ],
          [
            446943.26868484117,
            6876087.5
          ]
        ]
      }
    },
    {
      "type": "Feature",
      "properties": {
        "method": "transverse height maximum"
      },
      "geometry": {
        "type": "LineString",
        "coordinates": [
          [
            445362.49999999994,
            6876128.7271655165
          ],
          [
            445337.49999999994,
            6876135.17265521
          ],
          [
            445329.25343533716,
            6876137.5
          ],
          [
            445312.5,
            6876141.53990935
          ],
          [
            445287.5,
            6876146.039523705
          ],
          [
            445262.5,
            6876148.794619831
          ],
          [
            445237.5,
            6876151.37148451
          ],
          [
            445212.50000000006,
            6876156.058183871
          ],
          [
            445187.5,
            6876162.150712719
          ],
          [
            445185.2739230122,
            6876162.5
          ],
          [
            445162.5,
            6876165.049609407
          ],
          [
            445137.5,
            6876164.791595219
          ],
          [
            445125.767681085,
            6876162.5
          ],
          [
            445112.50000000006,
            6876159.674192027
          ],
          [
            445087.5,
            6876145.2153365025
          ],
          [
            445073.5530421605,
            6876137.5
          ],
          [
            445062.5,
            6876133.2426574575
          ],
          [
            445049.92141913204,
            6876137.5
          ]
        ]
      }
    },
    {
      "type": "Feature",
      "properties": {
        "method": "transverse height maximum"
      },
      "geometry": {
        "type": "LineString",
        "coordinates": [
          [
            449909.8251288168,
            6876187.5
          ],
          [
            449887.5,
            6876190.976833421
          ],
          [
            449862.5,
            6876196.642234322
          ],
          [
            449837.5,
            6876202.26929078
          ],
          [
            449812.5,
            6876206.7810602905
          ],
          [
            449787.5,
            6876210.162476936
          ],
          [
            449766.34272377705,
            6876212.5
          ],
          [
            449762.5,
            6876212.932193245
          ],
          [
            449737.5,
            6876215.779708423
          ],
          [
            449712.5,
            6876219.2375950655
          ],
          [
            449687.5,
            6876223.99033488
          ],
          [
            449662.50000000006,
            6876230.3234918695
          ],
          [
            449638.5070099804,
            6876237.5
          ],
          [
            449637.5,
            6876237.799091807
          ],
          [
            449612.5,
            6876245.52596526
          ],
          [
            449587.5,
            6876252.659274189
          ],
          [
            449562.5,
            6876259.101969398
          ],
          [
            449548.384121004,
            6876262.5
          ],
          [
            449537.5,
            6876265.042256041
          ],
          [
            449512.5,
            6876270.717644366
          ],
          [
            449487.49999999994,
            6876276.494837798
          ],
          [
            449462.5,
            6876282.630651268
          ],
          [
            449443.67957515386,
            6876287.5
          ],
          [
            449437.5,
            6876289.276052629
          ],
          [
            449412.5,
            6876296.912539448
          ],
          [
            449387.5,
            6876304.832383414
          ],
          [
            449363.08439894737,
            6876312.5
          ],
          [
            449362.5,
            6876312.797406842
          ],
          [
            449337.5,
            6876325.083520895
          ],
          [
            449313.16247370484,
            6876337.5
          ],
          [
            449312.5,
            6876337.893010475
          ],
          [
            449287.50000000006,
            6876351.728158084
          ],
          [
            449264.7835617597,
            6876362.5
          ],
          [
            449262.5,
            6876363.447567909
          ],
          [
            449237.5,
            6876374.514549761
          ],
          [
            449212.49999999994,
            6876385.356058417
          ],
          [
            449208.12614101556,
            6876387.500000001
          ],
          [
            449187.5,
            6876396.514499959
          ],
          [
            449162.50000000006,
            6876407.994723401
          ],
          [
            449153.7711208239,
            6876412.500000001
          ],
          [
            449137.5,
            6876420.470001491
          ],
          [
            449112.5,
            6876433.105091427
          ],
          [
            449104.429039159,
            6876437.5
          ],
          [
            449087.5,
            6876447.256553702
          ],
          [
            449062.5,
            6876462.166650207
          ],
          [
            449061.9847614134,
            6876462.499999999
          ],
          [
            449037.50000000006,
            6876480.459017792
          ],
          [
            449027.32269962505,
            6876487.5
          ],
          [
            449012.5,
            6876499.105297136
          ],
          [
            448993.46203665313,
            6876512.5
          ],
          [
            448987.5,
            6876517.081870149
          ],
          [
            448962.49999999994,
            6876534.398130625
          ],
          [
            448957.4052422641,
            6876537.499999999
          ],
          [
            448937.5,
            6876550.760322187
          ],
          [
            448916.5553437965,
            6876562.5
          ],
          [
            448912.5,
            6876565.110924621
          ],
          [
            448887.5,
            6876579.569765011
          ],
          [
            448872.075854316,
            6876587.5
          ],
          [
            448862.5,
            6876593.451886318
          ],
          [
            448837.50000000006,
            6876607.952815852
          ],
          [
            448829.7000856792,
            6876612.499999999
          ],
          [
            448812.5,
            6876623.8906558985
          ],
          [
            448794.21397912316,
            6876637.5
          ],
          [
            448787.5,
            6876642.824667648
          ],
          [
            448766.33635222644,
            6876662.5
          ],
          [
            448762.5,
            6876666.144400433
          ]
        ]
      }
    },
    {
      "type": "Feature",
      "properties": {
        "method": "transverse height maximum"
      },
      "geometry": {
        "type": "LineString",
        "coordinates": [
          [
            448512.5,
            6876872.734167984
          ],
          [
            448487.5,
            6876872.218097159
          ],
          [
            448462.5,
            6876872.165813679
          ],
          [
            448437.5,
            6876873.565369535
          ],
          [
            448412.5,
            6876877.386660246
          ],
          [
            448387.5,
            6876883.95180568
          ],
          [
            448376.5421166274,
            6876887.5
          ],
          [
            448362.5,
            6876892.124031166
          ],
          [
            448337.5,
            6876899.297287949
          ],
          [
            448312.49999999994,
            6876903.6230564155
          ],
          [
            448287.5,
            6876904.17766137
          ],
          [
            448262.50000000006,
            6876900.410906803
          ],
          [
            448237.5,
            6876892.548064569
          ],
          [
            448227.00954321737,
            6876887.5
          ],
          [
            448212.49999999994,
            6876880.621469327
          ],
          [
            448187.5,
            6876867.743243668
          ],
          [
            448173.90059019,
            6876862.499999999
          ],
          [
            448162.5,
            6876857.474724139
          ],
          [
            448137.5,
            6876851.9023447735
          ]
        ]
      }
    },
    {
      "type": "Feature",
      "properties": {
        "method": "transverse height maximum"
      },
      "geometry": {
        "type": "LineString",
        "coordinates": [
          [
            446300.323272619,
            6877537.5
          ],
          [
            446287.5,
            6877546.85506006
          ],
          [
            446265.964055919,
            6877562.5
          ],
          [
            446262.5,
            6877564.888226627
          ],
          [
            446237.5,
            6877582.669408286
          ],
          [
            446231.1670944543,
            6877587.5
          ],
          [
            446212.49999999994,
            6877601.993154507
          ],
          [
            446199.8121945404,
            6877612.5
          ],
          [
            446187.5,
            6877622.762401587
          ],
          [
            446170.42047576443,
            6877637.5
          ],
          [
            446162.5,
            6877644.018726588
          ],
          [
            446140.1009081191,
            6877662.5
          ],
          [
            446137.5,
            6877664.482107225
          ],
          [
            446112.49999999994,
            6877683.705935835
          ],
          [
            446107.5314944405,
            6877687.5
          ],
          [
            446087.49999999994,
            6877701.927498376
          ],
          [
            446071.9136005269,
            6877712.5
          ],
          [
            446062.5,
            6877718.909734773
          ],
          [
            446037.5,
            6877734.989931564
          ],
          [
            446033.66627706564,
            6877737.5
          ],
          [
            446012.5,
            6877751.63776166
          ],
          [
            445995.5033419953,
            6877762.5
          ],
          [
            445987.5,
            6877767.918618054
          ],
          [
            445962.5,
            6877784.4246911965
          ],
          [
            445957.76030536595,
            6877787.5
          ],
          [
            445937.5,
            6877801.639233837
          ],
          [
            445919.878287007,
            6877812.5
          ],
          [
            445912.5,
            6877817.569886456
          ],
          [
            445887.5,
            6877833.314706928
          ],
          [
            445880.7877671619,
            6877837.5
          ],
          [
            445862.49999999994,
            6877850.440679269
          ],
          [
            445844.9227818316,
            6877862.5
          ],
          [
            445837.5,
            6877868.224651275
          ],
          [
            445812.5,
            6877886.736449137
          ],
          [
            445811.4874069937,
            6877887.5
          ],
          [
            445787.50000000006,
            6877906.121146143
          ],
          [
            445778.4898790347,
            6877912.5
          ],
          [
            445762.5,
            6877924.246695901
          ],
          [
            445741.02711256116,
            6877937.5
          ],
          [
            445737.5,
            6877939.865833631
          ],
          [
            445712.49999999994,
            6877954.17110477
          ],
          [
            445693.76262797334,
            6877962.5
          ],
          [
            445687.5,
            6877965.940249837
          ],
          [
            445662.5,
            6877978.421295745
          ],
          [
            445645.0279249636,
            6877987.5
          ],
          [
            445637.5,
            6877993.230803213
          ],
          [
            445613.90724327404,
            6878012.5
          ]
        ]
      }
    },
    {
      "type": "Feature",
      "properties": {
        "method": "transverse height maximum"
      },
      "geometry": {
        "type": "LineString",
        "coordinates": [
          [
            445437.5,
            6877583.054475067
          ],
          [
            445412.50000000006,
            6877579.059057922
          ],
          [
            445387.5,
            6877575.343681265
          ],
          [
            445362.5,
            6877571.200739587
          ],
          [
            445337.5,
            6877565.359897933
          ],
          [
            445329.49574589386,
            6877562.5
          ],
          [
            445312.5,
            6877555.980965089
          ],
          [
            445287.5,
            6877542.524609107
          ],
          [
            445280.01048117,
            6877537.5
          ],
          [
            445262.5,
            6877527.327287332
          ],
          [
            445240.2179400503,
            6877512.5
          ],
          [
            445237.5,
            6877510.769117487
          ],
          [
            445212.5,
            6877492.713634395
          ],
          [
            445205.94440086716,
            6877487.5
          ]
        ]
      }
    },
    {
      "type": "Feature",
      "properties": {
        "method": "transverse height maximum"
      },
      "geometry": {
        "type": "LineString",
        "coordinates": [
          [
            447387.5,
            6877568.521745228
          ],
          [
            447373.580434227,
            6877587.5
          ],
          [
            447362.5,
            6877596.377902
          ],
          [
            447344.78543891717,
            6877612.5
          ],
          [
            447337.5,
            6877618.314955422
          ],
          [
            447312.50000000006,
            6877636.328867238
          ],
          [
            447310.71567704657,
            6877637.5
          ],
          [
            447287.50000000006,
            6877652.071672859
          ],
          [
            447263.5954797008,
            6877662.5
          ],
          [
            447262.5,
            6877662.977094484
          ],
          [
            447237.5,
            6877673.190256071
          ],
          [
            447212.5,
            6877681.607794865
          ],
          [
            447195.6731447791,
            6877687.5
          ],
          [
            447187.5,
            6877690.2488932125
          ],
          [
            447162.5,
            6877699.694346654
          ],
          [
            447137.5,
            6877710.055221368
          ],
          [
            447132.5501837212,
            6877712.5
          ],
          [
            447112.5,
            6877722.670915618
          ],
          [
            447087.5,
            6877736.10340005
          ],
          [
            447085.10218081024,
            6877737.5
          ],
          [
            447062.5,
            6877750.699217642
          ],
          [
            447041.29031173314,
            6877762.5
          ],
          [
            447037.5,
            6877764.725881986
          ],
          [
            447012.5,
            6877778.585429243
          ],
          [
            446995.34758367407,
            6877787.5
          ],
          [
            446987.5,
            6877792.158842238
          ],
          [
            446962.5,
            6877805.752306546
          ],
          [
            446949.9360208871,
            6877812.5
          ],
          [
            446937.5,
            6877820.132951279
          ],
          [
            446912.50000000006,
            6877835.6679536505
          ],
          [
            446909.7692328925,
            6877837.5
          ],
          [
            446887.5,
            6877854.061532566
          ],
          [
            446875.8165462551,
            6877862.5
          ],
          [
            446862.5,
            6877872.443581063
          ],
          [
            446838.54125423933,
            6877887.5
          ],
          [
            446837.5,
            6877888.168346293
          ],
          [
            446812.5,
            6877902.076442225
          ],
          [
            446793.2099513213,
            6877912.5
          ],
          [
            446787.5,
            6877916.015045831
          ],
          [
            446762.5,
            6877932.341167867
          ],
          [
            446755.24718299037,
            6877937.5
          ],
          [
            446737.5,
            6877953.254231875
          ],
          [
            446726.8539146586,
            6877962.5
          ]
        ]
      }
    },
    {
      "type": "Feature",
      "properties": {
        "method": "transverse height maximum"
      },
      "geometry": {
        "type": "LineString",
        "coordinates": [
          [
            446362.50000000006,
            6878235.228429534
          ],
          [
            446359.3525269321,
            6878237.5
          ],
          [
            446337.5,
            6878253.616786341
          ],
          [
            446323.1215596286,
            6878262.5
          ],
          [
            446312.5,
            6878269.7926028
          ],
          [
            446287.5,
            6878284.987436073
          ],
          [
            446283.4090126446,
            6878287.5
          ],
          [
            446262.5,
            6878301.2088431055
          ],
          [
            446244.4922519918,
            6878312.5
          ],
          [
            446237.5,
            6878317.103631381
          ],
          [
            446212.5,
            6878333.057746769
          ],
          [
            446205.1075791187,
            6878337.5
          ],
          [
            446187.5,
            6878347.62916485
          ],
          [
            446162.49999999994,
            6878358.64781348
          ],
          [
            446151.39311545785,
            6878362.5
          ],
          [
            446137.5,
            6878367.413557042
          ],
          [
            446112.5,
            6878374.970305665
          ],
          [
            446087.5,
            6878382.493103975
          ],
          [
            446073.3942242105,
            6878387.5
          ],
          [
            446062.5,
            6878392.214567968
          ],
          [
            446037.49999999994,
            6878403.909803617
          ],
          [
            446021.01531926944,
            6878412.5
          ],
          [
            446012.5,
            6878417.483325883
          ],
          [
            445987.50000000006,
            6878432.717723966
          ],
          [
            445979.9704157868,
            6878437.5
          ],
          [
            445962.5,
            6878449.745197182
          ],
          [
            445942.0086754064,
            6878462.5
          ],
          [
            445937.5,
            6878466.610264447
          ],
          [
            445912.5,
            6878483.028129233
          ],
          [
            445900.266563648,
            6878487.5
          ]
        ]
      }
    },
    {
      "type": "Feature",
      "properties": {
        "method": "transverse height maximum"
      },
      "geometry": {
        "type": "LineString",
        "coordinates": [
          [
            446987.49999999994,
            6878530.0101412935
          ],
          [
            446962.5,
            6878521.82161066
          ],
          [
            446943.33611198975,
            6878512.5
          ],
          [
            446937.49999999994,
            6878509.257673356
          ],
          [
            446912.5,
            6878492.715825465
          ],
          [
            446904.6208751022,
            6878487.5
          ],
          [
            446887.5,
            6878480.201757557
          ],
          [
            446862.5,
            6878471.185015268
          ],
          [
            446837.5,
            6878463.4284994695
          ],
          [
            446834.4867681229,
            6878462.5
          ],
          [
            446812.5,
            6878457.217853397
          ],
          [
            446787.50000000006,
            6878451.0792217245
          ],
          [
            446762.5,
            6878444.913230208
          ],
          [
            446737.5,
            6878438.991536762
          ],
          [
            446730.0359082173,
            6878437.5
          ],
          [
            446712.5,
            6878434.358134482
          ],
          [
            446687.5,
            6878430.918525746
          ],
          [
            446662.5,
            6878428.067912683
          ],
          [
            446637.5,
            6878424.729712541
          ],
          [
            446612.5,
            6878419.899238869
          ],
          [
            446587.5,
            6878412.942447373
          ],
          [
            446586.3152069482,
            6878412.5
          ],
          [
            446562.5,
            6878402.532500694
          ],
          [
            446537.5,
            6878387.887611552
          ],
          [
            446536.93547920865,
            6878387.5
          ],
          [
            446512.5,
            6878369.059790982
          ],
          [
            446504.34566209506,
            6878362.5
          ],
          [
            446487.5,
            6878349.433054142
          ],
          [
            446472.5753435391,
            6878337.5
          ],
          [
            446462.5,
            6878329.783005985
          ],
          [
            446440.7629385414,
            6878312.5
          ],
          [
            446437.5,
            6878309.988859083
          ],
          [
            446412.5,
            6878289.837797542
          ]
        ]
      }
    },
    {
      "type": "Feature",
      "properties": {
        "method": "transverse height maximum"
      },
      "geometry": {
        "type": "LineString",
        "coordinates": [
          [
            445734.3003735543,
            6878662.5
          ],
          [
            445712.5,
            6878683.806877423
          ],
          [
            445708.7329773906,
            6878687.5
          ],
          [
            445687.5,
            6878706.99374418
          ],
          [
            445680.5102366384,
            6878712.5
          ],
          [
            445662.5,
            6878726.924194448
          ],
          [
            445644.858748967,
            6878737.5
          ],
          [
            445637.5,
            6878741.922332437
          ],
          [
            445612.50000000006,
            6878753.446191025
          ],
          [
            445587.49999999994,
            6878762.365956346
          ],
          [
            445587.16376393917,
            6878762.5
          ],
          [
            445562.5,
            6878772.091362617
          ],
          [
            445537.5,
            6878781.3908339925
          ],
          [
            445520.57242831914,
            6878787.5
          ],
          [
            445512.5,
            6878790.433348825
          ],
          [
            445487.5,
            6878798.354034786
          ],
          [
            445462.5,
            6878804.45683026
          ],
          [
            445437.5,
            6878809.175848051
          ],
          [
            445412.5,
            6878812.438337275
          ],
          [
            445387.5,
            6878811.6560616465
          ],
          [
            445362.5,
            6878794.526238981
          ],
          [
            445357.602783524,
            6878787.5
          ]
        ]
      }
    },
    {
      "type": "Feature",
      "properties": {
        "method": "transverse height maximum"
      },
      "geometry": {
        "type": "LineString",
        "coordinates": [
          [
            446662.5,
            6879025.565179813
          ],
          [
            446637.5,
            6879024.102660258
          ],
          [
            446612.5,
            6879022.5588667095
          ],
          [
            446587.5,
            6879021.090232579
          ],
          [
            446562.5,
            6879019.678290015
          ],
          [
            446537.5,
            6879018.159921721
          ],
          [
            446512.5,
            6879016.713229336
          ],
          [
            446487.5,
            6879015.954803131
          ],
          [
            446462.5,
            6879015.832642459
          ],
          [
            446437.5,
            6879015.646677452
          ],
          [
            446412.5,
            6879015.041830408
          ],
          [
            446387.5,
            6879014.188214118
          ],
          [
            446362.5,
            6879013.519179199
          ],
          [
            446337.5,
            6879013.4987628395
          ],
          [
            446312.5,
            6879014.499909403
          ],
          [
            446287.5,
            6879016.709092562
          ],
          [
            446262.5,
            6879019.798369084
          ],
          [
            446237.5,
            6879022.608344178
          ],
          [
            446212.5,
            6879023.730128409
          ],
          [
            446187.5,
            6879022.671247452
          ],
          [
            446162.5,
            6879019.736243071
          ],
          [
            446137.5,
            6879015.112962157
          ],
          [
            446126.9585370998,
            6879012.5
          ],
          [
            446112.49999999994,
            6879008.391147832
          ],
          [
            446087.5,
            6878999.467318699
          ],
          [
            446062.5,
            6878988.735614486
          ],
          [
            446059.5511924782,
            6878987.5
          ],
          [
            446037.5,
            6878976.903537176
          ],
          [
            446012.5,
            6878964.772581919
          ],
          [
            446007.89339475776,
            6878962.5
          ],
          [
            445987.49999999994,
            6878953.737471879
          ],
          [
            445962.5,
            6878942.47756305
          ],
          [
            445951.45776340185,
            6878937.5
          ],
          [
            445937.5,
            6878932.024407748
          ],
          [
            445912.5,
            6878922.616937576
          ],
          [
            445887.5,
            6878913.373587911
          ],
          [
            445885.2407802588,
            6878912.5
          ],
          [
            445862.50000000006,
            6878904.193697445
          ],
          [
            445837.5,
            6878893.243280108
          ],
          [
            445826.1748919651,
            6878887.5
          ],
          [
            445812.49999999994,
            6878880.676862984
          ],
          [
            445787.5,
            6878866.972436143
          ],
          [
            445780.10032179544,
            6878862.5
          ],
          [
            445762.5,
            6878852.1289988775
          ]
        ]
      }
    },
    {
      "type": "Feature",
      "properties": {
        "method": "transverse height maximum"
      },
      "geometry": {
        "type": "LineString",
        "coordinates": [
          [
            449637.5,
            6879085.437445453
          ],
          [
            449612.50000000006,
            6879077.243418876
          ],
          [
            449587.5,
            6879070.730609085
          ],
          [
            449562.5,
            6879065.330276629
          ],
          [
            449548.54014932294,
            6879062.5
          ],
          [
            449537.5,
            6879059.7502221605
          ],
          [
            449512.5,
            6879052.14548174
          ],
          [
            449487.5,
            6879040.314275713
          ],
          [
            449483.2500727179,
            6879037.5
          ],
          [
            449462.5,
            6879021.215956909
          ],
          [
            449452.6891943982,
            6879012.5
          ],
          [
            449437.5,
            6879003.144082325
          ],
          [
            449412.5,
            6878989.433306476
          ],
          [
            449408.45504434395,
            6878987.5
          ]
        ]
      }
    }
  ],
  "provenance": {
    "source_url": "https://data.geopf.fr/wms-r/wms?SERVICE=WMS&VERSION=1.3.0&REQUEST=GetMap&LAYERS=ELEVATION.ELEVATIONGRIDCOVERAGE.HIGHRES&STYLES=normal&CRS=EPSG%3A2154&BBOX=444500.0%2C6874500.0%2C450500.0%2C6880500.0&WIDTH=240&HEIGHT=240&FORMAT=image%2Ftiff",
    "dataset_url": "https://www.data.gouv.fr/datasets/rge-alti-r",
    "layer": "ELEVATION.ELEVATIONGRIDCOVERAGE.HIGHRES",
    "attribution": "Crests derived from © IGN RGE ALTI · Licence Ouverte 2.0",
    "licence": "Licence Ouverte 2.0",
    "retrieved_utc": "2026-09-22T15:24:21.446168+00:00",
    "derived_utc": "2026-09-22T15:29:06.469181+00:00",
    "derivation_code_sha256": "097f79508273c65e26912088bd99b8e73fa7f20c2eed2ff01fec7fabbd3821be",
    "response_bytes": 230534,
    "response_sha256": "30d8ef01fb25bcb8ab928cccbd7b78636adddf37d2adbafb58e9da8b3baa30e1",
    "terrain_file": "ign-terrain-89-1375.tif",
    "raster_bounds_epsg2154": [
      444500.0,
      6874500.0,
      450500.0,
      6880500.0
    ],
    "bounds_epsg2154": [
      445000.0,
      6875000.0,
      450000.0,
      6880000.0
    ],
    "parameters": {
      "grid_m": 25,
      "buffer_m": 500,
      "gaussian_sigma_m": 50,
      "minimum_transverse_curvature_per_m": 0.0003,
      "transverse_probe_m": 200,
      "minimum_drop_each_side_m": 5,
      "minimum_line_length_m": 200
    },
    "terrain_height_range_m": [
      24.402490615844727,
      305.5207824707031
    ],
    "method": "Gaussian-smoothed DEM; zero derivative along most concave Hessian eigenvector; negative curvature, two-sided drop and length filters. No flight coordinates used.",
    "limitations": "Approximate, scale-dependent crests; not an official or exhaustive ridge network. Gaps remain at weak ridges, orientation transitions and junctions; no invented links."
  }
}
