{
  "type": "FeatureCollection",
  "features": [
    {
      "type": "Feature",
      "id": "detail_orographique.93838",
      "geometry": {
        "type": "Point",
        "coordinates": [
          528651.40012566,
          6213579.60472413
        ]
      },
      "geometry_name": "geometrie",
      "properties": {
        "cleabs": "PAIOROGR0000000073014353",
        "nature": "Sommet",
        "nature_detaillee": null,
        "toponyme": "le Tuc",
        "statut_du_toponyme": "Validé",
        "importance": "5",
        "date_creation": "2007-05-04T11:58:02.915Z",
        "date_modification": "2019-09-20T16:10:23.317Z",
        "date_d_apparition": null,
        "date_de_confirmation": null,
        "sources": null,
        "identifiants_sources": null,
        "methode_d_acquisition_planimetrique": "BDNyme",
        "precision_planimetrique": 30,
        "insee_commune": "31140",
        "identifiant_voie_ban": null,
        "id_ban_odonyme": null
      }
    },
    {
      "type": "Feature",
      "id": "detail_orographique.93843",
      "geometry": {
        "type": "Point",
        "coordinates": [
          528635.9001257,
          6214834.40472448
        ]
      },
      "geometry_name": "geometrie",
      "properties": {
        "cleabs": "PAIOROGR0000000073014359",
        "nature": "Sommet",
        "nature_detaillee": null,
        "toponyme": "Tucau",
        "statut_du_toponyme": "Validé",
        "importance": "5",
        "date_creation": "2007-05-04T11:58:02.915Z",
        "date_modification": "2019-09-20T16:10:23.317Z",
        "date_d_apparition": null,
        "date_de_confirmation": null,
        "sources": null,
        "identifiants_sources": null,
        "methode_d_acquisition_planimetrique": "BDNyme",
        "precision_planimetrique": 30,
        "insee_commune": "31140",
        "identifiant_voie_ban": null,
        "id_ban_odonyme": null
      }
    },
    {
      "type": "Feature",
      "id": "detail_orographique.93923",
      "geometry": {
        "type": "Point",
        "coordinates": [
          528946.40012535,
          6210361.70472324
        ]
      },
      "geometry_name": "geometrie",
      "properties": {
        "cleabs": "PAIOROGR0000000073014439",
        "nature": "Sommet",
        "nature_detaillee": null,
        "toponyme": "Sougasses",
        "statut_du_toponyme": "Validé",
        "importance": "5",
        "date_creation": "2007-05-04T11:58:02.915Z",
        "date_modification": "2019-09-20T16:10:23.317Z",
        "date_d_apparition": null,
        "date_de_confirmation": null,
        "sources": null,
        "identifiants_sources": "",
        "methode_d_acquisition_planimetrique": "BDNyme",
        "precision_planimetrique": 30,
        "insee_commune": "31236",
        "identifiant_voie_ban": null,
        "id_ban_odonyme": null
      }
    },
    {
      "type": "Feature",
      "id": "detail_orographique.93927",
      "geometry": {
        "type": "Point",
        "coordinates": [
          527585.00012638,
          6211580.70472355
        ]
      },
      "geometry_name": "geometrie",
      "properties": {
        "cleabs": "PAIOROGR0000000073014443",
        "nature": "Sommet",
        "nature_detaillee": null,
        "toponyme": "Mail de Bourusse",
        "statut_du_toponyme": "Validé",
        "importance": "4",
        "date_creation": "2007-05-04T11:58:02.915Z",
        "date_modification": "2019-09-20T16:10:23.317Z",
        "date_d_apparition": null,
        "date_de_confirmation": null,
        "sources": null,
        "identifiants_sources": null,
        "methode_d_acquisition_planimetrique": "BDNyme",
        "precision_planimetrique": 30,
        "insee_commune": "31236",
        "identifiant_voie_ban": null,
        "id_ban_odonyme": null
      }
    },
    {
      "type": "Feature",
      "id": "detail_orographique.93928",
      "geometry": {
        "type": "Point",
        "coordinates": [
          528485.70012576,
          6212863.80472393
        ]
      },
      "geometry_name": "geometrie",
      "properties": {
        "cleabs": "PAIOROGR0000000073014444",
        "nature": "Sommet",
        "nature_detaillee": null,
        "toponyme": "Tuc de Masquere",
        "statut_du_toponyme": "Validé",
        "importance": "5",
        "date_creation": "2007-05-04T11:58:02.915Z",
        "date_modification": "2019-09-20T16:10:23.317Z",
        "date_d_apparition": null,
        "date_de_confirmation": null,
        "sources": null,
        "identifiants_sources": null,
        "methode_d_acquisition_planimetrique": "BDNyme",
        "precision_planimetrique": 30,
        "insee_commune": "31011",
        "identifiant_voie_ban": null,
        "id_ban_odonyme": null
      }
    },
    {
      "type": "Feature",
      "id": "detail_orographique.93929",
      "geometry": {
        "type": "Point",
        "coordinates": [
          529607.4001249,
          6211411.10472355
        ]
      },
      "geometry_name": "geometrie",
      "properties": {
        "cleabs": "PAIOROGR0000000073014445",
        "nature": "Sommet",
        "nature_detaillee": null,
        "toponyme": "Montagnat",
        "statut_du_toponyme": "Validé",
        "importance": "4",
        "date_creation": "2007-05-04T11:58:02.915Z",
        "date_modification": "2019-09-20T16:10:23.317Z",
        "date_d_apparition": null,
        "date_de_confirmation": null,
        "sources": null,
        "identifiants_sources": null,
        "methode_d_acquisition_planimetrique": "BDNyme",
        "precision_planimetrique": 30,
        "insee_commune": "31011",
        "identifiant_voie_ban": null,
        "id_ban_odonyme": null
      }
    },
    {
      "type": "Feature",
      "id": "detail_orographique.93934",
      "geometry": {
        "type": "Point",
        "coordinates": [
          526968.10012681,
          6210547.00472324
        ]
      },
      "geometry_name": "geometrie",
      "properties": {
        "cleabs": "PAIOROGR0000000073014450",
        "nature": "Sommet",
        "nature_detaillee": null,
        "toponyme": "Mail des Hustes",
        "statut_du_toponyme": "Validé",
        "importance": "5",
        "date_creation": "2007-05-04T11:58:02.915Z",
        "date_modification": "2019-09-20T16:10:23.317Z",
        "date_d_apparition": null,
        "date_de_confirmation": null,
        "sources": null,
        "identifiants_sources": null,
        "methode_d_acquisition_planimetrique": "BDNyme",
        "precision_planimetrique": 30,
        "insee_commune": "31236",
        "identifiant_voie_ban": null,
        "id_ban_odonyme": null
      }
    },
    {
      "type": "Feature",
      "id": "detail_orographique.93945",
      "geometry": {
        "type": "Point",
        "coordinates": [
          525591.30012786,
          6212076.70472363
        ]
      },
      "geometry_name": "geometrie",
      "properties": {
        "cleabs": "PAIOROGR0000000073014461",
        "nature": "Sommet",
        "nature_detaillee": null,
        "toponyme": "Sommet de la Rueron",
        "statut_du_toponyme": "Validé",
        "importance": "5",
        "date_creation": "2007-05-04T11:58:02.915Z",
        "date_modification": "2019-09-20T16:10:23.317Z",
        "date_d_apparition": null,
        "date_de_confirmation": null,
        "sources": null,
        "identifiants_sources": null,
        "methode_d_acquisition_planimetrique": "BDNyme",
        "precision_planimetrique": 30,
        "insee_commune": "31140",
        "identifiant_voie_ban": null,
        "id_ban_odonyme": null
      }
    },
    {
      "type": "Feature",
      "id": "detail_orographique.93946",
      "geometry": {
        "type": "Point",
        "coordinates": [
          526299.70012735,
          6212396.90472374
        ]
      },
      "geometry_name": "geometrie",
      "properties": {
        "cleabs": "PAIOROGR0000000073014462",
        "nature": "Sommet",
        "nature_detaillee": null,
        "toponyme": "Cap de l'Aure",
        "statut_du_toponyme": "Validé",
        "importance": "5",
        "date_creation": "2007-05-04T11:58:02.915Z",
        "date_modification": "2020-06-05T21:50:25.454Z",
        "date_d_apparition": null,
        "date_de_confirmation": null,
        "sources": null,
        "identifiants_sources": null,
        "methode_d_acquisition_planimetrique": "BDNyme",
        "precision_planimetrique": 30,
        "insee_commune": "31236",
        "identifiant_voie_ban": null,
        "id_ban_odonyme": null
      }
    }
  ],
  "totalFeatures": 9,
  "numberMatched": 9,
  "numberReturned": 9,
  "timeStamp": "2026-10-06T17:43:44.455Z",
  "crs": {
    "type": "name",
    "properties": {
      "name": "urn:ogc:def:crs:EPSG::2154"
    }
  },
  "provenance": {
    "source_url": "https://data.geopf.fr/wfs/ows?SERVICE=WFS&VERSION=2.0.0&REQUEST=GetFeature&TYPENAMES=BDTOPO_V3%3Adetail_orographique&SRSNAME=EPSG%3A2154&CQL_FILTER=BBOX%28geometrie%2C525000%2C6.21e%2B06%2C530000%2C6.215e%2B06%2C%27EPSG%3A2154%27%29+AND+nature+IN+%28%27Sommet%27%2C%27Pic%27%29&OUTPUTFORMAT=application%2Fjson&COUNT=1000",
    "dataset_url": "https://www.data.gouv.fr/datasets/bd-topo-r",
    "layer": "BDTOPO_V3:detail_orographique",
    "attribution": "Summits: © IGN · BD TOPO · Licence Ouverte 2.0",
    "licence": "Licence Ouverte 2.0",
    "retrieved_utc": "2026-10-06T17:43:44.440120+00:00",
    "response_sha256": "fef90442505b02d3b44aefb0307640d18655e801f743b76cf488161315d8bd86",
    "response_bytes": 6143,
    "response_feature_count": 9,
    "bounds_epsg2154": [
      525000.0,
      6210000.0,
      530000.0,
      6215000.0
    ],
    "selection": "Sommet/Pic only; exact Lambert-93 cell bounds.",
    "note": "Named summits; not a complete ridge network or DEM maxima."
  }
}
