{
  "type": "FeatureCollection",
  "crs": {
    "type": "name",
    "properties": {
      "name": "EPSG:2154"
    }
  },
  "features": [
    {
      "type": "Feature",
      "properties": {
        "method": "transverse height maximum"
      },
      "geometry": {
        "type": "LineString",
        "coordinates": [
          [
            956252.1840579875,
            6535000.0
          ],
          [
            956253.7377518797,
            6535012.500000001
          ],
          [
            956254.9966794566,
            6535037.5
          ],
          [
            956255.6608088621,
            6535062.5
          ],
          [
            956257.0687737,
            6535087.5
          ],
          [
            956260.2195006713,
            6535112.5
          ],
          [
            956262.5,
            6535122.833492925
          ],
          [
            956265.3428655544,
            6535137.5
          ],
          [
            956271.8347374458,
            6535162.5
          ],
          [
            956279.220176608,
            6535187.5
          ],
          [
            956287.2774831869,
            6535212.5
          ],
          [
            956287.5,
            6535213.156449844
          ],
          [
            956295.3940746188,
            6535237.5
          ],
          [
            956303.2639317906,
            6535262.5
          ],
          [
            956311.4403216131,
            6535287.5
          ],
          [
            956312.5,
            6535290.60988744
          ],
          [
            956320.345624159,
            6535312.5
          ],
          [
            956330.1619468706,
            6535337.5
          ],
          [
            956337.5,
            6535353.719963171
          ],
          [
            956341.706798428,
            6535362.5
          ],
          [
            956354.1867264402,
            6535387.5
          ],
          [
            956362.5,
            6535401.909883517
          ],
          [
            956368.4322548833,
            6535412.5
          ],
          [
            956383.9237489055,
            6535437.5
          ],
          [
            956387.5,
            6535442.721292579
          ],
          [
            956399.8555300453,
            6535462.5
          ],
          [
            956412.5,
            6535481.214023464
          ],
          [
            956416.4005331624,
            6535487.5
          ],
          [
            956431.6112343976,
            6535512.5
          ],
          [
            956437.5,
            6535521.978745603
          ],
          [
            956446.0263633498,
            6535537.5
          ],
          [
            956459.9413717837,
            6535562.5
          ],
          [
            956462.5,
            6535566.98628938
          ],
          [
            956473.9361162186,
            6535587.5
          ],
          [
            956487.5,
            6535611.134726282
          ],
          [
            956488.3090205133,
            6535612.5
          ],
          [
            956501.2465160172,
            6535637.5
          ],
          [
            956512.5,
            6535660.8417758895
          ],
          [
            956513.3132420457,
            6535662.5
          ],
          [
            956523.2099532356,
            6535687.5
          ],
          [
            956531.6293501154,
            6535712.5
          ],
          [
            956537.5,
            6535732.44267462
          ],
          [
            956539.163423393,
            6535737.5
          ],
          [
            956547.1634568565,
            6535762.5
          ],
          [
            956557.0194854778,
            6535787.5
          ],
          [
            956562.5,
            6535799.522688171
          ],
          [
            956568.1690961013,
            6535812.5
          ],
          [
            956580.1293876522,
            6535837.5
          ],
          [
            956587.5,
            6535852.140377347
          ],
          [
            956592.0473739322,
            6535862.5
          ],
          [
            956603.3408810248,
            6535887.5
          ],
          [
            956612.5,
            6535907.155945901
          ],
          [
            956614.6619471823,
            6535912.5
          ],
          [
            956625.0398887321,
            6535937.5
          ],
          [
            956636.944300683,
            6535962.5
          ],
          [
            956637.5000000001,
            6535963.4457794735
          ],
          [
            956650.2032954209,
            6535987.5
          ],
          [
            956662.5,
            6536002.292351542
          ],
          [
            956670.1622026867,
            6536012.5
          ]
        ]
      }
    },
    {
      "type": "Feature",
      "properties": {
        "method": "transverse height maximum"
      },
      "geometry": {
        "type": "LineString",
        "coordinates": [
          [
            959929.7437237464,
            6535000.0
          ],
          [
            959930.6229466753,
            6535012.5
          ],
          [
            959931.9989867832,
            6535037.499999999
          ],
          [
            959933.2340523988,
            6535062.5
          ]
        ]
      }
    },
    {
      "type": "Feature",
      "properties": {
        "method": "transverse height maximum"
      },
      "geometry": {
        "type": "LineString",
        "coordinates": [
          [
            959295.9452451023,
            6535237.5
          ],
          [
            959312.5,
            6535254.158851395
          ],
          [
            959319.4133168596,
            6535262.5
          ],
          [
            959333.5008083201,
            6535287.5
          ],
          [
            959337.5000000001,
            6535296.281552575
          ],
          [
            959345.4992994382,
            6535312.5
          ],
          [
            959357.2047538727,
            6535337.5
          ],
          [
            959362.5,
            6535349.235724548
          ],
          [
            959370.618393813,
            6535362.5
          ],
          [
            959387.5,
            6535387.335262568
          ],
          [
            959387.6603819323,
            6535387.5
          ],
          [
            959412.5,
            6535409.483023496
          ],
          [
            959416.3976369284,
            6535412.5
          ],
          [
            959437.5,
            6535425.805625386
          ],
          [
            959449.8769773479,
            6535437.5
          ],
          [
            959462.5,
            6535449.755788536
          ],
          [
            959470.4348699396,
            6535462.5
          ],
          [
            959481.8729874294,
            6535487.5
          ],
          [
            959487.5,
            6535507.897475762
          ],
          [
            959488.5928146596,
            6535512.5
          ],
          [
            959491.8910780742,
            6535537.5
          ],
          [
            959493.8919067356,
            6535562.5
          ],
          [
            959495.1009686266,
            6535587.5
          ],
          [
            959495.8153500984,
            6535612.5
          ],
          [
            959496.4132560769,
            6535637.5
          ],
          [
            959496.6344071408,
            6535662.5
          ],
          [
            959494.962036307,
            6535687.5
          ],
          [
            959489.8313939628,
            6535712.5
          ],
          [
            959487.5,
            6535724.022310551
          ],
          [
            959484.351875725,
            6535737.499999999
          ],
          [
            959483.6038074502,
            6535762.5
          ]
        ]
      }
    },
    {
      "type": "Feature",
      "properties": {
        "method": "transverse height maximum"
      },
      "geometry": {
        "type": "LineString",
        "coordinates": [
          [
            956562.4999999999,
            6536052.096304296
          ],
          [
            956544.5508180202,
            6536062.5
          ],
          [
            956537.5,
            6536083.718097712
          ],
          [
            956535.980522006,
            6536087.5
          ],
          [
            956532.9115544179,
            6536112.5
          ],
          [
            956530.8943784675,
            6536137.5
          ],
          [
            956527.4125713255,
            6536162.5
          ],
          [
            956522.5066004135,
            6536187.5
          ],
          [
            956516.9998118542,
            6536212.5
          ],
          [
            956512.5000000001,
            6536233.605931782
          ],
          [
            956511.7767013623,
            6536237.5
          ],
          [
            956508.0100980576,
            6536262.500000001
          ],
          [
            956506.1187351564,
            6536287.5
          ],
          [
            956506.3270603021,
            6536312.5
          ],
          [
            956507.9177988321,
            6536337.500000001
          ],
          [
            956509.7080073898,
            6536362.5
          ],
          [
            956510.229886902,
            6536387.5
          ],
          [
            956506.2960101481,
            6536412.5
          ],
          [
            956493.8117130927,
            6536437.5
          ],
          [
            956487.5,
            6536450.534493255
          ],
          [
            956475.2933330005,
            6536462.5
          ],
          [
            956477.9242231845,
            6536487.5
          ],
          [
            956487.5,
            6536500.9110051785
          ],
          [
            956495.9654742525,
            6536512.5
          ],
          [
            956512.5,
            6536528.871512823
          ],
          [
            956525.3319286467,
            6536537.5
          ],
          [
            956537.5000000001,
            6536544.095040702
          ],
          [
            956557.4806781805,
            6536562.5
          ],
          [
            956562.5,
            6536567.500727351
          ],
          [
            956571.5214337555,
            6536587.5
          ],
          [
            956579.6729728995,
            6536612.5
          ],
          [
            956585.6844502619,
            6536637.5
          ],
          [
            956587.5,
            6536650.299471957
          ],
          [
            956589.7541365955,
            6536662.5
          ],
          [
            956587.5,
            6536669.533510795
          ],
          [
            956562.5,
            6536672.678090939
          ]
        ]
      }
    },
    {
      "type": "Feature",
      "properties": {
        "method": "transverse height maximum"
      },
      "geometry": {
        "type": "LineString",
        "coordinates": [
          [
            959212.5,
            6536104.033150647
          ],
          [
            959216.2345718705,
            6536112.5
          ],
          [
            959222.1863627066,
            6536137.5
          ],
          [
            959225.4724628223,
            6536162.5
          ],
          [
            959228.4549310002,
            6536187.5
          ],
          [
            959231.9046286943,
            6536212.5
          ],
          [
            959235.0162995104,
            6536237.500000001
          ],
          [
            959234.396762246,
            6536262.499999999
          ],
          [
            959228.521469652,
            6536287.5
          ],
          [
            959221.6614598691,
            6536312.5
          ],
          [
            959215.6571159082,
            6536337.5
          ],
          [
            959212.5,
            6536349.110058857
          ],
          [
            959207.5943074409,
            6536362.5
          ],
          [
            959196.110001451,
            6536387.5
          ],
          [
            959187.5,
            6536402.103740874
          ],
          [
            959181.5708078422,
            6536412.5
          ],
          [
            959168.4972973983,
            6536437.5
          ],
          [
            959162.5,
            6536454.017733834
          ],
          [
            959159.4131558712,
            6536462.5
          ],
          [
            959152.3923770557,
            6536487.5
          ],
          [
            959146.0443745342,
            6536512.5
          ],
          [
            959138.7892001951,
            6536537.5
          ],
          [
            959137.5,
            6536541.007560115
          ],
          [
            959127.9204748316,
            6536562.5
          ],
          [
            959115.9128292546,
            6536587.5
          ],
          [
            959112.5,
            6536594.394893715
          ],
          [
            959102.3238094049,
            6536612.5
          ],
          [
            959088.8265775628,
            6536637.5
          ],
          [
            959087.5,
            6536640.00617871
          ],
          [
            959073.2522841471,
            6536662.5
          ],
          [
            959062.5,
            6536681.492751045
          ],
          [
            959058.4719750987,
            6536687.5
          ],
          [
            959043.9694570862,
            6536712.5
          ],
          [
            959037.5000000001,
            6536726.617525243
          ],
          [
            959032.6472031196,
            6536737.5
          ],
          [
            959012.5,
            6536760.998623775
          ],
          [
            959010.4920671517,
            6536762.5
          ],
          [
            958987.5,
            6536774.897737855
          ],
          [
            958966.9651646023,
            6536787.5
          ]
        ]
      }
    },
    {
      "type": "Feature",
      "properties": {
        "method": "transverse height maximum"
      },
      "geometry": {
        "type": "LineString",
        "coordinates": [
          [
            959661.66363512,
            6536387.5
          ],
          [
            959657.0520333793,
            6536412.5
          ],
          [
            959646.6018101015,
            6536437.5
          ],
          [
            959637.5,
            6536452.696894504
          ],
          [
            959632.3500541198,
            6536462.5
          ],
          [
            959616.7017378255,
            6536487.5
          ],
          [
            959612.5,
            6536494.790665531
          ],
          [
            959602.0841360209,
            6536512.5
          ],
          [
            959589.5681978642,
            6536537.5
          ],
          [
            959587.5,
            6536541.974421287
          ],
          [
            959576.5556768923,
            6536562.5
          ],
          [
            959564.2786059628,
            6536587.5
          ],
          [
            959562.5,
            6536591.348258552
          ],
          [
            959549.6061688375,
            6536612.5
          ],
          [
            959539.0631015004,
            6536637.5
          ],
          [
            959537.5,
            6536643.049193832
          ]
        ]
      }
    },
    {
      "type": "Feature",
      "properties": {
        "method": "transverse height maximum"
      },
      "geometry": {
        "type": "LineString",
        "coordinates": [
          [
            956527.7046268142,
            6536662.5
          ],
          [
            956512.5,
            6536641.007509318
          ],
          [
            956506.3749681785,
            6536637.5
          ],
          [
            956490.9202999737,
            6536612.5
          ],
          [
            956487.5,
            6536607.565053157
          ],
          [
            956476.463631058,
            6536612.5
          ],
          [
            956462.5,
            6536616.018207977
          ],
          [
            956446.7619698666,
            6536637.5
          ],
          [
            956437.4999999999,
            6536654.031139367
          ],
          [
            956434.3590544979,
            6536662.5
          ],
          [
            956427.5442568057,
            6536687.5
          ],
          [
            956422.8630178162,
            6536712.5
          ],
          [
            956419.253012025,
            6536737.5
          ],
          [
            956416.0272804806,
            6536762.5
          ],
          [
            956412.7591998124,
            6536787.5
          ],
          [
            956412.5,
            6536789.474582924
          ],
          [
            956409.1330230221,
            6536812.499999999
          ],
          [
            956404.7436994547,
            6536837.5
          ],
          [
            956398.5362777818,
            6536862.5
          ],
          [
            956387.5,
            6536880.865965281
          ],
          [
            956362.5,
            6536886.859389106
          ],
          [
            956361.0519752839,
            6536887.5
          ],
          [
            956337.5,
            6536901.006788912
          ],
          [
            956323.6433684146,
            6536912.5
          ],
          [
            956312.5000000001,
            6536935.390786446
          ]
        ]
      }
    },
    {
      "type": "Feature",
      "properties": {
        "method": "transverse height maximum"
      },
      "geometry": {
        "type": "LineString",
        "coordinates": [
          [
            956402.7245714854,
            6536912.5
          ],
          [
            956412.5,
            6536899.035762438
          ],
          [
            956423.9171732424,
            6536912.5
          ],
          [
            956437.5,
            6536927.711958204
          ],
          [
            956441.7306766013,
            6536937.5
          ],
          [
            956449.2669809307,
            6536962.5
          ],
          [
            956451.7429387405,
            6536987.5
          ],
          [
            956437.5,
            6537005.461951583
          ],
          [
            956412.5,
            6536991.698730504
          ],
          [
            956410.3048780895,
            6536987.5
          ],
          [
            956400.8236304622,
            6536962.5
          ],
          [
            956398.3649515643,
            6536937.5
          ],
          [
            956402.7245714854,
            6536912.5
          ]
        ]
      }
    },
    {
      "type": "Feature",
      "properties": {
        "method": "transverse height maximum"
      },
      "geometry": {
        "type": "LineString",
        "coordinates": [
          [
            957734.995779783,
            6536962.5
          ],
          [
            957730.4228881189,
            6536987.5
          ],
          [
            957725.6622854961,
            6537012.5
          ],
          [
            957720.2483401326,
            6537037.5
          ],
          [
            957713.7756742737,
            6537062.5
          ],
          [
            957712.5,
            6537066.262117778
          ],
          [
            957707.708175024,
            6537087.5
          ],
          [
            957701.7195746813,
            6537112.5
          ],
          [
            957695.4190743463,
            6537137.5
          ],
          [
            957689.2234092345,
            6537162.5
          ],
          [
            957687.5,
            6537170.209707422
          ]
        ]
      }
    },
    {
      "type": "Feature",
      "properties": {
        "method": "transverse height maximum"
      },
      "geometry": {
        "type": "LineString",
        "coordinates": [
          [
            958762.5,
            6536976.955312655
          ],
          [
            958774.0891147635,
            6536987.5
          ],
          [
            958787.0268665687,
            6537012.5
          ],
          [
            958777.7163988383,
            6537037.5
          ],
          [
            958762.5,
            6537047.170578826
          ],
          [
            958737.8506478817,
            6537062.5
          ],
          [
            958737.5,
            6537062.673266841
          ],
          [
            958712.5,
            6537082.5478976825
          ],
          [
            958709.1005605166,
            6537087.5
          ],
          [
            958690.0466636156,
            6537112.5
          ],
          [
            958687.5,
            6537118.28174438
          ],
          [
            958680.1686173645,
            6537137.499999999
          ],
          [
            958684.6736653603,
            6537162.5
          ]
        ]
      }
    },
    {
      "type": "Feature",
      "properties": {
        "method": "transverse height maximum"
      },
      "geometry": {
        "type": "LineString",
        "coordinates": [
          [
            957537.5,
            6537280.12294303
          ],
          [
            957512.5,
            6537276.270728913
          ],
          [
            957489.3788283595,
            6537287.5
          ],
          [
            957487.5,
            6537288.591264727
          ],
          [
            957470.4256588548,
            6537312.5
          ],
          [
            957462.5000000001,
            6537330.189606877
          ],
          [
            957460.1294495394,
            6537337.5
          ],
          [
            957452.1880613158,
            6537362.500000001
          ],
          [
            957444.1485551898,
            6537387.5
          ],
          [
            957437.7061694438,
            6537412.5
          ],
          [
            957437.5,
            6537413.731949906
          ],
          [
            957434.1203640086,
            6537437.500000001
          ],
          [
            957431.8223958018,
            6537462.5
          ],
          [
            957430.1889654677,
            6537487.5
          ],
          [
            957429.0692907852,
            6537512.5
          ],
          [
            957428.4287957153,
            6537537.5
          ],
          [
            957428.2128100676,
            6537562.5
          ],
          [
            957428.2702197097,
            6537587.5
          ],
          [
            957428.3273768503,
            6537612.5
          ],
          [
            957428.1747467733,
            6537637.5
          ],
          [
            957427.9345677807,
            6537662.5
          ],
          [
            957428.1147547066,
            6537687.5
          ],
          [
            957429.3671962701,
            6537712.5
          ],
          [
            957432.0143468821,
            6537737.5
          ],
          [
            957435.769676284,
            6537762.499999999
          ],
          [
            957437.5,
            6537772.867127419
          ],
          [
            957440.0713108168,
            6537787.5
          ],
          [
            957443.8298711678,
            6537812.5
          ],
          [
            957446.3060894153,
            6537837.5
          ],
          [
            957447.0867961397,
            6537862.5
          ],
          [
            957445.9320235306,
            6537887.5
          ],
          [
            957443.2105711503,
            6537912.5
          ],
          [
            957440.7160990633,
            6537937.5
          ],
          [
            957440.6909755234,
            6537962.5
          ],
          [
            957442.8011813478,
            6537987.5
          ],
          [
            957445.7134444236,
            6538012.5
          ],
          [
            957448.591465,
            6538037.5
          ],
          [
            957450.7260391323,
            6538062.5
          ],
          [
            957451.3351664867,
            6538087.500000001
          ],
          [
            957450.4749741191,
            6538112.5
          ],
          [
            957450.1551002691,
            6538137.5
          ],
          [
            957452.4697375197,
            6538162.5
          ],
          [
            957457.3131050869,
            6538187.500000001
          ],
          [
            957462.5,
            6538209.540233496
          ],
          [
            957463.3132817987,
            6538212.5
          ],
          [
            957470.2260755359,
            6538237.5
          ],
          [
            957476.3732044611,
            6538262.5
          ],
          [
            957481.7122497723,
            6538287.5
          ],
          [
            957486.5352725268,
            6538312.5
          ],
          [
            957487.5,
            6538317.287543593
          ],
          [
            957491.96990845,
            6538337.5
          ],
          [
            957497.4656485614,
            6538362.5
          ],
          [
            957502.8260184379,
            6538387.5
          ],
          [
            957507.9745741787,
            6538412.5
          ],
          [
            957512.5,
            6538435.4152934095
          ],
          [
            957512.9609189929,
            6538437.5
          ],
          [
            957518.1010768178,
            6538462.5
          ],
          [
            957522.9986155314,
            6538487.5
          ],
          [
            957528.3569447253,
            6538512.5
          ],
          [
            957534.9598401769,
            6538537.499999999
          ],
          [
            957537.5,
            6538545.567740098
          ],
          [
            957543.0749093578,
            6538562.5
          ],
          [
            957551.6793869173,
            6538587.5
          ],
          [
            957560.3118888192,
            6538612.5
          ],
          [
            957562.5,
            6538619.154924401
          ],
          [
            957568.4159074133,
            6538637.5
          ],
          [
            957576.4851397504,
            6538662.5
          ],
          [
            957585.5235029031,
            6538687.5
          ],
          [
            957587.5,
            6538692.4195128195
          ],
          [
            957595.2203523549,
            6538712.5
          ],
          [
            957606.1594203394,
            6538737.499999999
          ],
          [
            957612.5,
            6538749.876877903
          ],
          [
            957618.7800358329,
            6538762.5
          ],
          [
            957632.5902157278,
            6538787.5
          ],
          [
            957637.5,
            6538795.620090281
          ],
          [
            957647.8026100256,
            6538812.5
          ],
          [
            957662.5,
            6538835.614069747
          ],
          [
            957663.738752907,
            6538837.5
          ],
          [
            957679.7078256811,
            6538862.5
          ],
          [
            957687.5,
            6538875.111452758
          ],
          [
            957694.8650228152,
            6538887.5
          ],
          [
            957709.0516092884,
            6538912.5
          ],
          [
            957712.5000000001,
            6538918.252036573
          ],
          [
            957722.9575323167,
            6538937.5
          ],
          [
            957737.3620664708,
            6538962.5
          ],
          [
            957737.4999999999,
            6538962.732762726
          ],
          [
            957751.2783487361,
            6538987.5
          ],
          [
            957762.5,
            6539008.218322496
          ],
          [
            957764.8143608475,
            6539012.5
          ],
          [
            957777.480854623,
            6539037.5
          ],
          [
            957787.5,
            6539057.53713159
          ],
          [
            957790.0190748842,
            6539062.5
          ],
          [
            957802.7714178181,
            6539087.5
          ],
          [
            957812.5,
            6539104.9667500025
          ],
          [
            957816.8246381468,
            6539112.5
          ],
          [
            957831.5731142826,
            6539137.5
          ],
          [
            957837.4999999999,
            6539147.501748938
          ],
          [
            957846.7029370983,
            6539162.5
          ],
          [
            957861.0638634521,
            6539187.500000001
          ],
          [
            957862.5,
            6539190.322869582
          ],
          [
            957874.3250509645,
            6539212.5
          ],
          [
            957886.0621419966,
            6539237.5
          ],
          [
            957887.4999999999,
            6539241.056679651
          ],
          [
            957896.7002493785,
            6539262.5
          ],
          [
            957906.5274081866,
            6539287.5
          ],
          [
            957912.5,
            6539302.689221722
          ],
          [
            957916.5263093159,
            6539312.5
          ],
          [
            957927.7700899643,
            6539337.5
          ],
          [
            957937.5,
            6539354.039995561
          ],
          [
            957942.6307498434,
            6539362.5
          ],
          [
            957962.5,
            6539387.230350024
          ],
          [
            957962.7179224379,
            6539387.5
          ]
        ]
      }
    },
    {
      "type": "Feature",
      "properties": {
        "method": "transverse height maximum"
      },
      "geometry": {
        "type": "LineString",
        "coordinates": [
          [
            955912.5,
            6538750.058462952
          ],
          [
            955928.767921288,
            6538762.5
          ],
          [
            955937.5,
            6538776.785695198
          ],
          [
            955940.8532580156,
            6538787.5
          ],
          [
            955944.1688256457,
            6538812.5
          ],
          [
            955944.8394992116,
            6538837.5
          ],
          [
            955943.5367101162,
            6538862.5
          ],
          [
            955940.3232909058,
            6538887.5
          ],
          [
            955937.5,
            6538902.306514672
          ],
          [
            955935.5211361191,
            6538912.5
          ],
          [
            955929.5654617886,
            6538937.499999999
          ],
          [
            955922.8620760323,
            6538962.5
          ],
          [
            955914.8556166542,
            6538987.5
          ],
          [
            955912.5,
            6538993.153040788
          ],
          [
            955902.9332499354,
            6539012.5
          ],
          [
            955887.5000000001,
            6539032.898377969
          ],
          [
            955882.3745486597,
            6539037.5
          ],
          [
            955862.5,
            6539053.554817191
          ],
          [
            955837.5,
            6539060.345113195
          ],
          [
            955824.1764055307,
            6539037.5
          ],
          [
            955812.7432319244,
            6539012.5
          ]
        ]
      }
    },
    {
      "type": "Feature",
      "properties": {
        "method": "transverse height maximum"
      },
      "geometry": {
        "type": "LineString",
        "coordinates": [
          [
            955812.5,
            6539106.578747232
          ],
          [
            955816.043487314,
            6539112.5
          ],
          [
            955824.8817219527,
            6539137.5
          ],
          [
            955829.3107797188,
            6539162.5
          ],
          [
            955830.7860047987,
            6539187.5
          ],
          [
            955830.4396120996,
            6539212.5
          ],
          [
            955828.7238125318,
            6539237.5
          ],
          [
            955826.4586261187,
            6539262.5
          ],
          [
            955824.8017634379,
            6539287.5
          ],
          [
            955823.6133644469,
            6539312.5
          ],
          [
            955821.9714005836,
            6539337.5
          ],
          [
            955819.0944022837,
            6539362.5
          ],
          [
            955812.5,
            6539385.2469501635
          ],
          [
            955811.8324737275,
            6539387.5
          ],
          [
            955794.5708254768,
            6539412.5
          ],
          [
            955787.5,
            6539417.183126083
          ],
          [
            955762.4999999999,
            6539432.521285181
          ]
        ]
      }
    },
    {
      "type": "Feature",
      "properties": {
        "method": "transverse height maximum"
      },
      "geometry": {
        "type": "LineString",
        "coordinates": [
          [
            955000.0,
            6539948.46073538
          ],
          [
            955006.4923939887,
            6539962.5
          ],
          [
            955012.5,
            6539973.575941561
          ],
          [
            955019.2201788677,
            6539987.5
          ],
          [
            955025.6332979614,
            6540000.0
          ]
        ]
      }
    },
    {
      "type": "Feature",
      "properties": {
        "method": "transverse height maximum"
      },
      "geometry": {
        "type": "LineString",
        "coordinates": [
          [
            955612.5,
            6539434.300797247
          ],
          [
            955617.6023022305,
            6539437.5
          ],
          [
            955637.5,
            6539450.240956985
          ],
          [
            955652.3287426415,
            6539462.5
          ],
          [
            955662.5,
            6539474.222093558
          ],
          [
            955672.3443009666,
            6539487.5
          ],
          [
            955684.0429399341,
            6539512.500000001
          ],
          [
            955687.5,
            6539522.440296074
          ],
          [
            955692.5708319402,
            6539537.5
          ],
          [
            955698.9540350352,
            6539562.5
          ],
          [
            955704.0243687265,
            6539587.5
          ],
          [
            955708.4638030475,
            6539612.5
          ],
          [
            955712.5,
            6539635.476637702
          ],
          [
            955712.8542119978,
            6539637.5
          ],
          [
            955717.931881552,
            6539662.5
          ],
          [
            955725.1548214542,
            6539687.5
          ],
          [
            955735.3554632282,
            6539712.5
          ],
          [
            955737.5,
            6539717.616072813
          ],
          [
            955747.3192860992,
            6539737.5
          ],
          [
            955757.8756703663,
            6539762.5
          ],
          [
            955762.5,
            6539775.521835991
          ],
          [
            955767.8561494116,
            6539787.5
          ],
          [
            955785.0756311426,
            6539812.5
          ],
          [
            955787.5,
            6539814.874010127
          ],
          [
            955811.0229929306,
            6539837.5
          ],
          [
            955812.5,
            6539838.834730781
          ],
          [
            955837.4264342877,
            6539862.5
          ],
          [
            955837.5,
            6539862.571450375
          ],
          [
            955860.5803665583,
            6539887.5
          ],
          [
            955862.5000000001,
            6539889.71952087
          ],
          [
            955878.2081100933,
            6539912.5
          ],
          [
            955887.5,
            6539928.566142421
          ],
          [
            955891.592747111,
            6539937.5
          ],
          [
            955901.8938000379,
            6539962.5
          ],
          [
            955912.5,
            6539986.638667898
          ],
          [
            955912.8296234298,
            6539987.5
          ],
          [
            955918.6490368429,
            6540000.0
          ]
        ]
      }
    },
    {
      "type": "Feature",
      "properties": {
        "method": "transverse height maximum"
      },
      "geometry": {
        "type": "LineString",
        "coordinates": [
          [
            958011.5570462494,
            6539437.5
          ],
          [
            958012.5,
            6539438.46681559
          ],
          [
            958035.3838468534,
            6539462.5
          ],
          [
            958037.5,
            6539465.034495706
          ],
          [
            958054.1809639958,
            6539487.5
          ],
          [
            958062.5000000001,
            6539499.778969543
          ],
          [
            958070.2097655198,
            6539512.5
          ],
          [
            958084.6233412548,
            6539537.500000001
          ],
          [
            958087.5,
            6539542.607990859
          ],
          [
            958097.5225776618,
            6539562.5
          ],
          [
            958109.8524618862,
            6539587.500000001
          ],
          [
            958112.5,
            6539592.7757474715
          ],
          [
            958121.5162748675,
            6539612.5
          ],
          [
            958133.5128960012,
            6539637.5
          ],
          [
            958137.5,
            6539645.095347602
          ],
          [
            958146.0085717399,
            6539662.5
          ],
          [
            958158.8163610115,
            6539687.5
          ],
          [
            958162.5,
            6539694.390622498
          ],
          [
            958171.6426201698,
            6539712.5
          ],
          [
            958184.16463223,
            6539737.5
          ],
          [
            958187.5,
            6539744.108546613
          ],
          [
            958196.7179054915,
            6539762.5
          ],
          [
            958209.1267461022,
            6539787.5
          ],
          [
            958212.5000000001,
            6539794.337882252
          ],
          [
            958221.646073186,
            6539812.5
          ],
          [
            958233.4409363457,
            6539837.5
          ],
          [
            958237.5,
            6539846.69301035
          ],
          [
            958244.6630750829,
            6539862.5
          ],
          [
            958254.9438473515,
            6539887.5
          ],
          [
            958262.5,
            6539906.676786857
          ],
          [
            958264.928340463,
            6539912.5
          ],
          [
            958275.6975421965,
            6539937.5
          ],
          [
            958287.3291059401,
            6539962.5
          ],
          [
            958287.5,
            6539962.799372526
          ],
          [
            958301.8930448364,
            6539987.5
          ],
          [
            958309.9451075231,
            6540000.0
          ]
        ]
      }
    },
    {
      "type": "Feature",
      "properties": {
        "method": "transverse height maximum"
      },
      "geometry": {
        "type": "LineString",
        "coordinates": [
          [
            955994.3804995716,
            6535000.0
          ],
          [
            955987.4999999999,
            6535005.197105868
          ],
          [
            955975.4037326109,
            6535012.5
          ],
          [
            955962.5,
            6535021.108224643
          ],
          [
            955937.4999999999,
            6535033.985680137
          ],
          [
            955930.3820075606,
            6535037.5
          ],
          [
            955912.5,
            6535049.683248324
          ],
          [
            955900.8198891814,
            6535062.5
          ],
          [
            955887.5,
            6535077.880434167
          ],
          [
            955881.0422302756,
            6535087.499999999
          ],
          [
            955862.5,
            6535109.750341653
          ]
        ]
      }
    },
    {
      "type": "Feature",
      "properties": {
        "method": "transverse height maximum"
      },
      "geometry": {
        "type": "LineString",
        "coordinates": [
          [
            958362.5000000001,
            6535489.923272723
          ],
          [
            958387.5,
            6535510.393177062
          ],
          [
            958390.4612136415,
            6535512.5
          ],
          [
            958412.5,
            6535527.9358959785
          ],
          [
            958437.5,
            6535528.216622909
          ],
          [
            958457.5379899488,
            6535512.5
          ],
          [
            958462.5,
            6535506.386236723
          ],
          [
            958479.7083020069,
            6535487.5
          ],
          [
            958487.5,
            6535477.314224877
          ],
          [
            958512.5,
            6535469.737142011
          ],
          [
            958537.5000000001,
            6535464.082585794
          ],
          [
            958538.6221347494,
            6535462.5
          ],
          [
            958537.5000000001,
            6535459.163215031
          ],
          [
            958527.5237921273,
            6535437.5
          ]
        ]
      }
    },
    {
      "type": "Feature",
      "properties": {
        "method": "transverse height maximum"
      },
      "geometry": {
        "type": "LineString",
        "coordinates": [
          [
            956070.8092281192,
            6535562.5
          ],
          [
            956062.5,
            6535568.600182214
          ],
          [
            956037.5,
            6535585.871416888
          ],
          [
            956035.1416497604,
            6535587.5
          ],
          [
            956012.5,
            6535604.452825643
          ],
          [
            956002.1056450781,
            6535612.5
          ],
          [
            955987.5,
            6535623.155457375
          ],
          [
            955967.4964900059,
            6535637.5
          ],
          [
            955962.5,
            6535640.807308244
          ],
          [
            955937.5,
            6535656.5092362305
          ],
          [
            955924.5231647652,
            6535662.5
          ],
          [
            955912.5,
            6535671.251279284
          ],
          [
            955888.0744768253,
            6535662.5
          ],
          [
            955887.5,
            6535662.271259674
          ]
        ]
      }
    },
    {
      "type": "Feature",
      "properties": {
        "method": "transverse height maximum"
      },
      "geometry": {
        "type": "LineString",
        "coordinates": [
          [
            959187.5,
            6535875.061952495
          ],
          [
            959162.5,
            6535866.515772998
          ],
          [
            959147.3203340713,
            6535862.5
          ],
          [
            959137.4999999999,
            6535859.843457187
          ],
          [
            959112.5,
            6535857.479527037
          ],
          [
            959087.5000000001,
            6535857.3053128
          ],
          [
            959062.5,
            6535854.777314544
          ],
          [
            959041.9205301821,
            6535837.5
          ],
          [
            959049.6710646194,
            6535812.5
          ],
          [
            959049.4435410035,
            6535787.5
          ]
        ]
      }
    },
    {
      "type": "Feature",
      "properties": {
        "method": "transverse height maximum"
      },
      "geometry": {
        "type": "LineString",
        "coordinates": [
          [
            960000.0,
            6536018.011883682
          ],
          [
            959987.5,
            6536022.185687044
          ],
          [
            959962.4999999999,
            6536027.211388595
          ],
          [
            959937.5,
            6536021.066221928
          ],
          [
            959925.7498495145,
            6536012.5
          ],
          [
            959912.4999999999,
            6536002.206576277
          ],
          [
            959891.3128178995,
            6535987.500000001
          ],
          [
            959887.5,
            6535985.014635605
          ],
          [
            959862.5,
            6535969.256203556
          ],
          [
            959851.2496988273,
            6535962.5
          ],
          [
            959837.5,
            6535954.321047534
          ],
          [
            959812.5,
            6535940.338226428
          ],
          [
            959806.6677701649,
            6535937.5
          ],
          [
            959787.5,
            6535926.943452655
          ],
          [
            959762.5,
            6535916.808708765
          ],
          [
            959745.243374552,
            6535912.5
          ],
          [
            959737.5000000001,
            6535910.399710526
          ],
          [
            959712.5,
            6535905.451727837
          ],
          [
            959687.5,
            6535901.372260296
          ],
          [
            959662.5,
            6535898.598786421
          ],
          [
            959637.5,
            6535897.644992777
          ],
          [
            959612.5,
            6535898.369736269
          ],
          [
            959587.5,
            6535900.375143387
          ],
          [
            959562.5000000001,
            6535903.5210402785
          ],
          [
            959537.5,
            6535907.911790535
          ],
          [
            959516.5114829912,
            6535912.5
          ],
          [
            959512.5,
            6535913.22079138
          ],
          [
            959487.5,
            6535917.523129939
          ],
          [
            959462.5,
            6535921.963934329
          ],
          [
            959437.4999999999,
            6535926.939827983
          ],
          [
            959412.5000000001,
            6535932.9368931055
          ],
          [
            959397.3987597863,
            6535937.5
          ],
          [
            959387.5,
            6535939.915308003
          ],
          [
            959362.5,
            6535947.447408884
          ],
          [
            959337.5000000001,
            6535956.808776
          ],
          [
            959325.4500305993,
            6535962.5
          ],
          [
            959312.5,
            6535967.994737657
          ],
          [
            959287.5,
            6535982.207357036
          ],
          [
            959280.6038870672,
            6535987.5
          ],
          [
            959262.5,
            6536002.354599913
          ],
          [
            959251.7012906112,
            6536012.500000001
          ]
        ]
      }
    },
    {
      "type": "Feature",
      "properties": {
        "method": "transverse height maximum"
      },
      "geometry": {
        "type": "LineString",
        "coordinates": [
          [
            958900.5510060593,
            6536062.5
          ],
          [
            958888.9797612682,
            6536087.5
          ],
          [
            958887.5,
            6536090.584327871
          ],
          [
            958869.0417304159,
            6536112.5
          ],
          [
            958862.5,
            6536118.926973871
          ],
          [
            958837.5,
            6536130.640002811
          ],
          [
            958823.6345718827,
            6536137.5
          ],
          [
            958812.5,
            6536143.298960799
          ],
          [
            958788.5456729674,
            6536162.5
          ],
          [
            958787.5,
            6536163.865318414
          ],
          [
            958769.8967069621,
            6536187.5
          ],
          [
            958762.5,
            6536201.988619422
          ],
          [
            958748.2872591562,
            6536212.5
          ],
          [
            958737.5,
            6536218.080940836
          ],
          [
            958712.5,
            6536222.287809561
          ],
          [
            958687.5,
            6536223.652698137
          ],
          [
            958662.5,
            6536224.270477151
          ]
        ]
      }
    },
    {
      "type": "Feature",
      "properties": {
        "method": "transverse height maximum"
      },
      "geometry": {
        "type": "LineString",
        "coordinates": [
          [
            955362.4999999999,
            6536628.4671477815
          ],
          [
            955337.5,
            6536621.431329874
          ],
          [
            955312.5,
            6536614.878320008
          ],
          [
            955295.6284180378,
            6536612.5
          ],
          [
            955287.5,
            6536611.111559465
          ],
          [
            955262.5,
            6536610.682336597
          ],
          [
            955237.5000000001,
            6536611.118271714
          ],
          [
            955212.5,
            6536608.308788031
          ],
          [
            955187.5,
            6536606.978987944
          ],
          [
            955176.6780778501,
            6536612.5
          ],
          [
            955162.5,
            6536617.111731352
          ],
          [
            955137.5,
            6536634.82233456
          ],
          [
            955134.5240829141,
            6536637.5
          ],
          [
            955112.5,
            6536653.6206838
          ],
          [
            955099.5835669575,
            6536662.5
          ],
          [
            955087.5,
            6536669.918999663
          ],
          [
            955062.5,
            6536681.403096876
          ],
          [
            955038.7460806551,
            6536687.5
          ],
          [
            955037.5,
            6536687.852749964
          ],
          [
            955012.5,
            6536695.055789369
          ],
          [
            955000.0,
            6536702.5503802
          ]
        ]
      }
    },
    {
      "type": "Feature",
      "properties": {
        "method": "transverse height maximum"
      },
      "geometry": {
        "type": "LineString",
        "coordinates": [
          [
            959762.5,
            6537284.422496561
          ],
          [
            959737.5,
            6537278.305793293
          ],
          [
            959712.5,
            6537271.097368036
          ],
          [
            959687.5,
            6537264.698013174
          ],
          [
            959673.2551243925,
            6537262.500000001
          ],
          [
            959662.5,
            6537260.075136948
          ],
          [
            959637.5,
            6537258.134807052
          ],
          [
            959612.5,
            6537256.40391227
          ],
          [
            959587.5,
            6537250.907844282
          ],
          [
            959562.5,
            6537237.534293171
          ],
          [
            959562.4616502577,
            6537237.5
          ],
          [
            959537.5,
            6537219.945395494
          ],
          [
            959528.1420637848,
            6537212.5
          ],
          [
            959512.5000000001,
            6537203.437917447
          ],
          [
            959487.5,
            6537190.297458577
          ],
          [
            959482.2652379476,
            6537187.5
          ],
          [
            959462.5000000001,
            6537179.560526102
          ]
        ]
      }
    },
    {
      "type": "Feature",
      "properties": {
        "method": "transverse height maximum"
      },
      "geometry": {
        "type": "LineString",
        "coordinates": [
          [
            955012.5,
            6537466.002116466
          ],
          [
            955008.0740323357,
            6537462.5
          ],
          [
            955000.0,
            6537454.393905087
          ]
        ]
      }
    },
    {
      "type": "Feature",
      "properties": {
        "method": "transverse height maximum"
      },
      "geometry": {
        "type": "LineString",
        "coordinates": [
          [
            955751.0794213495,
            6537737.499999999
          ],
          [
            955737.5,
            6537750.28849553
          ],
          [
            955712.5,
            6537754.000383599
          ],
          [
            955687.5,
            6537753.838998879
          ],
          [
            955662.5000000001,
            6537751.715427595
          ],
          [
            955637.5,
            6537740.478578452
          ],
          [
            955634.0521422098,
            6537737.5
          ],
          [
            955612.5,
            6537719.278220054
          ],
          [
            955604.5166555966,
            6537712.5
          ],
          [
            955587.5,
            6537696.35616088
          ],
          [
            955577.1865508204,
            6537687.5
          ],
          [
            955562.5,
            6537671.35361018
          ],
          [
            955553.7277387767,
            6537662.5
          ],
          [
            955539.179476527,
            6537637.5
          ],
          [
            955537.5,
            6537632.276079468
          ]
        ]
      }
    },
    {
      "type": "Feature",
      "properties": {
        "method": "transverse height maximum"
      },
      "geometry": {
        "type": "LineString",
        "coordinates": [
          [
            957362.5,
            6538603.662114564
          ],
          [
            957337.5,
            6538596.644596817
          ],
          [
            957312.5,
            6538591.6902756365
          ],
          [
            957287.5,
            6538587.749731172
          ],
          [
            957286.0148045006,
            6538587.5
          ],
          [
            957262.5,
            6538583.598509011
          ],
          [
            957237.5,
            6538577.286747816
          ],
          [
            957212.5,
            6538566.1893728655
          ],
          [
            957206.0176603341,
            6538562.5
          ],
          [
            957187.5,
            6538545.465544772
          ],
          [
            957179.1371452129,
            6538537.5
          ],
          [
            957165.624269791,
            6538512.499999999
          ]
        ]
      }
    },
    {
      "type": "Feature",
      "properties": {
        "method": "transverse height maximum"
      },
      "geometry": {
        "type": "LineString",
        "coordinates": [
          [
            955487.4999999999,
            6539337.389475063
          ],
          [
            955462.5,
            6539330.132963003
          ],
          [
            955437.5,
            6539318.84625595
          ],
          [
            955429.1057635264,
            6539312.5
          ],
          [
            955412.5000000001,
            6539303.102787778
          ],
          [
            955391.6620639518,
            6539287.500000001
          ],
          [
            955387.5,
            6539284.316879713
          ],
          [
            955364.0784969077,
            6539262.5
          ],
          [
            955362.4999999999,
            6539260.85218701
          ],
          [
            955342.1319746112,
            6539237.500000001
          ],
          [
            955337.5,
            6539231.9769567065
          ],
          [
            955322.2734395425,
            6539212.5
          ]
        ]
      }
    }
  ],
  "provenance": {
    "source_url": "https://data.geopf.fr/wms-r/wms?SERVICE=WMS&VERSION=1.3.0&REQUEST=GetMap&LAYERS=ELEVATION.ELEVATIONGRIDCOVERAGE.HIGHRES&STYLES=normal&CRS=EPSG%3A2154&BBOX=954500.0%2C6534500.0%2C960500.0%2C6540500.0&WIDTH=240&HEIGHT=240&FORMAT=image%2Ftiff",
    "dataset_url": "https://www.data.gouv.fr/datasets/rge-alti-r",
    "layer": "ELEVATION.ELEVATIONGRIDCOVERAGE.HIGHRES",
    "attribution": "Crests derived from © IGN RGE ALTI · Licence Ouverte 2.0",
    "licence": "Licence Ouverte 2.0",
    "retrieved_utc": "2026-09-22T15:24:25.416197+00:00",
    "derived_utc": "2026-09-22T15:29:06.647437+00:00",
    "derivation_code_sha256": "097f79508273c65e26912088bd99b8e73fa7f20c2eed2ff01fec7fabbd3821be",
    "response_bytes": 230534,
    "response_sha256": "e729540e5fb431df4c50207b6a70f14afa5e326787fe514636af310f0e01af5c",
    "terrain_file": "ign-terrain-191-1307.tif",
    "raster_bounds_epsg2154": [
      954500.0,
      6534500.0,
      960500.0,
      6540500.0
    ],
    "bounds_epsg2154": [
      955000.0,
      6535000.0,
      960000.0,
      6540000.0
    ],
    "parameters": {
      "grid_m": 25,
      "buffer_m": 500,
      "gaussian_sigma_m": 50,
      "minimum_transverse_curvature_per_m": 0.0003,
      "transverse_probe_m": 200,
      "minimum_drop_each_side_m": 5,
      "minimum_line_length_m": 200
    },
    "terrain_height_range_m": [
      573.1314086914062,
      1559.9425048828125
    ],
    "method": "Gaussian-smoothed DEM; zero derivative along most concave Hessian eigenvector; negative curvature, two-sided drop and length filters. No flight coordinates used.",
    "limitations": "Approximate, scale-dependent crests; not an official or exhaustive ridge network. Gaps remain at weak ridges, orientation transitions and junctions; no invented links."
  }
}
