{
  "type": "FeatureCollection",
  "features": [
    {
      "type": "Feature",
      "id": "detail_orographique.11058",
      "geometry": {
        "type": "Point",
        "coordinates": [
          922294.39982916,
          6472615.40475196
        ]
      },
      "geometry_name": "geometrie",
      "properties": {
        "cleabs": "PAIOROGR0000000007454275",
        "nature": "Sommet",
        "nature_detaillee": null,
        "toponyme": "Roc d'Arguille",
        "statut_du_toponyme": "Validé",
        "importance": "4",
        "date_creation": "2006-07-11T13:39:39.862Z",
        "date_modification": "2019-09-20T16:10:23.317Z",
        "date_d_apparition": null,
        "date_de_confirmation": null,
        "sources": null,
        "identifiants_sources": null,
        "methode_d_acquisition_planimetrique": "BDNyme",
        "precision_planimetrique": 30,
        "insee_commune": "38442",
        "identifiant_voie_ban": null,
        "id_ban_odonyme": null
      }
    },
    {
      "type": "Feature",
      "id": "detail_orographique.11118",
      "geometry": {
        "type": "Point",
        "coordinates": [
          923694.2998281,
          6471681.00475197
        ]
      },
      "geometry_name": "geometrie",
      "properties": {
        "cleabs": "PAIOROGR0000000007454335",
        "nature": "Sommet",
        "nature_detaillee": null,
        "toponyme": "Dent de Crolles",
        "statut_du_toponyme": "Validé",
        "importance": "2",
        "date_creation": "2006-07-11T13:39:39.862Z",
        "date_modification": "2023-06-12T14:58:45.718Z",
        "date_d_apparition": null,
        "date_de_confirmation": "2023-06-12Z",
        "sources": null,
        "identifiants_sources": null,
        "methode_d_acquisition_planimetrique": "BDNyme",
        "precision_planimetrique": 30,
        "insee_commune": "38395",
        "identifiant_voie_ban": null,
        "id_ban_odonyme": null
      }
    },
    {
      "type": "Feature",
      "id": "detail_orographique.11168",
      "geometry": {
        "type": "Point",
        "coordinates": [
          921642.19982971,
          6470317.10475209
        ]
      },
      "geometry_name": "geometrie",
      "properties": {
        "cleabs": "PAIOROGR0000000007454385",
        "nature": "Sommet",
        "nature_detaillee": null,
        "toponyme": "Bec Charvet",
        "statut_du_toponyme": "Validé",
        "importance": "4",
        "date_creation": "2006-07-11T13:39:39.862Z",
        "date_modification": "2019-09-20T16:10:23.317Z",
        "date_d_apparition": null,
        "date_de_confirmation": null,
        "sources": null,
        "identifiants_sources": null,
        "methode_d_acquisition_planimetrique": "BDNyme",
        "precision_planimetrique": 30,
        "insee_commune": "38442",
        "identifiant_voie_ban": null,
        "id_ban_odonyme": null
      }
    },
    {
      "type": "Feature",
      "id": "detail_orographique.177304",
      "geometry": {
        "type": "Point",
        "coordinates": [
          922140.49982929,
          6471981.504752
        ]
      },
      "geometry_name": "geometrie",
      "properties": {
        "cleabs": "PAIOROGR0000002209455749",
        "nature": "Sommet",
        "nature_detaillee": null,
        "toponyme": "Pravouta",
        "statut_du_toponyme": "Validé",
        "importance": "3",
        "date_creation": "2020-09-21T15:04:44.836Z",
        "date_modification": "2023-06-12T14:50:48.722Z",
        "date_d_apparition": null,
        "date_de_confirmation": "2023-06-12Z",
        "sources": null,
        "identifiants_sources": null,
        "methode_d_acquisition_planimetrique": "Orthophotographie",
        "precision_planimetrique": 3,
        "insee_commune": "38395",
        "identifiant_voie_ban": null,
        "id_ban_odonyme": null
      }
    }
  ],
  "totalFeatures": 4,
  "numberMatched": 4,
  "numberReturned": 4,
  "timeStamp": "2026-09-22T14:44:32.737Z",
  "crs": {
    "type": "name",
    "properties": {
      "name": "urn:ogc:def:crs:EPSG::2154"
    }
  },
  "provenance": {
    "source_url": "https://data.geopf.fr/wfs/ows?SERVICE=WFS&VERSION=2.0.0&REQUEST=GetFeature&TYPENAMES=BDTOPO_V3%3Adetail_orographique&SRSNAME=EPSG%3A2154&CQL_FILTER=BBOX%28geometrie%2C920000%2C6.47e%2B06%2C925000%2C6.475e%2B06%2C%27EPSG%3A2154%27%29+AND+nature+IN+%28%27Sommet%27%2C%27Pic%27%29&OUTPUTFORMAT=application%2Fjson&COUNT=1000",
    "dataset_url": "https://www.data.gouv.fr/datasets/bd-topo-r",
    "layer": "BDTOPO_V3:detail_orographique",
    "attribution": "Summits: © IGN · BD TOPO · Licence Ouverte 2.0",
    "licence": "Licence Ouverte 2.0",
    "retrieved_utc": "2026-09-22T14:44:32.726539+00:00",
    "response_sha256": "730f410607bc94a53400ecc119063cdc7cc661d4a8d5de4b11e6155cdb524351",
    "response_bytes": 2874,
    "response_feature_count": 4,
    "bounds_epsg2154": [
      920000.0,
      6470000.0,
      925000.0,
      6475000.0
    ],
    "selection": "Sommet/Pic only; exact Lambert-93 cell bounds.",
    "note": "Named summits; not a complete ridge network or DEM maxima."
  }
}
