{
  "type": "FeatureCollection",
  "crs": {
    "type": "name",
    "properties": {
      "name": "EPSG:2154"
    }
  },
  "features": [
    {
      "type": "Feature",
      "properties": {
        "method": "transverse height maximum"
      },
      "geometry": {
        "type": "LineString",
        "coordinates": [
          [
            931933.4239309042,
            6495362.5
          ],
          [
            931934.7092290721,
            6495387.5
          ],
          [
            931937.3931743406,
            6495412.5
          ],
          [
            931937.5,
            6495413.213467735
          ],
          [
            931940.0918317018,
            6495437.5
          ],
          [
            931942.812284754,
            6495462.5
          ],
          [
            931944.4537135472,
            6495487.5
          ],
          [
            931942.8146422083,
            6495512.5
          ],
          [
            931937.5,
            6495536.1374344
          ],
          [
            931937.1474197294,
            6495537.5
          ],
          [
            931927.7794044067,
            6495562.5
          ],
          [
            931918.0510004997,
            6495587.5
          ],
          [
            931912.5,
            6495601.114546465
          ],
          [
            931907.0086936492,
            6495612.5
          ],
          [
            931894.3546755462,
            6495637.5
          ],
          [
            931887.5,
            6495649.730973044
          ],
          [
            931879.4419700069,
            6495662.5
          ],
          [
            931862.5,
            6495687.205926596
          ],
          [
            931862.2868648929,
            6495687.5
          ],
          [
            931842.139550689,
            6495712.5
          ],
          [
            931837.5,
            6495717.981783177
          ],
          [
            931817.8837751049,
            6495737.5
          ],
          [
            931812.5,
            6495743.770300714
          ]
        ]
      }
    },
    {
      "type": "Feature",
      "properties": {
        "method": "transverse height maximum"
      },
      "geometry": {
        "type": "LineString",
        "coordinates": [
          [
            934412.5,
            6495908.080121992
          ],
          [
            934409.7372370315,
            6495912.499999999
          ],
          [
            934395.8515343138,
            6495937.5
          ],
          [
            934387.5,
            6495955.3246039925
          ],
          [
            934384.7687153646,
            6495962.499999999
          ],
          [
            934376.3082391181,
            6495987.5
          ],
          [
            934368.452963515,
            6496012.5
          ],
          [
            934362.5,
            6496034.180910271
          ],
          [
            934361.5980772018,
            6496037.5
          ],
          [
            934356.3531052772,
            6496062.5
          ],
          [
            934351.4592285694,
            6496087.5
          ],
          [
            934345.8310791051,
            6496112.5
          ],
          [
            934339.6430504605,
            6496137.5
          ],
          [
            934337.5,
            6496146.608553058
          ],
          [
            934333.3279140402,
            6496162.500000001
          ],
          [
            934327.534775127,
            6496187.5
          ],
          [
            934322.5543448009,
            6496212.5
          ],
          [
            934316.989803988,
            6496237.5
          ],
          [
            934312.5,
            6496250.327185787
          ],
          [
            934306.8865494482,
            6496262.5
          ]
        ]
      }
    },
    {
      "type": "Feature",
      "properties": {
        "method": "transverse height maximum"
      },
      "geometry": {
        "type": "LineString",
        "coordinates": [
          [
            933075.5384122074,
            6496537.5
          ],
          [
            933062.5,
            6496545.564866702
          ],
          [
            933040.472264848,
            6496562.5
          ],
          [
            933037.5,
            6496566.7672092905
          ],
          [
            933024.0631519547,
            6496587.5
          ],
          [
            933019.7066266511,
            6496612.5
          ],
          [
            933023.4238759401,
            6496637.5
          ],
          [
            933032.0218053737,
            6496662.500000001
          ],
          [
            933037.5,
            6496675.722014407
          ],
          [
            933039.6641884659,
            6496687.5
          ],
          [
            933043.9044394093,
            6496712.5
          ]
        ]
      }
    },
    {
      "type": "Feature",
      "properties": {
        "method": "transverse height maximum"
      },
      "geometry": {
        "type": "LineString",
        "coordinates": [
          [
            934187.5,
            6496544.179851051
          ],
          [
            934194.3145242607,
            6496562.5
          ],
          [
            934197.3911916435,
            6496587.5
          ],
          [
            934199.8764406166,
            6496612.5
          ],
          [
            934204.2677359359,
            6496637.5
          ],
          [
            934208.9127591216,
            6496662.5
          ],
          [
            934211.9478070596,
            6496687.5
          ],
          [
            934212.4999999999,
            6496693.491086481
          ],
          [
            934213.916149591,
            6496712.5
          ],
          [
            934218.9494016444,
            6496737.5
          ],
          [
            934237.5,
            6496753.102257015
          ],
          [
            934262.5,
            6496758.177665859
          ],
          [
            934287.4999999999,
            6496741.227684302
          ],
          [
            934292.5234673664,
            6496737.5
          ],
          [
            934312.5,
            6496719.88094107
          ],
          [
            934323.7250272626,
            6496712.499999999
          ]
        ]
      }
    },
    {
      "type": "Feature",
      "properties": {
        "method": "transverse height maximum"
      },
      "geometry": {
        "type": "LineString",
        "coordinates": [
          [
            934362.5,
            6496813.545170914
          ],
          [
            934337.5,
            6496817.750459522
          ],
          [
            934312.5,
            6496820.068830376
          ],
          [
            934287.5,
            6496824.503116936
          ],
          [
            934274.1738707691,
            6496837.5
          ],
          [
            934266.3950998978,
            6496862.5
          ],
          [
            934263.9248765435,
            6496887.5
          ],
          [
            934265.2527494917,
            6496912.5
          ],
          [
            934269.1522742461,
            6496937.5
          ],
          [
            934268.2239796536,
            6496962.5
          ],
          [
            934262.5,
            6496973.5656187935
          ],
          [
            934237.5000000001,
            6496984.085189161
          ],
          [
            934234.3985158956,
            6496987.5
          ],
          [
            934212.9929492921,
            6497012.5
          ],
          [
            934212.5,
            6497013.58507902
          ],
          [
            934206.367964437,
            6497037.5
          ],
          [
            934202.0406843545,
            6497062.499999999
          ],
          [
            934198.9572846122,
            6497087.5
          ],
          [
            934196.525873007,
            6497112.5
          ],
          [
            934193.9592206301,
            6497137.5
          ],
          [
            934190.434981492,
            6497162.5
          ],
          [
            934187.6710846571,
            6497187.5
          ],
          [
            934191.5860649187,
            6497212.5
          ],
          [
            934201.0641615598,
            6497237.5
          ],
          [
            934210.4784899593,
            6497262.5
          ],
          [
            934212.5,
            6497270.100751656
          ],
          [
            934215.4186282594,
            6497287.5
          ],
          [
            934217.115697035,
            6497312.5
          ],
          [
            934216.8257197164,
            6497337.5
          ],
          [
            934215.509903808,
            6497362.5
          ],
          [
            934214.3786411328,
            6497387.5
          ],
          [
            934214.8797731333,
            6497412.5
          ],
          [
            934217.62467119,
            6497437.5
          ],
          [
            934221.3410040054,
            6497462.5
          ],
          [
            934224.8959442065,
            6497487.5
          ],
          [
            934227.7985246886,
            6497512.5
          ],
          [
            934229.7452093896,
            6497537.5
          ],
          [
            934230.5701187734,
            6497562.5
          ],
          [
            934231.0225269588,
            6497587.5
          ],
          [
            934233.5457334382,
            6497612.5
          ],
          [
            934237.5,
            6497623.280892649
          ],
          [
            934262.5,
            6497636.3349031545
          ],
          [
            934272.0258797023,
            6497637.5
          ],
          [
            934287.4999999999,
            6497640.332727586
          ],
          [
            934312.5,
            6497659.660357658
          ],
          [
            934327.696559922,
            6497662.5
          ]
        ]
      }
    },
    {
      "type": "Feature",
      "properties": {
        "method": "transverse height maximum"
      },
      "geometry": {
        "type": "LineString",
        "coordinates": [
          [
            932052.7725564586,
            6497037.5
          ],
          [
            932037.5,
            6497060.801054414
          ],
          [
            932036.3887367477,
            6497062.5
          ],
          [
            932020.1434622123,
            6497087.5
          ],
          [
            932012.5,
            6497099.304280673
          ],
          [
            932004.2831234958,
            6497112.499999999
          ],
          [
            931990.2456439438,
            6497137.5
          ],
          [
            931987.5,
            6497142.7166929515
          ],
          [
            931976.533700454,
            6497162.500000001
          ],
          [
            931963.3703370171,
            6497187.5
          ],
          [
            931962.5,
            6497189.167441713
          ],
          [
            931950.134793191,
            6497212.500000001
          ],
          [
            931937.5511203384,
            6497237.5
          ],
          [
            931937.5,
            6497237.603025605
          ],
          [
            931926.0772584944,
            6497262.5
          ],
          [
            931915.7811558269,
            6497287.5
          ],
          [
            931912.5,
            6497296.065831407
          ],
          [
            931906.4823858875,
            6497312.5
          ],
          [
            931898.3564438388,
            6497337.5
          ],
          [
            931890.6992052491,
            6497362.5
          ],
          [
            931887.5,
            6497372.582395118
          ],
          [
            931882.5901697628,
            6497387.5
          ],
          [
            931873.7760332011,
            6497412.5
          ],
          [
            931863.7273073538,
            6497437.5
          ],
          [
            931862.5,
            6497440.313501294
          ],
          [
            931851.8658410057,
            6497462.5
          ],
          [
            931839.5475833344,
            6497487.5
          ],
          [
            931837.5,
            6497491.747463311
          ],
          [
            931825.7151269652,
            6497512.5
          ],
          [
            931812.5,
            6497536.388197685
          ],
          [
            931811.704901008,
            6497537.5
          ],
          [
            931795.8113503768,
            6497562.5
          ],
          [
            931787.5000000001,
            6497576.874084429
          ],
          [
            931779.7264089371,
            6497587.5
          ],
          [
            931765.24942023,
            6497612.5
          ],
          [
            931762.5,
            6497618.158009513
          ],
          [
            931748.9976868986,
            6497637.5
          ],
          [
            931737.4999999999,
            6497656.985306025
          ]
        ]
      }
    },
    {
      "type": "Feature",
      "properties": {
        "method": "transverse height maximum"
      },
      "geometry": {
        "type": "LineString",
        "coordinates": [
          [
            933187.5,
            6497214.877424684
          ],
          [
            933204.6268164384,
            6497237.5
          ],
          [
            933212.5,
            6497261.070841338
          ],
          [
            933212.7784600655,
            6497262.5
          ],
          [
            933212.5,
            6497265.795075417
          ],
          [
            933209.7762327295,
            6497287.5
          ],
          [
            933200.4239611914,
            6497312.5
          ],
          [
            933189.1343534443,
            6497337.5
          ],
          [
            933187.5,
            6497340.6763187805
          ],
          [
            933173.4622178446,
            6497362.5
          ],
          [
            933162.4999999999,
            6497379.619399698
          ],
          [
            933156.833934299,
            6497387.5
          ],
          [
            933138.7244194346,
            6497412.5
          ],
          [
            933137.5,
            6497414.0398604
          ],
          [
            933119.7369951948,
            6497437.5
          ],
          [
            933112.5,
            6497447.4231624985
          ],
          [
            933102.3409247323,
            6497462.5
          ],
          [
            933087.533763757,
            6497487.5
          ],
          [
            933087.5,
            6497487.556363372
          ],
          [
            933072.4759951986,
            6497512.5
          ],
          [
            933062.5,
            6497531.109205695
          ],
          [
            933058.2183567309,
            6497537.5
          ],
          [
            933040.6220319028,
            6497562.5
          ],
          [
            933037.5,
            6497566.518401491
          ]
        ]
      }
    },
    {
      "type": "Feature",
      "properties": {
        "method": "transverse height maximum"
      },
      "geometry": {
        "type": "LineString",
        "coordinates": [
          [
            932843.6863795469,
            6497687.5
          ],
          [
            932839.2648267305,
            6497712.5
          ],
          [
            932837.5,
            6497721.612307301
          ],
          [
            932834.8572314106,
            6497737.5
          ],
          [
            932830.497182669,
            6497762.5
          ],
          [
            932826.2105008025,
            6497787.499999999
          ],
          [
            932822.1290275271,
            6497812.5
          ],
          [
            932818.3223665189,
            6497837.5
          ],
          [
            932814.6857550066,
            6497862.5
          ],
          [
            932812.5,
            6497876.924182815
          ],
          [
            932809.7564840633,
            6497887.5
          ],
          [
            932801.4799814101,
            6497912.5
          ],
          [
            932790.4414169375,
            6497937.5
          ],
          [
            932787.5,
            6497943.620281346
          ],
          [
            932769.0387297426,
            6497937.5
          ],
          [
            932762.5,
            6497935.227832992
          ]
        ]
      }
    },
    {
      "type": "Feature",
      "properties": {
        "method": "transverse height maximum"
      },
      "geometry": {
        "type": "LineString",
        "coordinates": [
          [
            933937.5,
            6497805.903353954
          ],
          [
            933930.3208379049,
            6497812.5
          ],
          [
            933914.5866356505,
            6497837.5
          ],
          [
            933912.5,
            6497852.714608618
          ],
          [
            933911.4501769256,
            6497862.5
          ],
          [
            933912.4999999999,
            6497868.906235993
          ],
          [
            933915.7667040254,
            6497887.5
          ],
          [
            933925.2275269766,
            6497912.5
          ],
          [
            933936.5735311384,
            6497937.5
          ],
          [
            933937.5,
            6497939.877640935
          ],
          [
            933947.804027131,
            6497962.5
          ],
          [
            933953.3485727241,
            6497987.5
          ],
          [
            933954.8289198976,
            6498012.5
          ],
          [
            933953.7056742094,
            6498037.5
          ],
          [
            933950.1257746975,
            6498062.499999999
          ],
          [
            933942.3633645496,
            6498087.5
          ],
          [
            933937.5,
            6498096.393929066
          ],
          [
            933933.7962695325,
            6498087.5
          ],
          [
            933914.8901659828,
            6498062.5
          ],
          [
            933912.5000000001,
            6498061.3238372775
          ],
          [
            933901.5092448471,
            6498037.5
          ]
        ]
      }
    },
    {
      "type": "Feature",
      "properties": {
        "method": "transverse height maximum"
      },
      "geometry": {
        "type": "LineString",
        "coordinates": [
          [
            933837.5,
            6497999.294919348
          ],
          [
            933816.9984838456,
            6498012.5
          ],
          [
            933823.0020893989,
            6498037.5
          ],
          [
            933833.352426984,
            6498062.5
          ],
          [
            933837.5,
            6498070.476263595
          ],
          [
            933848.0686711955,
            6498087.5
          ],
          [
            933862.5,
            6498109.627288809
          ],
          [
            933865.0829413311,
            6498112.5
          ],
          [
            933886.6242963746,
            6498137.5
          ],
          [
            933887.5,
            6498138.612759319
          ],
          [
            933911.3446008998,
            6498162.499999999
          ],
          [
            933912.5,
            6498164.400806755
          ],
          [
            933924.4626856988,
            6498187.5
          ],
          [
            933931.480248964,
            6498212.5
          ],
          [
            933936.705255719,
            6498237.500000001
          ],
          [
            933937.5000000001,
            6498241.986418509
          ],
          [
            933941.0462750552,
            6498262.5
          ],
          [
            933944.5696817497,
            6498287.5
          ],
          [
            933947.4898022194,
            6498312.5
          ],
          [
            933950.0679317504,
            6498337.5
          ],
          [
            933952.5049394846,
            6498362.5
          ],
          [
            933955.1040143044,
            6498387.500000001
          ],
          [
            933958.5917085108,
            6498412.5
          ],
          [
            933962.5,
            6498431.200671969
          ],
          [
            933964.1993177944,
            6498437.5
          ],
          [
            933972.7164038103,
            6498462.5
          ],
          [
            933982.2066551882,
            6498487.5
          ],
          [
            933987.5,
            6498501.849701029
          ],
          [
            933992.2854597622,
            6498512.5
          ],
          [
            934001.4034148274,
            6498537.5
          ],
          [
            934007.6029530801,
            6498562.5
          ],
          [
            934011.0646031519,
            6498587.5
          ],
          [
            934012.5,
            6498603.655197495
          ],
          [
            934013.4469879441,
            6498612.5
          ],
          [
            934016.7308693759,
            6498637.5
          ],
          [
            934021.5150131058,
            6498662.5
          ],
          [
            934027.3057193988,
            6498687.5
          ],
          [
            934033.2784863649,
            6498712.5
          ],
          [
            934037.5,
            6498728.895356525
          ],
          [
            934043.1097610885,
            6498737.5
          ],
          [
            934058.804298682,
            6498762.5
          ],
          [
            934062.5,
            6498767.553086189
          ],
          [
            934069.3966535341,
            6498762.5
          ],
          [
            934079.0690369117,
            6498737.5
          ],
          [
            934087.5,
            6498721.973246987
          ],
          [
            934111.3798486985,
            6498712.5
          ],
          [
            934112.5,
            6498712.267414596
          ],
          [
            934112.6278238546,
            6498712.5
          ],
          [
            934119.8364914147,
            6498737.5
          ],
          [
            934120.5555194085,
            6498762.5
          ],
          [
            934114.7571964528,
            6498787.5
          ],
          [
            934112.5,
            6498794.089749827
          ],
          [
            934102.7779344963,
            6498812.5
          ],
          [
            934104.9964315525,
            6498837.5
          ],
          [
            934110.7034047382,
            6498862.5
          ],
          [
            934112.4999999999,
            6498868.515527116
          ],
          [
            934117.4465642348,
            6498887.5
          ],
          [
            934124.52492557,
            6498912.5
          ],
          [
            934131.6721744149,
            6498937.5
          ],
          [
            934137.5,
            6498958.628342952
          ],
          [
            934138.5617700823,
            6498962.5
          ],
          [
            934143.5429888454,
            6498987.5
          ],
          [
            934145.3655242692,
            6499012.5
          ],
          [
            934145.255821469,
            6499037.5
          ],
          [
            934146.8616093777,
            6499062.5
          ],
          [
            934150.8160809356,
            6499087.499999999
          ],
          [
            934155.1757196522,
            6499112.5
          ],
          [
            934158.6969195508,
            6499137.5
          ],
          [
            934160.5914710347,
            6499162.5
          ],
          [
            934160.4511003315,
            6499187.5
          ],
          [
            934159.0346901732,
            6499212.5
          ],
          [
            934157.8423577748,
            6499237.5
          ],
          [
            934157.6516630072,
            6499262.5
          ],
          [
            934158.6300162574,
            6499287.5
          ],
          [
            934161.1833150975,
            6499312.499999999
          ],
          [
            934162.5,
            6499319.590445863
          ],
          [
            934167.9786647771,
            6499337.5
          ],
          [
            934179.4957153292,
            6499362.499999999
          ],
          [
            934187.5,
            6499377.207656421
          ],
          [
            934193.3916244219,
            6499387.5
          ],
          [
            934207.6023822554,
            6499412.5
          ],
          [
            934212.5,
            6499420.8944151625
          ],
          [
            934222.0023027519,
            6499437.5
          ],
          [
            934236.8069821725,
            6499462.5
          ],
          [
            934237.5,
            6499463.663423105
          ],
          [
            934252.0782482906,
            6499487.500000001
          ],
          [
            934262.5,
            6499504.260141573
          ],
          [
            934268.090357177,
            6499512.5
          ],
          [
            934284.6422039826,
            6499537.5
          ],
          [
            934287.5,
            6499541.993341736
          ],
          [
            934301.5452041202,
            6499562.5
          ],
          [
            934312.5,
            6499579.231023165
          ]
        ]
      }
    },
    {
      "type": "Feature",
      "properties": {
        "method": "transverse height maximum"
      },
      "geometry": {
        "type": "LineString",
        "coordinates": [
          [
            931362.5,
            6498041.676017797
          ],
          [
            931347.6659025509,
            6498062.5
          ],
          [
            931337.5,
            6498078.29251958
          ],
          [
            931330.959893715,
            6498087.5
          ],
          [
            931315.2480427728,
            6498112.5
          ],
          [
            931312.5,
            6498117.047820077
          ],
          [
            931300.6896021725,
            6498137.5
          ],
          [
            931287.5,
            6498160.6904765265
          ],
          [
            931286.5546245358,
            6498162.5
          ],
          [
            931273.6804342618,
            6498187.5
          ],
          [
            931262.5,
            6498209.6032878
          ],
          [
            931261.0903329058,
            6498212.5
          ],
          [
            931249.658738375,
            6498237.5
          ],
          [
            931238.5552823374,
            6498262.5
          ],
          [
            931237.5,
            6498265.487962075
          ],
          [
            931229.5659369841,
            6498287.5
          ],
          [
            931221.5013867586,
            6498312.5
          ],
          [
            931214.743794383,
            6498337.5
          ],
          [
            931212.5,
            6498351.286042432
          ],
          [
            931210.8001981307,
            6498362.5
          ],
          [
            931212.3140597148,
            6498387.499999999
          ],
          [
            931212.5,
            6498387.959738943
          ],
          [
            931220.179535712,
            6498412.5
          ],
          [
            931226.595596738,
            6498437.5
          ],
          [
            931229.0195303846,
            6498462.500000001
          ],
          [
            931227.7906579137,
            6498487.5
          ],
          [
            931224.3024483597,
            6498512.5
          ],
          [
            931220.0587575503,
            6498537.5
          ],
          [
            931215.8028825137,
            6498562.5
          ],
          [
            931212.4999999999,
            6498580.898428315
          ],
          [
            931211.2110663839,
            6498587.500000001
          ],
          [
            931205.8092518288,
            6498612.5
          ],
          [
            931200.0592935081,
            6498637.5
          ]
        ]
      }
    },
    {
      "type": "Feature",
      "properties": {
        "method": "transverse height maximum"
      },
      "geometry": {
        "type": "LineString",
        "coordinates": [
          [
            932679.7955839023,
            6498087.5
          ],
          [
            932676.0825123007,
            6498112.5
          ],
          [
            932672.2383527277,
            6498137.5
          ],
          [
            932668.2972565467,
            6498162.5
          ],
          [
            932664.2985938089,
            6498187.5
          ],
          [
            932662.5,
            6498200.918490843
          ],
          [
            932660.6156786033,
            6498212.5
          ],
          [
            932658.3812231191,
            6498237.5
          ],
          [
            932658.6512712992,
            6498262.5
          ],
          [
            932662.0662027772,
            6498287.5
          ],
          [
            932662.5,
            6498290.24493412
          ],
          [
            932666.0725241544,
            6498312.5
          ],
          [
            932666.392751168,
            6498337.5
          ]
        ]
      }
    },
    {
      "type": "Feature",
      "properties": {
        "method": "transverse height maximum"
      },
      "geometry": {
        "type": "LineString",
        "coordinates": [
          [
            930304.8793288175,
            6498287.5
          ],
          [
            930312.5,
            6498299.946561399
          ],
          [
            930318.8927834461,
            6498312.5
          ],
          [
            930334.4360418604,
            6498337.5
          ],
          [
            930337.5,
            6498341.43626275
          ],
          [
            930350.9166306388,
            6498362.5
          ],
          [
            930362.5,
            6498376.8101487635
          ],
          [
            930370.4070063576,
            6498387.5
          ],
          [
            930387.5,
            6498411.268411743
          ],
          [
            930388.1983877482,
            6498412.5
          ],
          [
            930396.0129845595,
            6498437.5
          ],
          [
            930400.8290794349,
            6498462.5
          ],
          [
            930406.4009231047,
            6498487.5
          ],
          [
            930412.5,
            6498507.035924111
          ],
          [
            930413.5550837012,
            6498512.5
          ],
          [
            930419.1568217593,
            6498537.5
          ],
          [
            930424.720301753,
            6498562.5
          ],
          [
            930430.2012124014,
            6498587.5
          ],
          [
            930435.589692238,
            6498612.5
          ],
          [
            930437.5,
            6498624.8976592915
          ],
          [
            930439.1575837786,
            6498637.5
          ],
          [
            930437.5,
            6498649.222160063
          ],
          [
            930434.5074873419,
            6498662.499999999
          ],
          [
            930412.5,
            6498682.621153696
          ],
          [
            930404.5442076551,
            6498687.500000001
          ],
          [
            930387.5,
            6498700.725757022
          ]
        ]
      }
    },
    {
      "type": "Feature",
      "properties": {
        "method": "transverse height maximum"
      },
      "geometry": {
        "type": "LineString",
        "coordinates": [
          [
            932612.5,
            6498499.113824416
          ],
          [
            932605.7724410966,
            6498512.5
          ],
          [
            932593.5180960043,
            6498537.5
          ],
          [
            932587.5,
            6498551.315678645
          ],
          [
            932583.340716178,
            6498562.5
          ],
          [
            932575.7099999568,
            6498587.5
          ],
          [
            932570.393424044,
            6498612.5
          ],
          [
            932567.2414631455,
            6498637.5
          ],
          [
            932565.7075102973,
            6498662.5
          ],
          [
            932564.973964408,
            6498687.5
          ],
          [
            932564.1610366402,
            6498712.5
          ],
          [
            932562.6128174157,
            6498737.5
          ],
          [
            932562.5,
            6498738.561238683
          ],
          [
            932559.4145646784,
            6498762.5
          ],
          [
            932554.6829688578,
            6498787.5
          ],
          [
            932547.4828198713,
            6498812.5
          ],
          [
            932537.5,
            6498837.160791392
          ],
          [
            932537.3100803138,
            6498837.5
          ],
          [
            932522.3614354559,
            6498862.5
          ],
          [
            932512.4999999999,
            6498879.478025852
          ],
          [
            932507.3455836939,
            6498887.5
          ],
          [
            932491.8083598234,
            6498912.5
          ]
        ]
      }
    },
    {
      "type": "Feature",
      "properties": {
        "method": "transverse height maximum"
      },
      "geometry": {
        "type": "LineString",
        "coordinates": [
          [
            932462.5,
            6498962.765000339
          ],
          [
            932450.5059919802,
            6498987.5
          ],
          [
            932440.8046027066,
            6499012.5
          ],
          [
            932437.5,
            6499021.868789758
          ],
          [
            932431.8881126096,
            6499037.5
          ],
          [
            932423.738606159,
            6499062.5
          ],
          [
            932416.2193174848,
            6499087.5
          ],
          [
            932412.5,
            6499099.558913077
          ],
          [
            932407.4283043059,
            6499112.5
          ],
          [
            932396.4022828288,
            6499137.5
          ],
          [
            932387.5,
            6499154.80301959
          ],
          [
            932380.689020401,
            6499162.5
          ],
          [
            932362.5,
            6499182.826533081
          ]
        ]
      }
    },
    {
      "type": "Feature",
      "properties": {
        "method": "transverse height maximum"
      },
      "geometry": {
        "type": "LineString",
        "coordinates": [
          [
            933912.5,
            6497469.353014745
          ],
          [
            933909.2343975436,
            6497462.5
          ],
          [
            933897.1480489933,
            6497437.5
          ],
          [
            933888.6580960676,
            6497412.5
          ],
          [
            933887.5,
            6497410.004128691
          ],
          [
            933862.5,
            6497397.003737879
          ],
          [
            933848.9252952212,
            6497412.5
          ],
          [
            933837.5,
            6497428.768454304
          ],
          [
            933832.4525851575,
            6497437.500000001
          ],
          [
            933813.8755981028,
            6497462.5
          ],
          [
            933812.5,
            6497464.034771607
          ],
          [
            933796.5276872315,
            6497487.5
          ],
          [
            933787.5,
            6497506.2378598675
          ]
        ]
      }
    },
    {
      "type": "Feature",
      "properties": {
        "method": "transverse height maximum"
      },
      "geometry": {
        "type": "LineString",
        "coordinates": [
          [
            934887.5,
            6499857.984111615
          ],
          [
            934874.4407810923,
            6499837.5
          ],
          [
            934862.5,
            6499827.044590264
          ],
          [
            934845.6838486267,
            6499812.499999999
          ],
          [
            934837.4999999999,
            6499808.009011143
          ],
          [
            934812.5,
            6499797.735603342
          ],
          [
            934787.5,
            6499790.775512391
          ],
          [
            934767.3627567862,
            6499787.5
          ],
          [
            934762.5,
            6499786.749449159
          ],
          [
            934737.5000000001,
            6499783.663901287
          ],
          [
            934712.5,
            6499778.912889364
          ],
          [
            934687.5,
            6499771.855268514
          ],
          [
            934662.5,
            6499765.736607977
          ]
        ]
      }
    }
  ],
  "provenance": {
    "source_url": "https://data.geopf.fr/wms-r/wms?SERVICE=WMS&VERSION=1.3.0&REQUEST=GetMap&LAYERS=ELEVATION.ELEVATIONGRIDCOVERAGE.HIGHRES&STYLES=normal&CRS=EPSG%3A2154&BBOX=929500.0%2C6494500.0%2C935500.0%2C6500500.0&WIDTH=240&HEIGHT=240&FORMAT=image%2Ftiff",
    "dataset_url": "https://www.data.gouv.fr/datasets/rge-alti-r",
    "layer": "ELEVATION.ELEVATIONGRIDCOVERAGE.HIGHRES",
    "attribution": "Crests derived from © IGN RGE ALTI · Licence Ouverte 2.0",
    "licence": "Licence Ouverte 2.0",
    "retrieved_utc": "2026-09-22T15:24:22.160057+00:00",
    "derived_utc": "2026-09-22T15:29:06.522790+00:00",
    "derivation_code_sha256": "097f79508273c65e26912088bd99b8e73fa7f20c2eed2ff01fec7fabbd3821be",
    "response_bytes": 230534,
    "response_sha256": "91a5a29efe8cc1a328192989d27002f9ce56ee5b2a36f66214e2862ba9a3d2f0",
    "terrain_file": "ign-terrain-186-1299.tif",
    "raster_bounds_epsg2154": [
      929500.0,
      6494500.0,
      935500.0,
      6500500.0
    ],
    "bounds_epsg2154": [
      930000.0,
      6495000.0,
      935000.0,
      6500000.0
    ],
    "parameters": {
      "grid_m": 25,
      "buffer_m": 500,
      "gaussian_sigma_m": 50,
      "minimum_transverse_curvature_per_m": 0.0003,
      "transverse_probe_m": 200,
      "minimum_drop_each_side_m": 5,
      "minimum_line_length_m": 200
    },
    "terrain_height_range_m": [
      279.6669006347656,
      1044.7691650390625
    ],
    "method": "Gaussian-smoothed DEM; zero derivative along most concave Hessian eigenvector; negative curvature, two-sided drop and length filters. No flight coordinates used.",
    "limitations": "Approximate, scale-dependent crests; not an official or exhaustive ridge network. Gaps remain at weak ridges, orientation transitions and junctions; no invented links."
  }
}
