{
  "type": "FeatureCollection",
  "crs": {
    "type": "name",
    "properties": {
      "name": "EPSG:2154"
    }
  },
  "features": [
    {
      "type": "Feature",
      "properties": {
        "method": "transverse height maximum"
      },
      "geometry": {
        "type": "LineString",
        "coordinates": [
          [
            449481.9795480693,
            6865000.0
          ],
          [
            449472.5808640443,
            6865012.5
          ],
          [
            449462.5,
            6865026.500405969
          ],
          [
            449454.8158779018,
            6865037.499999999
          ],
          [
            449437.8357280929,
            6865062.5
          ],
          [
            449437.5,
            6865063.012029474
          ],
          [
            449421.68641392526,
            6865087.5
          ],
          [
            449412.5,
            6865103.359146593
          ],
          [
            449407.37089424813,
            6865112.5
          ],
          [
            449396.5619886179,
            6865137.5
          ],
          [
            449388.3844685316,
            6865162.5
          ],
          [
            449387.5,
            6865166.100143261
          ],
          [
            449382.37484067114,
            6865187.5
          ],
          [
            449377.6957258555,
            6865212.5
          ],
          [
            449373.4603911008,
            6865237.5
          ],
          [
            449368.38581888244,
            6865262.5
          ],
          [
            449362.5,
            6865284.280202388
          ],
          [
            449361.73692255054,
            6865287.5
          ],
          [
            449354.6441006994,
            6865312.5
          ],
          [
            449346.86652171216,
            6865337.5
          ],
          [
            449338.7552733181,
            6865362.5
          ],
          [
            449337.5,
            6865366.72724965
          ],
          [
            449331.0921610945,
            6865387.5
          ],
          [
            449323.6385983241,
            6865412.5
          ],
          [
            449315.47984913277,
            6865437.5
          ],
          [
            449312.5,
            6865445.451338867
          ],
          [
            449305.04558283807,
            6865462.5
          ],
          [
            449291.05121994356,
            6865487.5
          ],
          [
            449287.5,
            6865492.803238892
          ],
          [
            449271.43574071146,
            6865512.5
          ],
          [
            449262.5,
            6865522.986988876
          ],
          [
            449247.715718409,
            6865537.5
          ],
          [
            449237.5,
            6865547.884092817
          ]
        ]
      }
    },
    {
      "type": "Feature",
      "properties": {
        "method": "transverse height maximum"
      },
      "geometry": {
        "type": "LineString",
        "coordinates": [
          [
            448203.7702584605,
            6866287.5
          ],
          [
            448212.5,
            6866307.40181589
          ],
          [
            448215.609930801,
            6866312.5
          ],
          [
            448229.5855937025,
            6866337.5
          ],
          [
            448237.5,
            6866352.469405792
          ],
          [
            448244.61151624063,
            6866362.5
          ],
          [
            448260.34172521054,
            6866387.5
          ],
          [
            448262.50000000006,
            6866391.2683623545
          ],
          [
            448275.05894445983,
            6866412.5
          ],
          [
            448287.5,
            6866436.383965686
          ],
          [
            448288.10488199646,
            6866437.5
          ],
          [
            448299.5868518366,
            6866462.5
          ],
          [
            448308.4363358099,
            6866487.5
          ],
          [
            448312.5,
            6866502.093271926
          ],
          [
            448315.8187774302,
            6866512.5
          ],
          [
            448323.68540136167,
            6866537.5
          ],
          [
            448334.22913296765,
            6866562.499999999
          ],
          [
            448337.49999999994,
            6866568.1507633785
          ],
          [
            448349.1957807909,
            6866587.5
          ],
          [
            448362.5,
            6866604.277759815
          ],
          [
            448368.609509831,
            6866612.5
          ],
          [
            448387.5,
            6866635.692174163
          ],
          [
            448388.83226466324,
            6866637.5
          ],
          [
            448408.74666278815,
            6866662.5
          ]
        ]
      }
    },
    {
      "type": "Feature",
      "properties": {
        "method": "transverse height maximum"
      },
      "geometry": {
        "type": "LineString",
        "coordinates": [
          [
            446877.2653396756,
            6866662.500000001
          ],
          [
            446887.5,
            6866679.709597629
          ],
          [
            446891.43693178665,
            6866687.5
          ],
          [
            446907.5060529047,
            6866712.5
          ],
          [
            446912.5,
            6866718.653711212
          ],
          [
            446925.3684872572,
            6866737.5
          ],
          [
            446937.5,
            6866751.819126428
          ],
          [
            446945.33121359936,
            6866762.5
          ],
          [
            446962.5,
            6866782.162905907
          ],
          [
            446966.798680369,
            6866787.5
          ],
          [
            446987.5,
            6866810.276124637
          ],
          [
            446989.518438813,
            6866812.5
          ],
          [
            447012.5,
            6866835.94887067
          ],
          [
            447014.15367126156,
            6866837.5
          ]
        ]
      }
    },
    {
      "type": "Feature",
      "properties": {
        "method": "transverse height maximum"
      },
      "geometry": {
        "type": "LineString",
        "coordinates": [
          [
            447720.3294940135,
            6867562.5
          ],
          [
            447734.5386456962,
            6867587.5
          ],
          [
            447737.5,
            6867594.793664487
          ],
          [
            447744.61698237475,
            6867612.5
          ],
          [
            447753.1088909521,
            6867637.5
          ],
          [
            447760.8543738038,
            6867662.5
          ],
          [
            447762.5,
            6867668.553884084
          ],
          [
            447768.6944880457,
            6867687.5
          ],
          [
            447776.93004134385,
            6867712.5
          ],
          [
            447784.8184459058,
            6867737.5
          ],
          [
            447787.5,
            6867746.484151338
          ],
          [
            447793.7307077145,
            6867762.5
          ],
          [
            447805.03640742024,
            6867787.5
          ],
          [
            447812.5,
            6867804.14612889
          ],
          [
            447818.30099989095,
            6867812.5
          ],
          [
            447836.3299634752,
            6867837.5
          ],
          [
            447837.50000000006,
            6867841.801813788
          ],
          [
            447862.50000000006,
            6867845.9611364575
          ]
        ]
      }
    },
    {
      "type": "Feature",
      "properties": {
        "method": "transverse height maximum"
      },
      "geometry": {
        "type": "LineString",
        "coordinates": [
          [
            449327.45373938663,
            6867912.500000001
          ],
          [
            449325.17228147597,
            6867937.5
          ],
          [
            449322.84177647193,
            6867962.5
          ],
          [
            449320.4356565442,
            6867987.5
          ],
          [
            449317.70756627974,
            6868012.5
          ],
          [
            449313.9911196694,
            6868037.5
          ],
          [
            449312.5,
            6868043.636755638
          ],
          [
            449308.24538695597,
            6868062.5
          ],
          [
            449298.6736855514,
            6868087.5
          ],
          [
            449287.5,
            6868107.85987272
          ],
          [
            449284.29100985144,
            6868112.499999999
          ]
        ]
      }
    },
    {
      "type": "Feature",
      "properties": {
        "method": "transverse height maximum"
      },
      "geometry": {
        "type": "LineString",
        "coordinates": [
          [
            446488.9033129757,
            6868037.5
          ],
          [
            446488.00218365015,
            6868062.5
          ],
          [
            446488.83801279747,
            6868087.5
          ],
          [
            446489.1901973283,
            6868112.5
          ],
          [
            446487.51372065174,
            6868137.5
          ],
          [
            446487.5,
            6868137.581493029
          ],
          [
            446483.2179724603,
            6868162.5
          ],
          [
            446476.6369483597,
            6868187.5
          ],
          [
            446468.16743866197,
            6868212.5
          ],
          [
            446462.5,
            6868225.900078237
          ],
          [
            446457.26652473974,
            6868237.5
          ],
          [
            446442.3986141906,
            6868262.5
          ]
        ]
      }
    },
    {
      "type": "Feature",
      "properties": {
        "method": "transverse height maximum"
      },
      "geometry": {
        "type": "LineString",
        "coordinates": [
          [
            447137.5,
            6869159.1822697185
          ],
          [
            447140.38509141776,
            6869162.5
          ],
          [
            447159.5996869209,
            6869187.5
          ],
          [
            447162.5,
            6869191.794794239
          ],
          [
            447175.60522819497,
            6869212.5
          ],
          [
            447187.5,
            6869233.933669928
          ],
          [
            447189.64034430985,
            6869237.5
          ],
          [
            447202.1503844829,
            6869262.5
          ],
          [
            447212.5,
            6869285.517237356
          ],
          [
            447213.60724268906,
            6869287.5
          ],
          [
            447225.6088567252,
            6869312.499999999
          ],
          [
            447237.5,
            6869337.291933373
          ],
          [
            447237.6231516261,
            6869337.5
          ],
          [
            447251.1735094698,
            6869362.5
          ],
          [
            447262.5,
            6869383.6646323055
          ],
          [
            447264.8771685453,
            6869387.5
          ],
          [
            447278.86178086494,
            6869412.500000001
          ],
          [
            447287.5,
            6869429.1690915935
          ],
          [
            447292.1928889937,
            6869437.5
          ],
          [
            447304.83460222115,
            6869462.5
          ],
          [
            447312.5,
            6869479.4009182295
          ],
          [
            447316.26666889846,
            6869487.5
          ]
        ]
      }
    },
    {
      "type": "Feature",
      "properties": {
        "method": "transverse height maximum"
      },
      "geometry": {
        "type": "LineString",
        "coordinates": [
          [
            448487.5,
            6869912.7860563295
          ],
          [
            448504.7279239155,
            6869937.5
          ],
          [
            448512.5,
            6869946.802355591
          ],
          [
            448523.9167141912,
            6869962.5
          ],
          [
            448537.5,
            6869978.6986371465
          ],
          [
            448544.117394324,
            6869987.5
          ],
          [
            448554.4522108114,
            6870000.0
          ]
        ]
      }
    },
    {
      "type": "Feature",
      "properties": {
        "method": "transverse height maximum"
      },
      "geometry": {
        "type": "LineString",
        "coordinates": [
          [
            449212.5,
            6865571.191500702
          ],
          [
            449194.2943445543,
            6865587.5
          ],
          [
            449187.5,
            6865593.5173812015
          ],
          [
            449162.5,
            6865612.362433745
          ],
          [
            449162.289457525,
            6865612.5
          ],
          [
            449137.50000000006,
            6865627.304079874
          ],
          [
            449116.6602511495,
            6865637.5
          ],
          [
            449112.5,
            6865639.252323075
          ],
          [
            449087.5,
            6865648.169564072
          ],
          [
            449062.5,
            6865654.986025001
          ],
          [
            449037.5,
            6865660.411941203
          ],
          [
            449025.6344352335,
            6865662.5
          ],
          [
            449012.5,
            6865664.429727636
          ],
          [
            448987.5,
            6865667.641756888
          ],
          [
            448962.5,
            6865671.199794232
          ],
          [
            448937.49999999994,
            6865675.842503768
          ],
          [
            448912.49999999994,
            6865681.625438173
          ],
          [
            448891.0904457871,
            6865687.5
          ],
          [
            448887.5,
            6865689.434990157
          ],
          [
            448871.107746649,
            6865712.5
          ],
          [
            448881.01538971404,
            6865737.5
          ],
          [
            448887.50000000006,
            6865748.339939343
          ],
          [
            448893.94332563534,
            6865762.5
          ],
          [
            448912.5,
            6865783.367775664
          ]
        ]
      }
    },
    {
      "type": "Feature",
      "properties": {
        "method": "transverse height maximum"
      },
      "geometry": {
        "type": "LineString",
        "coordinates": [
          [
            448737.5,
            6865712.79081718
          ],
          [
            448737.1420437264,
            6865712.5
          ],
          [
            448712.5,
            6865696.369601684
          ],
          [
            448695.81149221555,
            6865687.5
          ],
          [
            448687.50000000006,
            6865683.412665173
          ],
          [
            448662.5,
            6865672.049682394
          ],
          [
            448641.05678061297,
            6865662.5
          ],
          [
            448637.5,
            6865660.981164957
          ],
          [
            448612.5,
            6865651.565782596
          ],
          [
            448587.5,
            6865643.15477827
          ],
          [
            448568.0456955279,
            6865637.5
          ],
          [
            448562.5,
            6865635.930960099
          ],
          [
            448537.5,
            6865630.261385485
          ],
          [
            448512.5,
            6865625.397391022
          ],
          [
            448487.5,
            6865621.150897867
          ],
          [
            448462.5,
            6865617.317138295
          ],
          [
            448437.5,
            6865613.7118311385
          ],
          [
            448427.9335142895,
            6865612.5
          ],
          [
            448412.49999999994,
            6865610.307975694
          ],
          [
            448387.5,
            6865607.422286175
          ],
          [
            448362.5,
            6865604.253217644
          ],
          [
            448337.5,
            6865599.112055481
          ],
          [
            448312.5,
            6865592.755733671
          ],
          [
            448291.3475709513,
            6865587.5
          ],
          [
            448287.50000000006,
            6865586.271878418
          ],
          [
            448262.5,
            6865580.203080929
          ],
          [
            448237.5,
            6865577.255616029
          ],
          [
            448212.50000000006,
            6865577.992685523
          ],
          [
            448187.5,
            6865582.010528641
          ],
          [
            448164.30278815865,
            6865587.5
          ],
          [
            448162.5,
            6865587.88159537
          ],
          [
            448137.5,
            6865593.946263958
          ]
        ]
      }
    },
    {
      "type": "Feature",
      "properties": {
        "method": "transverse height maximum"
      },
      "geometry": {
        "type": "LineString",
        "coordinates": [
          [
            446912.5,
            6866174.899183359
          ],
          [
            446887.5,
            6866179.133379718
          ],
          [
            446862.5,
            6866178.882874794
          ],
          [
            446837.5,
            6866176.746573929
          ],
          [
            446812.5,
            6866176.372266227
          ],
          [
            446787.5,
            6866181.425775578
          ],
          [
            446773.7903083243,
            6866187.5
          ],
          [
            446762.5,
            6866192.804087041
          ],
          [
            446737.5,
            6866208.093398201
          ],
          [
            446730.6161814496,
            6866212.5
          ],
          [
            446712.5,
            6866225.122293394
          ]
        ]
      }
    },
    {
      "type": "Feature",
      "properties": {
        "method": "transverse height maximum"
      },
      "geometry": {
        "type": "LineString",
        "coordinates": [
          [
            445987.5,
            6866768.451264458
          ],
          [
            445962.5,
            6866767.114582292
          ],
          [
            445937.5,
            6866765.850070911
          ],
          [
            445912.5,
            6866765.830627524
          ],
          [
            445887.5,
            6866768.215893849
          ],
          [
            445862.5,
            6866773.92174109
          ],
          [
            445837.5,
            6866782.584306484
          ],
          [
            445824.0490418627,
            6866787.5
          ],
          [
            445812.5,
            6866791.2293572975
          ],
          [
            445787.5,
            6866798.221841285
          ],
          [
            445762.5,
            6866804.177631438
          ],
          [
            445737.5,
            6866809.167138781
          ],
          [
            445716.44340168923,
            6866812.5
          ],
          [
            445712.5,
            6866813.096877388
          ],
          [
            445687.5,
            6866816.035103807
          ],
          [
            445662.5,
            6866818.385823923
          ],
          [
            445637.5,
            6866820.878800261
          ],
          [
            445612.5,
            6866824.3995672865
          ],
          [
            445587.50000000006,
            6866829.867513206
          ],
          [
            445563.61537290696,
            6866837.5
          ],
          [
            445562.5,
            6866837.912998591
          ],
          [
            445537.5,
            6866849.306738502
          ],
          [
            445512.5,
            6866860.143080679
          ],
          [
            445505.5323016571,
            6866862.5
          ],
          [
            445487.5,
            6866868.330672614
          ],
          [
            445462.5,
            6866872.418885294
          ],
          [
            445437.5,
            6866873.0032594185
          ],
          [
            445412.5,
            6866870.953465321
          ],
          [
            445387.5,
            6866866.862526014
          ],
          [
            445368.45130255196,
            6866862.5
          ],
          [
            445362.5,
            6866861.162578614
          ],
          [
            445337.50000000006,
            6866854.296655204
          ],
          [
            445312.5,
            6866846.418800082
          ],
          [
            445287.51405884564,
            6866837.5
          ],
          [
            445287.49999999994,
            6866837.494951238
          ],
          [
            445262.49999999994,
            6866827.0864151465
          ],
          [
            445237.5,
            6866814.788349952
          ],
          [
            445233.0165646407,
            6866812.5
          ],
          [
            445212.5,
            6866795.1368666245
          ],
          [
            445203.6967462727,
            6866787.5
          ],
          [
            445191.9050616137,
            6866762.5
          ]
        ]
      }
    },
    {
      "type": "Feature",
      "properties": {
        "method": "transverse height maximum"
      },
      "geometry": {
        "type": "LineString",
        "coordinates": [
          [
            449062.5,
            6866908.000080468
          ],
          [
            449037.5,
            6866902.291936462
          ],
          [
            449012.5,
            6866891.191351067
          ],
          [
            449007.0046368489,
            6866887.5
          ],
          [
            448987.5,
            6866873.78321553
          ],
          [
            448976.4660440963,
            6866862.5
          ],
          [
            448962.5,
            6866843.904077724
          ],
          [
            448958.4643917751,
            6866837.5
          ],
          [
            448937.5,
            6866816.973696233
          ],
          [
            448929.1181154752,
            6866812.5
          ],
          [
            448912.5,
            6866807.711145989
          ],
          [
            448887.5,
            6866803.774745462
          ],
          [
            448862.5,
            6866799.865178844
          ],
          [
            448837.5,
            6866794.148986248
          ],
          [
            448815.70424373366,
            6866787.5
          ],
          [
            448812.50000000006,
            6866786.517045233
          ],
          [
            448787.5,
            6866778.827600006
          ],
          [
            448762.5,
            6866774.760344058
          ],
          [
            448737.5,
            6866775.943016942
          ],
          [
            448712.5,
            6866781.0424250495
          ],
          [
            448687.49999999994,
            6866787.33905617
          ],
          [
            448686.6349752261,
            6866787.5
          ],
          [
            448662.5,
            6866791.165577416
          ],
          [
            448637.5,
            6866791.567049865
          ],
          [
            448612.5,
            6866789.568412345
          ],
          [
            448597.9534280246,
            6866787.5
          ],
          [
            448587.5,
            6866786.019332268
          ],
          [
            448562.5,
            6866780.799294575
          ],
          [
            448537.5,
            6866773.150822673
          ],
          [
            448513.3504603274,
            6866762.5
          ],
          [
            448512.5,
            6866762.009765476
          ],
          [
            448487.5,
            6866744.799027129
          ],
          [
            448477.8502906601,
            6866737.5
          ]
        ]
      }
    },
    {
      "type": "Feature",
      "properties": {
        "method": "transverse height maximum"
      },
      "geometry": {
        "type": "LineString",
        "coordinates": [
          [
            447887.5,
            6867242.068361095
          ],
          [
            447880.58806736564,
            6867237.5
          ],
          [
            447862.5,
            6867220.125628589
          ],
          [
            447852.7131870608,
            6867212.5
          ],
          [
            447837.5,
            6867207.17220096
          ],
          [
            447812.5,
            6867202.436705933
          ],
          [
            447787.5,
            6867199.9720809525
          ],
          [
            447762.5,
            6867198.567676624
          ],
          [
            447737.5,
            6867197.664668264
          ],
          [
            447712.5,
            6867197.10647795
          ],
          [
            447687.5,
            6867196.69935357
          ],
          [
            447662.5,
            6867196.011154443
          ],
          [
            447637.5,
            6867194.542485297
          ],
          [
            447612.5,
            6867191.863281612
          ],
          [
            447587.5,
            6867187.688697569
          ],
          [
            447586.61516092747,
            6867187.5
          ],
          [
            447562.5,
            6867182.449745934
          ],
          [
            447537.5,
            6867176.244827586
          ],
          [
            447512.5,
            6867169.628920499
          ],
          [
            447487.5,
            6867162.916923691
          ],
          [
            447485.92913614016,
            6867162.5
          ],
          [
            447462.5,
            6867155.831221802
          ],
          [
            447437.5,
            6867148.295132489
          ],
          [
            447412.5,
            6867140.790087819
          ],
          [
            447400.26937764586,
            6867137.5
          ],
          [
            447387.5,
            6867133.275438991
          ],
          [
            447362.49999999994,
            6867125.338102586
          ],
          [
            447337.5,
            6867116.496524465
          ],
          [
            447327.61932709004,
            6867112.5
          ]
        ]
      }
    },
    {
      "type": "Feature",
      "properties": {
        "method": "transverse height maximum"
      },
      "geometry": {
        "type": "LineString",
        "coordinates": [
          [
            446537.5,
            6867267.330814331
          ],
          [
            446532.12527353084,
            6867262.5
          ],
          [
            446512.5,
            6867242.4272357635
          ],
          [
            446506.34911798016,
            6867237.5
          ],
          [
            446487.5,
            6867218.585914165
          ],
          [
            446479.3103218475,
            6867212.5
          ],
          [
            446462.5,
            6867195.776991629
          ],
          [
            446451.9592610477,
            6867187.5
          ],
          [
            446437.5,
            6867174.28747066
          ],
          [
            446422.0896604958,
            6867162.5
          ],
          [
            446412.49999999994,
            6867155.769658451
          ],
          [
            446387.5,
            6867141.767637931
          ],
          [
            446375.349159079,
            6867137.5
          ],
          [
            446362.5,
            6867133.614573057
          ]
        ]
      }
    },
    {
      "type": "Feature",
      "properties": {
        "method": "transverse height maximum"
      },
      "geometry": {
        "type": "LineString",
        "coordinates": [
          [
            448137.5,
            6867414.857243783
          ],
          [
            448135.3091910239,
            6867412.5
          ],
          [
            448112.5,
            6867390.476827493
          ],
          [
            448109.3687254355,
            6867387.5
          ],
          [
            448087.5,
            6867368.391459774
          ],
          [
            448080.5372704527,
            6867362.5
          ],
          [
            448062.5,
            6867347.707872692
          ],
          [
            448049.2663627734,
            6867337.5
          ],
          [
            448037.50000000006,
            6867328.45455585
          ],
          [
            448015.2844761312,
            6867312.5
          ],
          [
            448012.50000000006,
            6867310.60636445
          ],
          [
            447987.5,
            6867294.652701312
          ],
          [
            447974.8223459627,
            6867287.5
          ],
          [
            447962.5,
            6867280.689479432
          ],
          [
            447937.5,
            6867268.411039609
          ],
          [
            447923.6748226084,
            6867262.5
          ]
        ]
      }
    },
    {
      "type": "Feature",
      "properties": {
        "method": "transverse height maximum"
      },
      "geometry": {
        "type": "LineString",
        "coordinates": [
          [
            448487.5,
            6867721.976700558
          ],
          [
            448472.69363582885,
            6867712.5
          ],
          [
            448462.5,
            6867703.830069954
          ],
          [
            448441.1930363906,
            6867687.5
          ],
          [
            448437.5,
            6867682.495501809
          ],
          [
            448422.28787694324,
            6867662.5
          ],
          [
            448412.5,
            6867646.112797944
          ],
          [
            448407.2770910557,
            6867637.5
          ],
          [
            448387.5,
            6867621.825540665
          ],
          [
            448376.2055708685,
            6867612.5
          ],
          [
            448362.49999999994,
            6867606.010500376
          ],
          [
            448337.5,
            6867592.631874606
          ],
          [
            448328.9151424947,
            6867587.5
          ],
          [
            448312.50000000006,
            6867579.524524899
          ],
          [
            448287.5,
            6867564.16292952
          ],
          [
            448285.15471318574,
            6867562.5
          ],
          [
            448262.5,
            6867547.121632443
          ]
        ]
      }
    },
    {
      "type": "Feature",
      "properties": {
        "method": "transverse height maximum"
      },
      "geometry": {
        "type": "LineString",
        "coordinates": [
          [
            449562.5,
            6868277.633679288
          ],
          [
            449537.5,
            6868282.5176009415
          ],
          [
            449512.5,
            6868277.92648465
          ],
          [
            449487.5,
            6868270.2349708835
          ],
          [
            449467.6271758863,
            6868262.5
          ],
          [
            449462.5,
            6868260.125675855
          ],
          [
            449437.5,
            6868246.740894078
          ],
          [
            449420.31792890275,
            6868237.500000001
          ],
          [
            449412.5,
            6868233.191228018
          ],
          [
            449387.5,
            6868219.4460903825
          ],
          [
            449374.99715912936,
            6868212.5
          ],
          [
            449362.5,
            6868205.4204807095
          ],
          [
            449337.5,
            6868190.91525701
          ],
          [
            449331.63410267816,
            6868187.5
          ],
          [
            449312.5,
            6868172.927860599
          ],
          [
            449296.8861645717,
            6868162.5
          ]
        ]
      }
    },
    {
      "type": "Feature",
      "properties": {
        "method": "transverse height maximum"
      },
      "geometry": {
        "type": "LineString",
        "coordinates": [
          [
            445062.5,
            6868409.525289407
          ],
          [
            445037.5,
            6868394.532977044
          ],
          [
            445022.28677993844,
            6868387.5
          ],
          [
            445012.5,
            6868380.716088174
          ],
          [
            445000.0,
            6868374.757302912
          ]
        ]
      }
    },
    {
      "type": "Feature",
      "properties": {
        "method": "transverse height maximum"
      },
      "geometry": {
        "type": "LineString",
        "coordinates": [
          [
            446162.5,
            6868539.809367224
          ],
          [
            446137.5,
            6868545.396820485
          ],
          [
            446112.50000000006,
            6868551.954630895
          ],
          [
            446087.50000000006,
            6868559.112328459
          ],
          [
            446077.4693864127,
            6868562.5
          ],
          [
            446062.5,
            6868566.532245097
          ],
          [
            446037.5,
            6868574.722609906
          ],
          [
            446012.5,
            6868584.216999065
          ],
          [
            446004.89258761384,
            6868587.500000001
          ],
          [
            445987.5,
            6868595.446087688
          ],
          [
            445962.5,
            6868607.347773586
          ],
          [
            445950.4040308901,
            6868612.5
          ],
          [
            445937.5,
            6868618.194676198
          ],
          [
            445912.5,
            6868622.79526492
          ],
          [
            445887.5,
            6868619.64647915
          ],
          [
            445862.5,
            6868613.122613994
          ],
          [
            445860.49164461886,
            6868612.5
          ],
          [
            445837.49999999994,
            6868604.445047683
          ],
          [
            445812.5,
            6868594.927968615
          ],
          [
            445797.04557672696,
            6868587.499999999
          ],
          [
            445787.5,
            6868576.70869266
          ],
          [
            445778.8293169544,
            6868562.5
          ]
        ]
      }
    },
    {
      "type": "Feature",
      "properties": {
        "method": "transverse height maximum"
      },
      "geometry": {
        "type": "LineString",
        "coordinates": [
          [
            449212.5,
            6868909.991365078
          ],
          [
            449187.5,
            6868904.011529256
          ],
          [
            449162.5,
            6868899.986060387
          ],
          [
            449137.5,
            6868897.142935422
          ],
          [
            449112.5,
            6868896.22413326
          ],
          [
            449087.5,
            6868898.709576709
          ],
          [
            449062.49999999994,
            6868904.194364866
          ],
          [
            449037.5,
            6868910.629379403
          ],
          [
            449030.33272249973,
            6868912.500000001
          ],
          [
            449012.5,
            6868917.695506713
          ],
          [
            448987.5,
            6868925.27610135
          ],
          [
            448962.5,
            6868934.435467327
          ],
          [
            448955.87638851,
            6868937.499999999
          ],
          [
            448937.5,
            6868945.749823604
          ],
          [
            448912.5,
            6868957.601897191
          ],
          [
            448901.74677590874,
            6868962.5
          ],
          [
            448887.5,
            6868967.376913421
          ],
          [
            448862.5,
            6868975.31257964
          ],
          [
            448837.5,
            6868983.639404776
          ],
          [
            448826.97527954023,
            6868987.5
          ],
          [
            448812.5,
            6868992.6602322
          ],
          [
            448787.49999999994,
            6869001.860844524
          ],
          [
            448762.5,
            6869010.565729601
          ],
          [
            448756.48933604546,
            6869012.5
          ],
          [
            448737.5,
            6869018.287736557
          ],
          [
            448712.5,
            6869025.828242931
          ],
          [
            448687.5,
            6869034.208660989
          ],
          [
            448678.996041622,
            6869037.5
          ],
          [
            448662.5,
            6869043.64319164
          ],
          [
            448637.5,
            6869054.61010639
          ],
          [
            448622.42276807444,
            6869062.5
          ],
          [
            448612.5,
            6869068.19847155
          ],
          [
            448587.5,
            6869084.714703644
          ],
          [
            448583.5849449529,
            6869087.5
          ]
        ]
      }
    },
    {
      "type": "Feature",
      "properties": {
        "method": "transverse height maximum"
      },
      "geometry": {
        "type": "LineString",
        "coordinates": [
          [
            445062.5,
            6869094.722236889
          ],
          [
            445037.5,
            6869096.60748774
          ],
          [
            445012.5,
            6869094.5859231055
          ],
          [
            445000.0,
            6869092.419565314
          ]
        ]
      }
    },
    {
      "type": "Feature",
      "properties": {
        "method": "transverse height maximum"
      },
      "geometry": {
        "type": "LineString",
        "coordinates": [
          [
            449312.5,
            6869104.467539786
          ],
          [
            449305.86225887085,
            6869087.5
          ],
          [
            449302.7345961295,
            6869062.5
          ],
          [
            449306.4235041679,
            6869037.5
          ],
          [
            449308.183813104,
            6869012.5
          ],
          [
            449300.49834588775,
            6868987.5
          ],
          [
            449287.5,
            6868965.630438096
          ],
          [
            449285.68491932674,
            6868962.5
          ],
          [
            449262.5,
            6868937.902907744
          ],
          [
            449262.09802302165,
            6868937.5
          ],
          [
            449237.5,
            6868921.018695607
          ],
          [
            449219.4120546893,
            6868912.5
          ]
        ]
      }
    },
    {
      "type": "Feature",
      "properties": {
        "method": "transverse height maximum"
      },
      "geometry": {
        "type": "LineString",
        "coordinates": [
          [
            447787.5,
            6869608.977697908
          ],
          [
            447777.1059418724,
            6869612.5
          ],
          [
            447762.5,
            6869616.752241444
          ],
          [
            447737.5,
            6869624.644809565
          ],
          [
            447712.50000000006,
            6869632.273193321
          ],
          [
            447694.2117757043,
            6869637.5
          ],
          [
            447687.5,
            6869639.602291877
          ],
          [
            447662.5,
            6869646.964429151
          ],
          [
            447637.49999999994,
            6869652.28160185
          ],
          [
            447612.5,
            6869652.875176726
          ],
          [
            447587.5,
            6869647.786772963
          ],
          [
            447562.5,
            6869640.523661986
          ],
          [
            447550.93534976116,
            6869637.5
          ],
          [
            447537.49999999994,
            6869634.92236382
          ],
          [
            447512.5,
            6869631.409031476
          ],
          [
            447487.5,
            6869628.759567733
          ],
          [
            447462.50000000006,
            6869625.929838685
          ]
        ]
      }
    },
    {
      "type": "Feature",
      "properties": {
        "method": "transverse height maximum"
      },
      "geometry": {
        "type": "LineString",
        "coordinates": [
          [
            448110.82699697925,
            6869637.5
          ],
          [
            448087.5,
            6869628.387852427
          ],
          [
            448062.5,
            6869618.026586252
          ],
          [
            448051.2257229656,
            6869612.5
          ],
          [
            448037.50000000006,
            6869606.78772804
          ],
          [
            448012.5,
            6869594.346444561
          ],
          [
            448000.1979928569,
            6869587.5
          ],
          [
            447987.49999999994,
            6869581.064086297
          ],
          [
            447962.5,
            6869567.693426639
          ],
          [
            447953.2261688561,
            6869562.5
          ],
          [
            447937.5,
            6869554.851157141
          ],
          [
            447912.5,
            6869543.122710399
          ],
          [
            447898.0032962081,
            6869537.5
          ],
          [
            447887.5,
            6869534.015178527
          ],
          [
            447862.5,
            6869533.930396382
          ]
        ]
      }
    },
    {
      "type": "Feature",
      "properties": {
        "method": "transverse height maximum"
      },
      "geometry": {
        "type": "LineString",
        "coordinates": [
          [
            446012.5,
            6869701.202202066
          ],
          [
            445996.53190630296,
            6869687.5
          ],
          [
            445987.5,
            6869679.796614744
          ],
          [
            445964.7230599026,
            6869662.500000001
          ],
          [
            445962.49999999994,
            6869660.6331201745
          ],
          [
            445937.5,
            6869641.52834169
          ],
          [
            445931.2646359893,
            6869637.5
          ],
          [
            445912.5,
            6869622.711924555
          ],
          [
            445896.18895589473,
            6869612.5
          ],
          [
            445887.5,
            6869606.736704962
          ],
          [
            445862.5,
            6869593.456258598
          ],
          [
            445849.669965431,
            6869587.5
          ],
          [
            445837.49999999994,
            6869582.620046086
          ],
          [
            445812.5,
            6869572.437262806
          ],
          [
            445792.0798687995,
            6869562.5
          ],
          [
            445787.5,
            6869560.601849027
          ],
          [
            445762.5,
            6869547.814451763
          ],
          [
            445746.9637443,
            6869537.5
          ],
          [
            445737.5,
            6869532.102166185
          ],
          [
            445712.5,
            6869516.417989036
          ],
          [
            445706.1181272717,
            6869512.5
          ],
          [
            445687.5,
            6869501.003310007
          ],
          [
            445666.8847778579,
            6869487.5
          ],
          [
            445662.5,
            6869484.524697837
          ],
          [
            445637.5,
            6869469.396744153
          ],
          [
            445623.5234917033,
            6869487.5
          ],
          [
            445625.3430623763,
            6869512.5
          ]
        ]
      }
    }
  ],
  "provenance": {
    "source_url": "https://data.geopf.fr/wms-r/wms?SERVICE=WMS&VERSION=1.3.0&REQUEST=GetMap&LAYERS=ELEVATION.ELEVATIONGRIDCOVERAGE.HIGHRES&STYLES=normal&CRS=EPSG%3A2154&BBOX=444500.0%2C6864500.0%2C450500.0%2C6870500.0&WIDTH=240&HEIGHT=240&FORMAT=image%2Ftiff",
    "dataset_url": "https://www.data.gouv.fr/datasets/rge-alti-r",
    "layer": "ELEVATION.ELEVATIONGRIDCOVERAGE.HIGHRES",
    "attribution": "Crests derived from © IGN RGE ALTI · Licence Ouverte 2.0",
    "licence": "Licence Ouverte 2.0",
    "retrieved_utc": "2026-10-06T17:43:40.506918+00:00",
    "derived_utc": "2026-10-06T17:43:40.585957+00:00",
    "derivation_code_sha256": "fd8cc5fb145d8bd120ab0393208bb2cd7eed981b9b9d5f7f08d50835d79fd2f3",
    "response_bytes": 230534,
    "response_sha256": "9e682fb313c84e9d01714bfb733efd7271530c942723cc3ed59b18d470bbab37",
    "terrain_file": "ign-terrain-89-1373.tif",
    "raster_bounds_epsg2154": [
      444500.0,
      6864500.0,
      450500.0,
      6870500.0
    ],
    "bounds_epsg2154": [
      445000.0,
      6865000.0,
      450000.0,
      6870000.0
    ],
    "parameters": {
      "grid_m": 25,
      "buffer_m": 500,
      "gaussian_sigma_m": 50,
      "minimum_transverse_curvature_per_m": 0.0003,
      "transverse_probe_m": 200,
      "minimum_drop_each_side_m": 5,
      "minimum_line_length_m": 200
    },
    "terrain_height_range_m": [
      40.219696044921875,
      258.558837890625
    ],
    "method": "Gaussian-smoothed DEM; zero derivative along most concave Hessian eigenvector; negative curvature, two-sided drop and length filters. No flight coordinates used.",
    "limitations": "Approximate, scale-dependent crests; not an official or exhaustive ridge network. Gaps remain at weak ridges, orientation transitions and junctions; no invented links."
  }
}
