{
  "type": "FeatureCollection",
  "crs": {
    "type": "name",
    "properties": {
      "name": "EPSG:2154"
    }
  },
  "features": [
    {
      "type": "Feature",
      "properties": {
        "method": "transverse height maximum"
      },
      "geometry": {
        "type": "LineString",
        "coordinates": [
          [
            924287.5,
            6465863.901462519
          ],
          [
            924305.885509982,
            6465887.5
          ],
          [
            924312.5,
            6465895.617878414
          ],
          [
            924324.8196796873,
            6465912.5
          ],
          [
            924337.5,
            6465930.788464185
          ],
          [
            924341.8908745471,
            6465937.5
          ],
          [
            924355.346320042,
            6465962.5
          ],
          [
            924362.5,
            6465980.769267353
          ],
          [
            924364.8024361437,
            6465987.5
          ],
          [
            924371.2819100581,
            6466012.5
          ],
          [
            924377.395442089,
            6466037.5
          ],
          [
            924384.7073550642,
            6466062.5
          ],
          [
            924387.5,
            6466070.346831135
          ],
          [
            924393.702532623,
            6466087.5
          ]
        ]
      }
    },
    {
      "type": "Feature",
      "properties": {
        "method": "transverse height maximum"
      },
      "geometry": {
        "type": "LineString",
        "coordinates": [
          [
            921087.5,
            6466263.259992936
          ],
          [
            921076.9576152561,
            6466262.5
          ],
          [
            921062.5,
            6466261.56481582
          ],
          [
            921058.8114211133,
            6466262.499999999
          ],
          [
            921037.5,
            6466271.964692487
          ],
          [
            921026.6143809914,
            6466287.5
          ],
          [
            921017.3245267522,
            6466312.5
          ],
          [
            921012.5000000001,
            6466328.902795939
          ],
          [
            921010.0920198143,
            6466337.5
          ],
          [
            921003.4668251924,
            6466362.5
          ],
          [
            920996.9694716173,
            6466387.5
          ],
          [
            920991.1493132791,
            6466412.5
          ],
          [
            920987.4999999999,
            6466435.096734565
          ],
          [
            920987.1335491966,
            6466437.5
          ],
          [
            920985.6651453286,
            6466462.5
          ],
          [
            920985.7570378359,
            6466487.5
          ],
          [
            920984.9473549883,
            6466512.5
          ],
          [
            920979.8096667244,
            6466537.5
          ],
          [
            920968.8567586113,
            6466562.5
          ],
          [
            920962.5,
            6466573.23867947
          ],
          [
            920953.2907897438,
            6466587.5
          ],
          [
            920937.5,
            6466609.030609286
          ],
          [
            920934.5751037882,
            6466612.5
          ],
          [
            920912.5000000001,
            6466636.784395634
          ],
          [
            920911.7771930033,
            6466637.5
          ],
          [
            920887.5,
            6466661.476147857
          ],
          [
            920886.3575720184,
            6466662.500000001
          ],
          [
            920862.5,
            6466686.345245775
          ],
          [
            920860.6718359729,
            6466687.5
          ],
          [
            920837.5,
            6466711.771518441
          ],
          [
            920815.9970990218,
            6466687.5
          ],
          [
            920812.5,
            6466681.298676799
          ]
        ]
      }
    },
    {
      "type": "Feature",
      "properties": {
        "method": "transverse height maximum"
      },
      "geometry": {
        "type": "LineString",
        "coordinates": [
          [
            920812.4999999999,
            6466715.605188577
          ],
          [
            920829.2822384747,
            6466737.5
          ],
          [
            920833.9922281995,
            6466762.5
          ],
          [
            920832.1790422312,
            6466787.5
          ],
          [
            920825.1112841431,
            6466812.5
          ],
          [
            920814.7843559552,
            6466837.5
          ],
          [
            920812.5,
            6466842.119059878
          ],
          [
            920801.4640364203,
            6466862.5
          ],
          [
            920789.2152016417,
            6466887.5
          ],
          [
            920787.5,
            6466891.957656758
          ],
          [
            920780.0242927503,
            6466912.5
          ],
          [
            920773.4144055853,
            6466937.5
          ],
          [
            920766.1828961965,
            6466962.5
          ],
          [
            920762.5,
            6466971.393362507
          ],
          [
            920755.7597237327,
            6466987.5
          ],
          [
            920741.4144191929,
            6467012.5
          ]
        ]
      }
    },
    {
      "type": "Feature",
      "properties": {
        "method": "transverse height maximum"
      },
      "geometry": {
        "type": "LineString",
        "coordinates": [
          [
            920000.0,
            6466996.581878252
          ],
          [
            920010.8229994173,
            6467012.5
          ],
          [
            920012.5,
            6467014.885849218
          ],
          [
            920027.896566852,
            6467037.5
          ],
          [
            920037.5,
            6467050.273091851
          ],
          [
            920046.6472318894,
            6467062.5
          ],
          [
            920062.5,
            6467081.939274449
          ],
          [
            920067.0020355603,
            6467087.5
          ],
          [
            920087.5,
            6467111.301521522
          ],
          [
            920088.5049446402,
            6467112.5
          ],
          [
            920109.930317886,
            6467137.5
          ],
          [
            920112.5,
            6467140.407611978
          ],
          [
            920131.0457358876,
            6467162.5
          ],
          [
            920137.5,
            6467170.09511653
          ],
          [
            920151.8538103113,
            6467187.5
          ],
          [
            920162.5,
            6467200.498201732
          ],
          [
            920172.105178312,
            6467212.5
          ],
          [
            920187.5,
            6467231.835671515
          ],
          [
            920191.9117420561,
            6467237.5
          ],
          [
            920211.6403808749,
            6467262.5
          ],
          [
            920212.5,
            6467263.586932698
          ],
          [
            920231.2471545198,
            6467287.5
          ],
          [
            920237.5,
            6467295.209361301
          ],
          [
            920251.7859065594,
            6467312.5
          ],
          [
            920262.5,
            6467325.175445445
          ],
          [
            920273.2888963227,
            6467337.5
          ],
          [
            920287.5,
            6467353.791167239
          ],
          [
            920295.2585847671,
            6467362.5
          ],
          [
            920312.5,
            6467382.209145025
          ],
          [
            920317.1248881256,
            6467387.5
          ],
          [
            920337.5,
            6467410.619732659
          ],
          [
            920339.1641534488,
            6467412.5
          ]
        ]
      }
    },
    {
      "type": "Feature",
      "properties": {
        "method": "transverse height maximum"
      },
      "geometry": {
        "type": "LineString",
        "coordinates": [
          [
            920559.8490358999,
            6467587.5
          ],
          [
            920562.5,
            6467590.45466365
          ],
          [
            920578.023994397,
            6467612.5
          ],
          [
            920587.5,
            6467625.771583402
          ],
          [
            920594.4699938548,
            6467637.5
          ],
          [
            920609.8734487344,
            6467662.5
          ],
          [
            920612.5,
            6467666.735203284
          ],
          [
            920622.865291385,
            6467687.5
          ],
          [
            920635.3985293705,
            6467712.5
          ],
          [
            920637.5000000001,
            6467717.02838671
          ],
          [
            920645.0907094396,
            6467737.5
          ],
          [
            920654.6600405262,
            6467762.500000001
          ],
          [
            920662.5,
            6467780.180356448
          ],
          [
            920665.3908996804,
            6467787.5
          ],
          [
            920676.222322954,
            6467812.5
          ],
          [
            920687.5,
            6467833.657102253
          ],
          [
            920689.4616772793,
            6467837.5
          ],
          [
            920702.7336501286,
            6467862.5
          ],
          [
            920712.5,
            6467879.385739071
          ],
          [
            920716.9434225012,
            6467887.5
          ],
          [
            920729.0155269969,
            6467912.5
          ],
          [
            920737.5,
            6467933.108941475
          ],
          [
            920739.1309105873,
            6467937.5
          ],
          [
            920745.4689606597,
            6467962.5
          ],
          [
            920749.5422929567,
            6467987.5
          ],
          [
            920751.5300880763,
            6468012.5
          ],
          [
            920751.476593214,
            6468037.5
          ],
          [
            920749.2415894489,
            6468062.5
          ],
          [
            920744.6372763565,
            6468087.5
          ],
          [
            920738.0267488873,
            6468112.5
          ],
          [
            920737.5,
            6468114.308872897
          ],
          [
            920729.9804590491,
            6468137.5
          ],
          [
            920722.6014261775,
            6468162.5
          ],
          [
            920715.7384432025,
            6468187.5
          ],
          [
            920712.5,
            6468199.290268196
          ],
          [
            920707.5673732568,
            6468212.5
          ],
          [
            920698.3510235992,
            6468237.5
          ],
          [
            920689.4795990614,
            6468262.5
          ],
          [
            920687.5,
            6468268.291060455
          ],
          [
            920678.5683794984,
            6468287.500000001
          ],
          [
            920668.4479874456,
            6468312.5
          ],
          [
            920662.5,
            6468327.48792202
          ],
          [
            920657.9355622007,
            6468337.5
          ],
          [
            920647.0177539929,
            6468362.5
          ]
        ]
      }
    },
    {
      "type": "Feature",
      "properties": {
        "method": "transverse height maximum"
      },
      "geometry": {
        "type": "LineString",
        "coordinates": [
          [
            922512.2855503637,
            6468012.5
          ],
          [
            922487.5,
            6468029.800985821
          ],
          [
            922477.0338618871,
            6468037.5
          ],
          [
            922462.5,
            6468057.978244938
          ],
          [
            922460.1251858517,
            6468062.5
          ],
          [
            922455.6570308378,
            6468087.5
          ],
          [
            922454.3497658995,
            6468112.5
          ],
          [
            922452.7211121975,
            6468137.5
          ],
          [
            922448.1476023404,
            6468162.5
          ],
          [
            922439.4843815285,
            6468187.5
          ],
          [
            922437.5,
            6468192.2208002405
          ],
          [
            922432.0269911267,
            6468212.5
          ],
          [
            922428.2852431101,
            6468237.5
          ],
          [
            922428.0907723453,
            6468262.5
          ],
          [
            922430.6439985742,
            6468287.5
          ],
          [
            922434.8132295138,
            6468312.5
          ],
          [
            922437.5,
            6468328.39022191
          ],
          [
            922439.4794979204,
            6468337.5
          ],
          [
            922442.8121618245,
            6468362.5
          ],
          [
            922442.8294552977,
            6468387.5
          ],
          [
            922439.3806779615,
            6468412.5
          ],
          [
            922437.5,
            6468421.622795787
          ],
          [
            922434.9653540708,
            6468437.500000001
          ],
          [
            922432.5318445547,
            6468462.499999999
          ],
          [
            922433.7608367408,
            6468487.5
          ],
          [
            922437.5,
            6468505.556670513
          ],
          [
            922439.0482461292,
            6468512.5
          ],
          [
            922447.8490669894,
            6468537.5
          ],
          [
            922459.0228862393,
            6468562.5
          ],
          [
            922462.5,
            6468569.20473431
          ],
          [
            922472.5802804611,
            6468587.5
          ],
          [
            922487.5,
            6468612.2914965
          ]
        ]
      }
    },
    {
      "type": "Feature",
      "properties": {
        "method": "transverse height maximum"
      },
      "geometry": {
        "type": "LineString",
        "coordinates": [
          [
            920549.2123188283,
            6468487.5
          ],
          [
            920537.9226951555,
            6468512.5
          ],
          [
            920537.5,
            6468513.443878931
          ],
          [
            920524.1874796965,
            6468537.5
          ],
          [
            920513.8119785716,
            6468562.5
          ],
          [
            920512.5,
            6468566.006852153
          ],
          [
            920503.688588385,
            6468587.5
          ],
          [
            920495.7755759079,
            6468612.5
          ],
          [
            920488.8090466589,
            6468637.5
          ],
          [
            920487.5,
            6468641.504828528
          ],
          [
            920479.2644963403,
            6468662.5
          ],
          [
            920468.7222683659,
            6468687.5
          ],
          [
            920462.5,
            6468701.288531033
          ],
          [
            920456.1213615636,
            6468712.5
          ],
          [
            920442.7272713706,
            6468737.5
          ],
          [
            920437.5,
            6468747.517878063
          ],
          [
            920427.8161057304,
            6468762.5
          ],
          [
            920415.339859631,
            6468787.5
          ],
          [
            920412.5,
            6468794.283616018
          ],
          [
            920405.5460895142,
            6468812.5
          ],
          [
            920398.4277708879,
            6468837.5
          ],
          [
            920393.1007613314,
            6468862.5
          ],
          [
            920388.9296164449,
            6468887.5
          ],
          [
            920387.5,
            6468898.3046717895
          ],
          [
            920385.6823402096,
            6468912.5
          ],
          [
            920383.2965590879,
            6468937.5
          ],
          [
            920381.7526812626,
            6468962.5
          ],
          [
            920381.0398786126,
            6468987.5
          ],
          [
            920380.9750408966,
            6469012.5
          ],
          [
            920381.1577275306,
            6469037.5
          ],
          [
            920379.3146749218,
            6469062.499999999
          ],
          [
            920362.5,
            6469068.495160441
          ],
          [
            920337.5,
            6469073.660199615
          ],
          [
            920312.5,
            6469071.584105586
          ]
        ]
      }
    },
    {
      "type": "Feature",
      "properties": {
        "method": "transverse height maximum"
      },
      "geometry": {
        "type": "LineString",
        "coordinates": [
          [
            920801.1106795745,
            6468587.5
          ],
          [
            920812.5,
            6468607.838023787
          ],
          [
            920814.8185070037,
            6468612.5
          ],
          [
            920826.6591422455,
            6468637.5
          ],
          [
            920837.5,
            6468659.175895596
          ],
          [
            920839.0847614306,
            6468662.5
          ],
          [
            920851.4151896773,
            6468687.5
          ],
          [
            920862.5,
            6468708.6091791475
          ],
          [
            920864.515712602,
            6468712.5
          ],
          [
            920877.6033188571,
            6468737.5
          ],
          [
            920887.5,
            6468756.07086423
          ],
          [
            920890.8513171974,
            6468762.5
          ],
          [
            920903.2304946141,
            6468787.5
          ],
          [
            920912.5,
            6468808.058568083
          ],
          [
            920914.3888889073,
            6468812.5
          ],
          [
            920923.4787056695,
            6468837.5
          ],
          [
            920930.914770577,
            6468862.500000001
          ],
          [
            920937.5,
            6468887.42101844
          ],
          [
            920937.5194569887,
            6468887.5
          ],
          [
            920943.4169733545,
            6468912.5
          ],
          [
            920949.2748695242,
            6468937.5
          ],
          [
            920955.4629716102,
            6468962.5
          ],
          [
            920962.3280615467,
            6468987.5
          ],
          [
            920962.5,
            6468988.079895654
          ],
          [
            920969.510886468,
            6469012.5
          ],
          [
            920977.429900045,
            6469037.5
          ],
          [
            920986.1237576527,
            6469062.5
          ],
          [
            920987.4999999999,
            6469066.399806315
          ],
          [
            920994.8964598974,
            6469087.5
          ],
          [
            921003.2581359664,
            6469112.5
          ],
          [
            921011.3508902848,
            6469137.5
          ],
          [
            921012.5,
            6469141.11931523
          ],
          [
            921018.9217805311,
            6469162.5
          ],
          [
            921026.3978699612,
            6469187.5
          ],
          [
            921034.482563984,
            6469212.5
          ],
          [
            921037.5,
            6469220.874236977
          ],
          [
            921042.9750076847,
            6469237.5
          ],
          [
            921051.8939389895,
            6469262.5
          ],
          [
            921062.3193101054,
            6469287.5
          ],
          [
            921062.5,
            6469287.883834333
          ],
          [
            921072.9005617818,
            6469312.5
          ],
          [
            921085.0464130873,
            6469337.5
          ],
          [
            921087.5,
            6469341.975281824
          ],
          [
            921097.8540735391,
            6469362.5
          ],
          [
            921111.9278092566,
            6469387.5
          ],
          [
            921112.5000000001,
            6469388.466655146
          ],
          [
            921125.1644143708,
            6469412.5
          ],
          [
            921137.5,
            6469436.666689972
          ],
          [
            921137.8870035844,
            6469437.5
          ],
          [
            921148.2030990185,
            6469462.5
          ],
          [
            921157.9699007366,
            6469487.5
          ],
          [
            921162.5,
            6469498.166999407
          ],
          [
            921167.7523360415,
            6469512.5
          ],
          [
            921177.3776652094,
            6469537.5
          ],
          [
            921187.5,
            6469561.29578666
          ],
          [
            921187.958984576,
            6469562.5
          ],
          [
            921197.3317902719,
            6469587.5
          ],
          [
            921206.0045589983,
            6469612.5
          ],
          [
            921212.5,
            6469632.500229757
          ],
          [
            921213.9989185834,
            6469637.5
          ],
          [
            921220.2520887097,
            6469662.5
          ],
          [
            921224.482294976,
            6469687.5
          ],
          [
            921226.6775099932,
            6469712.5
          ],
          [
            921228.0292639359,
            6469737.5
          ],
          [
            921229.825856164,
            6469762.5
          ],
          [
            921233.0384875606,
            6469787.5
          ],
          [
            921237.5,
            6469807.777664336
          ],
          [
            921238.4774844853,
            6469812.5
          ],
          [
            921245.8217834291,
            6469837.5
          ],
          [
            921256.5936317011,
            6469862.5
          ],
          [
            921262.5,
            6469872.670759014
          ],
          [
            921270.5195539367,
            6469887.5
          ],
          [
            921287.5,
            6469912.216666491
          ],
          [
            921287.6811377635,
            6469912.5
          ],
          [
            921304.1868237107,
            6469937.5
          ],
          [
            921312.5,
            6469950.024746774
          ],
          [
            921319.5862047082,
            6469962.5
          ],
          [
            921331.8678498287,
            6469987.5
          ],
          [
            921337.5,
            6469999.661674753
          ],
          [
            921337.6385375228,
            6470000.0
          ]
        ]
      }
    },
    {
      "type": "Feature",
      "properties": {
        "method": "transverse height maximum"
      },
      "geometry": {
        "type": "LineString",
        "coordinates": [
          [
            922515.8108853833,
            6468662.5
          ],
          [
            922516.2911842882,
            6468687.5
          ],
          [
            922515.4934085289,
            6468712.5
          ],
          [
            922515.6702426577,
            6468737.5
          ],
          [
            922517.0522390737,
            6468762.5
          ],
          [
            922519.1878205112,
            6468787.5
          ],
          [
            922521.4363578769,
            6468812.5
          ],
          [
            922523.3560627574,
            6468837.5
          ],
          [
            922524.7685672524,
            6468862.5
          ],
          [
            922525.6524838795,
            6468887.499999999
          ],
          [
            922526.0665704298,
            6468912.5
          ],
          [
            922526.0280448939,
            6468937.5
          ],
          [
            922525.2558285546,
            6468962.5
          ],
          [
            922523.0563089129,
            6468987.5
          ],
          [
            922518.7063559273,
            6469012.5
          ],
          [
            922512.5,
            6469035.431026842
          ],
          [
            922511.9821217697,
            6469037.499999999
          ],
          [
            922504.200182246,
            6469062.5
          ],
          [
            922495.5226502835,
            6469087.5
          ],
          [
            922487.5000000001,
            6469110.434544897
          ],
          [
            922486.8091473234,
            6469112.5
          ],
          [
            922479.7911478034,
            6469137.499999999
          ],
          [
            922473.9199690955,
            6469162.5
          ],
          [
            922467.9525563034,
            6469187.5
          ],
          [
            922462.5,
            6469207.468030641
          ],
          [
            922461.2618017553,
            6469212.5
          ],
          [
            922454.7248220029,
            6469237.5
          ],
          [
            922448.0539031025,
            6469262.5
          ],
          [
            922440.9869703247,
            6469287.5
          ],
          [
            922437.5,
            6469298.854509012
          ],
          [
            922433.3711174157,
            6469312.499999999
          ],
          [
            922424.9845009604,
            6469337.5
          ],
          [
            922414.7408888272,
            6469362.5
          ],
          [
            922412.5,
            6469367.231705792
          ],
          [
            922403.2779638995,
            6469387.5
          ],
          [
            922389.9448468217,
            6469412.5
          ],
          [
            922387.5,
            6469416.514724508
          ],
          [
            922375.8661702053,
            6469437.5
          ],
          [
            922362.5,
            6469458.3567623235
          ],
          [
            922360.0419493325,
            6469462.5
          ],
          [
            922344.4773252879,
            6469487.5
          ],
          [
            922337.5,
            6469498.401405866
          ],
          [
            922329.5042090627,
            6469512.5
          ],
          [
            922317.1814643001,
            6469537.5
          ],
          [
            922312.5,
            6469548.281235625
          ],
          [
            922306.7140967831,
            6469562.5
          ],
          [
            922297.735253263,
            6469587.5
          ],
          [
            922289.233783461,
            6469612.5
          ],
          [
            922287.5,
            6469618.27250359
          ],
          [
            922282.9846697912,
            6469637.5
          ],
          [
            922279.2203721525,
            6469662.5
          ],
          [
            922276.9279228529,
            6469687.499999999
          ],
          [
            922275.1561447664,
            6469712.5
          ],
          [
            922273.38702346,
            6469737.5
          ],
          [
            922271.4516251137,
            6469762.5
          ],
          [
            922269.4626383168,
            6469787.5
          ],
          [
            922267.8668548795,
            6469812.5
          ],
          [
            922267.1260180381,
            6469837.5
          ],
          [
            922267.2752712906,
            6469862.5
          ],
          [
            922268.0636375181,
            6469887.5
          ],
          [
            922269.282462373,
            6469912.5
          ],
          [
            922270.8194740756,
            6469937.5
          ],
          [
            922272.3893233548,
            6469962.5
          ],
          [
            922272.9619496558,
            6469987.5
          ],
          [
            922271.5581876251,
            6470000.0
          ]
        ]
      }
    },
    {
      "type": "Feature",
      "properties": {
        "method": "transverse height maximum"
      },
      "geometry": {
        "type": "LineString",
        "coordinates": [
          [
            920212.5,
            6469237.464074279
          ],
          [
            920212.4970848127,
            6469237.5
          ],
          [
            920209.0888420164,
            6469262.5
          ],
          [
            920205.4991883248,
            6469287.500000001
          ],
          [
            920202.6396883294,
            6469312.500000001
          ],
          [
            920201.3050297329,
            6469337.5
          ],
          [
            920202.1363640914,
            6469362.5
          ],
          [
            920205.6169807174,
            6469387.500000001
          ],
          [
            920212.447252697,
            6469412.5
          ],
          [
            920212.5,
            6469412.634925684
          ],
          [
            920223.6419521271,
            6469437.5
          ],
          [
            920237.5,
            6469461.86896152
          ],
          [
            920238.0628414011,
            6469462.5
          ],
          [
            920259.3154991303,
            6469487.5
          ],
          [
            920262.5,
            6469491.672126034
          ]
        ]
      }
    },
    {
      "type": "Feature",
      "properties": {
        "method": "transverse height maximum"
      },
      "geometry": {
        "type": "LineString",
        "coordinates": [
          [
            920437.5,
            6465054.152044578
          ],
          [
            920429.2699140034,
            6465062.5
          ],
          [
            920412.5,
            6465081.410629072
          ],
          [
            920405.2821189901,
            6465087.5
          ],
          [
            920387.5,
            6465103.200106588
          ],
          [
            920374.326616102,
            6465112.5
          ],
          [
            920362.5,
            6465121.6281710565
          ],
          [
            920340.029803272,
            6465137.5
          ],
          [
            920337.5,
            6465139.540436206
          ],
          [
            920312.5,
            6465156.116570924
          ],
          [
            920300.6780414045,
            6465162.500000001
          ],
          [
            920287.5,
            6465169.732305554
          ],
          [
            920262.5,
            6465183.348095293
          ],
          [
            920256.1432336681,
            6465187.500000001
          ],
          [
            920237.5000000001,
            6465202.035673091
          ]
        ]
      }
    },
    {
      "type": "Feature",
      "properties": {
        "method": "transverse height maximum"
      },
      "geometry": {
        "type": "LineString",
        "coordinates": [
          [
            924017.1790097825,
            6466062.5
          ],
          [
            924012.5,
            6466058.453310193
          ],
          [
            923987.7116846386,
            6466037.5
          ],
          [
            923987.5,
            6466037.329744093
          ],
          [
            923962.5,
            6466017.781148861
          ],
          [
            923955.7156000322,
            6466012.5
          ],
          [
            923937.5,
            6465999.170792578
          ],
          [
            923921.2894918782,
            6465987.5
          ],
          [
            923912.5000000001,
            6465981.36140945
          ],
          [
            923887.5,
            6465964.860601404
          ],
          [
            923883.6365381634,
            6465962.5
          ],
          [
            923862.5,
            6465949.680112482
          ],
          [
            923838.9459709842,
            6465937.5
          ],
          [
            923837.4999999999,
            6465936.66814857
          ],
          [
            923812.5,
            6465924.5683581205
          ],
          [
            923787.5,
            6465913.038927427
          ],
          [
            923786.324166028,
            6465912.5
          ],
          [
            923762.5,
            6465898.2918965975
          ],
          [
            923744.7712216015,
            6465887.5
          ]
        ]
      }
    },
    {
      "type": "Feature",
      "properties": {
        "method": "transverse height maximum"
      },
      "geometry": {
        "type": "LineString",
        "coordinates": [
          [
            921803.4106338066,
            6467262.5
          ],
          [
            921787.5,
            6467285.15733695
          ],
          [
            921785.6615787661,
            6467287.5
          ],
          [
            921762.5,
            6467311.599915099
          ],
          [
            921761.6157371748,
            6467312.500000001
          ],
          [
            921737.5,
            6467333.699711259
          ],
          [
            921733.7942404117,
            6467337.5
          ],
          [
            921712.5,
            6467358.625472587
          ],
          [
            921708.6890373055,
            6467362.5
          ],
          [
            921687.5,
            6467385.276646647
          ],
          [
            921684.1954046591,
            6467387.5
          ],
          [
            921662.5,
            6467404.702755976
          ],
          [
            921647.9846249704,
            6467412.5
          ],
          [
            921637.5,
            6467420.543513113
          ],
          [
            921612.5000000001,
            6467436.773636152
          ],
          [
            921610.9571344214,
            6467437.5
          ],
          [
            921587.5,
            6467448.5581033
          ],
          [
            921562.5,
            6467451.477010859
          ],
          [
            921537.5,
            6467454.492168689
          ],
          [
            921512.5,
            6467460.229282714
          ],
          [
            921506.4483248505,
            6467462.5
          ],
          [
            921487.5,
            6467470.039701437
          ],
          [
            921462.5,
            6467483.707637112
          ],
          [
            921454.639463012,
            6467487.5
          ],
          [
            921437.5,
            6467494.038133456
          ],
          [
            921412.5,
            6467494.4406353235
          ],
          [
            921387.5,
            6467489.108557245
          ],
          [
            921379.7966794451,
            6467487.5
          ],
          [
            921362.5,
            6467483.150459809
          ],
          [
            921337.5000000001,
            6467480.30811717
          ],
          [
            921312.5,
            6467479.7954167025
          ],
          [
            921287.5,
            6467480.112876191
          ],
          [
            921262.5,
            6467481.143091073
          ],
          [
            921237.5,
            6467484.643460099
          ],
          [
            921229.0159811244,
            6467487.500000001
          ],
          [
            921212.5,
            6467492.837436891
          ],
          [
            921187.5,
            6467506.068487704
          ],
          [
            921177.6068863741,
            6467512.5
          ],
          [
            921162.5,
            6467521.115225356
          ],
          [
            921137.5000000001,
            6467535.639225794
          ],
          [
            921134.5095904825,
            6467537.5
          ]
        ]
      }
    },
    {
      "type": "Feature",
      "properties": {
        "method": "transverse height maximum"
      },
      "geometry": {
        "type": "LineString",
        "coordinates": [
          [
            920825.7405528936,
            6467362.5
          ],
          [
            920812.5,
            6467374.893369762
          ],
          [
            920798.5767724806,
            6467387.5
          ],
          [
            920787.5,
            6467405.279774796
          ],
          [
            920781.2492518112,
            6467412.5
          ],
          [
            920766.7867954845,
            6467437.5
          ],
          [
            920762.5,
            6467445.7355448315
          ],
          [
            920745.0447335908,
            6467462.5
          ],
          [
            920737.5,
            6467467.462446449
          ],
          [
            920717.1023994971,
            6467487.5
          ],
          [
            920712.5,
            6467491.67684523
          ],
          [
            920691.0172689563,
            6467512.5
          ],
          [
            920687.5,
            6467514.115220674
          ],
          [
            920662.5,
            6467516.521524226
          ]
        ]
      }
    },
    {
      "type": "Feature",
      "properties": {
        "method": "transverse height maximum"
      },
      "geometry": {
        "type": "LineString",
        "coordinates": [
          [
            920533.319992423,
            6467562.5
          ],
          [
            920512.5,
            6467549.448027939
          ],
          [
            920491.9782437999,
            6467537.5
          ],
          [
            920487.5,
            6467535.094246334
          ],
          [
            920462.5,
            6467521.606903141
          ],
          [
            920449.0340571005,
            6467512.5
          ],
          [
            920437.5,
            6467505.022826349
          ],
          [
            920415.443418115,
            6467487.5
          ],
          [
            920412.5,
            6467485.198892641
          ],
          [
            920387.5,
            6467462.884656369
          ],
          [
            920387.1056384988,
            6467462.5
          ],
          [
            920362.5,
            6467437.941038225
          ]
        ]
      }
    },
    {
      "type": "Feature",
      "properties": {
        "method": "transverse height maximum"
      },
      "geometry": {
        "type": "LineString",
        "coordinates": [
          [
            921587.5,
            6468019.883381831
          ],
          [
            921562.5,
            6468020.2367558535
          ],
          [
            921537.5,
            6468022.433381872
          ],
          [
            921512.5,
            6468022.829449707
          ],
          [
            921487.5,
            6468020.370878779
          ],
          [
            921462.5,
            6468015.684798792
          ],
          [
            921444.9712975483,
            6468012.5
          ],
          [
            921437.5,
            6468010.806974051
          ],
          [
            921412.5,
            6468009.184291896
          ],
          [
            921401.7484780035,
            6468012.5
          ],
          [
            921387.5,
            6468015.6863663485
          ],
          [
            921362.5,
            6468033.28404774
          ]
        ]
      }
    },
    {
      "type": "Feature",
      "properties": {
        "method": "transverse height maximum"
      },
      "geometry": {
        "type": "LineString",
        "coordinates": [
          [
            920783.1818593503,
            6468562.5
          ],
          [
            920762.5,
            6468541.731356166
          ],
          [
            920757.9239836478,
            6468537.5
          ],
          [
            920737.5,
            6468520.911100737
          ],
          [
            920726.045482779,
            6468512.5
          ],
          [
            920712.5000000001,
            6468502.702951245
          ],
          [
            920688.0190402373,
            6468487.500000001
          ],
          [
            920687.5,
            6468487.161658746
          ],
          [
            920662.5,
            6468474.28291233
          ],
          [
            920637.5,
            6468465.0427272385
          ],
          [
            920625.6636886095,
            6468462.5
          ],
          [
            920612.5,
            6468459.415718569
          ],
          [
            920587.5,
            6468454.835527198
          ],
          [
            920562.5,
            6468441.688663768
          ],
          [
            920557.9072329166,
            6468437.5
          ],
          [
            920537.5,
            6468418.857923118
          ],
          [
            920530.1223590362,
            6468412.5
          ],
          [
            920512.5,
            6468398.2818895625
          ],
          [
            920489.2212297198,
            6468387.5
          ],
          [
            920487.5,
            6468386.800635089
          ],
          [
            920482.615887015,
            6468387.500000001
          ],
          [
            920462.5,
            6468391.98297514
          ],
          [
            920437.5000000001,
            6468404.114884988
          ],
          [
            920412.5,
            6468406.214147384
          ],
          [
            920387.5,
            6468400.20856914
          ],
          [
            920362.5,
            6468389.956327397
          ],
          [
            920357.8411995086,
            6468387.5
          ],
          [
            920337.5,
            6468377.296324405
          ],
          [
            920317.7828439961,
            6468362.499999999
          ],
          [
            920312.5,
            6468358.701017153
          ],
          [
            920287.5,
            6468339.001538009
          ],
          [
            920285.0804533461,
            6468337.5
          ],
          [
            920262.5,
            6468325.159705192
          ],
          [
            920237.5,
            6468321.7087948285
          ]
        ]
      }
    },
    {
      "type": "Feature",
      "properties": {
        "method": "transverse height maximum"
      },
      "geometry": {
        "type": "LineString",
        "coordinates": [
          [
            920262.5,
            6468633.426850649
          ],
          [
            920237.4999999999,
            6468627.35523834
          ],
          [
            920212.5,
            6468624.382803599
          ],
          [
            920187.5,
            6468624.137729724
          ],
          [
            920162.5000000001,
            6468626.140987271
          ],
          [
            920137.5,
            6468631.615658209
          ],
          [
            920123.7557783336,
            6468637.5
          ],
          [
            920112.5,
            6468641.168820057
          ],
          [
            920087.5,
            6468652.428770496
          ],
          [
            920066.4283971724,
            6468662.5
          ],
          [
            920062.5,
            6468664.112360265
          ],
          [
            920037.5,
            6468675.215436319
          ],
          [
            920012.5000000001,
            6468686.222951566
          ],
          [
            920009.8602939015,
            6468687.499999999
          ],
          [
            920000.0,
            6468691.861586012
          ]
        ]
      }
    },
    {
      "type": "Feature",
      "properties": {
        "method": "transverse height maximum"
      },
      "geometry": {
        "type": "LineString",
        "coordinates": [
          [
            924477.5371346133,
            6469662.5
          ],
          [
            924462.5,
            6469652.190586989
          ],
          [
            924442.6684582878,
            6469637.5
          ],
          [
            924437.4999999999,
            6469634.139197108
          ],
          [
            924412.5,
            6469616.692121059
          ],
          [
            924406.7952816479,
            6469612.5
          ],
          [
            924387.5,
            6469598.323073238
          ],
          [
            924373.7411337461,
            6469587.5
          ],
          [
            924362.5,
            6469578.010641127
          ],
          [
            924344.5540850232,
            6469562.5
          ],
          [
            924337.5,
            6469555.9278462995
          ],
          [
            924317.4186351135,
            6469537.5
          ],
          [
            924312.5,
            6469532.891759747
          ],
          [
            924289.8943692049,
            6469512.5
          ],
          [
            924287.5,
            6469510.416121306
          ],
          [
            924262.5,
            6469489.88368593
          ],
          [
            924259.4893636375,
            6469487.5
          ],
          [
            924237.5,
            6469471.348045504
          ],
          [
            924225.5703530953,
            6469462.5
          ],
          [
            924212.5000000001,
            6469453.247519363
          ],
          [
            924190.8354311844,
            6469437.5
          ],
          [
            924187.5,
            6469435.060365259
          ],
          [
            924162.5,
            6469417.792634458
          ],
          [
            924153.8675427499,
            6469412.5
          ],
          [
            924137.5,
            6469402.252544231
          ],
          [
            924112.5,
            6469389.698669226
          ],
          [
            924106.1930151444,
            6469387.5
          ],
          [
            924087.5,
            6469380.005983805
          ],
          [
            924062.5,
            6469369.720364623
          ],
          [
            924049.4577814095,
            6469362.500000001
          ],
          [
            924037.4999999999,
            6469356.2344218
          ],
          [
            924012.5,
            6469343.733542584
          ],
          [
            923991.1589029598,
            6469337.5
          ],
          [
            923987.4999999999,
            6469336.946381811
          ],
          [
            923962.5,
            6469334.66927583
          ],
          [
            923937.5,
            6469334.639352999
          ],
          [
            923916.4597398465,
            6469337.5
          ],
          [
            923912.5,
            6469338.012881616
          ],
          [
            923887.5,
            6469343.501080893
          ]
        ]
      }
    }
  ],
  "provenance": {
    "source_url": "https://data.geopf.fr/wms-r/wms?SERVICE=WMS&VERSION=1.3.0&REQUEST=GetMap&LAYERS=ELEVATION.ELEVATIONGRIDCOVERAGE.HIGHRES&STYLES=normal&CRS=EPSG%3A2154&BBOX=919500.0%2C6464500.0%2C925500.0%2C6470500.0&WIDTH=240&HEIGHT=240&FORMAT=image%2Ftiff",
    "dataset_url": "https://www.data.gouv.fr/datasets/rge-alti-r",
    "layer": "ELEVATION.ELEVATIONGRIDCOVERAGE.HIGHRES",
    "attribution": "Crests derived from © IGN RGE ALTI · Licence Ouverte 2.0",
    "licence": "Licence Ouverte 2.0",
    "retrieved_utc": "2026-09-22T15:24:27.693891+00:00",
    "derived_utc": "2026-09-22T15:29:06.826876+00:00",
    "derivation_code_sha256": "097f79508273c65e26912088bd99b8e73fa7f20c2eed2ff01fec7fabbd3821be",
    "response_bytes": 230534,
    "response_sha256": "7ab5aff7c808b586f932a588dbc46fc83b1e8c659069217a0ba6f29cb1c47a89",
    "terrain_file": "ign-terrain-184-1293.tif",
    "raster_bounds_epsg2154": [
      919500.0,
      6464500.0,
      925500.0,
      6470500.0
    ],
    "bounds_epsg2154": [
      920000.0,
      6465000.0,
      925000.0,
      6470000.0
    ],
    "parameters": {
      "grid_m": 25,
      "buffer_m": 500,
      "gaussian_sigma_m": 50,
      "minimum_transverse_curvature_per_m": 0.0003,
      "transverse_probe_m": 200,
      "minimum_drop_each_side_m": 5,
      "minimum_line_length_m": 200
    },
    "terrain_height_range_m": [
      221.0,
      1730.14013671875
    ],
    "method": "Gaussian-smoothed DEM; zero derivative along most concave Hessian eigenvector; negative curvature, two-sided drop and length filters. No flight coordinates used.",
    "limitations": "Approximate, scale-dependent crests; not an official or exhaustive ridge network. Gaps remain at weak ridges, orientation transitions and junctions; no invented links."
  }
}
