{
  "type": "FeatureCollection",
  "crs": {
    "type": "name",
    "properties": {
      "name": "EPSG:2154"
    }
  },
  "features": [
    {
      "type": "Feature",
      "properties": {
        "method": "transverse height maximum"
      },
      "geometry": {
        "type": "LineString",
        "coordinates": [
          [
            921337.6385375224,
            6470000.0
          ],
          [
            921342.7570412375,
            6470012.5
          ],
          [
            921352.9067852608,
            6470037.5
          ],
          [
            921362.5,
            6470058.477823153
          ],
          [
            921364.1615440883,
            6470062.5
          ],
          [
            921374.594367818,
            6470087.5
          ],
          [
            921385.6239620516,
            6470112.5
          ],
          [
            921387.5,
            6470116.629780621
          ],
          [
            921395.6351540064,
            6470137.5
          ],
          [
            921405.9966105701,
            6470162.5
          ],
          [
            921412.5,
            6470176.0523667205
          ],
          [
            921417.5173420939,
            6470187.5
          ],
          [
            921430.0576693183,
            6470212.500000001
          ],
          [
            921437.5,
            6470224.711059164
          ],
          [
            921444.9870159352,
            6470237.5
          ],
          [
            921462.5,
            6470262.191371483
          ],
          [
            921462.7224834205,
            6470262.5
          ],
          [
            921482.4540719509,
            6470287.5
          ],
          [
            921487.5,
            6470293.363302354
          ]
        ]
      }
    },
    {
      "type": "Feature",
      "properties": {
        "method": "transverse height maximum"
      },
      "geometry": {
        "type": "LineString",
        "coordinates": [
          [
            922271.5581876251,
            6470000.0
          ],
          [
            922270.1544255945,
            6470012.5
          ],
          [
            922262.5,
            6470033.453131962
          ],
          [
            922261.1379855603,
            6470037.5
          ],
          [
            922246.4463179574,
            6470062.5
          ]
        ]
      }
    },
    {
      "type": "Feature",
      "properties": {
        "method": "transverse height maximum"
      },
      "geometry": {
        "type": "LineString",
        "coordinates": [
          [
            922162.5,
            6470137.779889979
          ],
          [
            922137.5,
            6470157.52127372
          ],
          [
            922132.153605692,
            6470162.5
          ],
          [
            922113.5374326706,
            6470187.5
          ],
          [
            922112.5,
            6470189.707927497
          ],
          [
            922103.1605387692,
            6470212.5
          ],
          [
            922097.1033315192,
            6470237.5
          ],
          [
            922093.716694219,
            6470262.5
          ],
          [
            922090.7599031398,
            6470287.5
          ],
          [
            922087.5,
            6470304.235876885
          ],
          [
            922085.8669026991,
            6470312.5
          ],
          [
            922078.9206897109,
            6470337.499999999
          ],
          [
            922070.6701700365,
            6470362.5
          ]
        ]
      }
    },
    {
      "type": "Feature",
      "properties": {
        "method": "transverse height maximum"
      },
      "geometry": {
        "type": "LineString",
        "coordinates": [
          [
            922942.425214646,
            6470262.5
          ],
          [
            922962.5,
            6470282.931973828
          ],
          [
            922968.3120852672,
            6470287.5
          ],
          [
            922973.5422729062,
            6470312.5
          ],
          [
            922971.4560798222,
            6470337.5
          ],
          [
            922968.544474407,
            6470362.5
          ],
          [
            922965.7986413743,
            6470387.5
          ],
          [
            922963.3339063217,
            6470412.5
          ],
          [
            922962.5,
            6470421.14569446
          ],
          [
            922961.0133689133,
            6470437.500000001
          ],
          [
            922958.5493541275,
            6470462.5
          ],
          [
            922955.7099044552,
            6470487.5
          ],
          [
            922952.4827950106,
            6470512.5
          ],
          [
            922948.935189445,
            6470537.5
          ],
          [
            922945.2982483789,
            6470562.5
          ],
          [
            922942.0139913996,
            6470587.5
          ],
          [
            922939.6082340302,
            6470612.5
          ],
          [
            922938.5003539227,
            6470637.5
          ],
          [
            922938.6636506803,
            6470662.5
          ],
          [
            922939.3942674028,
            6470687.5
          ],
          [
            922939.4635460002,
            6470712.5
          ],
          [
            922938.0371756195,
            6470737.5
          ],
          [
            922937.5,
            6470742.399558205
          ],
          [
            922934.8947410382,
            6470762.500000001
          ],
          [
            922931.1803410179,
            6470787.5
          ],
          [
            922928.0753258893,
            6470812.5
          ],
          [
            922926.3204621966,
            6470837.5
          ],
          [
            922926.3039817237,
            6470862.5
          ],
          [
            922927.5263182601,
            6470887.499999999
          ],
          [
            922927.9604141919,
            6470912.5
          ],
          [
            922925.6165003272,
            6470937.5
          ],
          [
            922921.2157748218,
            6470962.5
          ],
          [
            922916.4967945659,
            6470987.5
          ],
          [
            922912.5,
            6471012.45045462
          ],
          [
            922912.4900985776,
            6471012.499999999
          ],
          [
            922908.8576020037,
            6471037.5
          ],
          [
            922907.0207946332,
            6471062.500000001
          ],
          [
            922907.0065645766,
            6471087.5
          ],
          [
            922908.9839591362,
            6471112.5
          ],
          [
            922912.5,
            6471135.082479056
          ],
          [
            922912.787485452,
            6471137.5
          ],
          [
            922916.2369209593,
            6471162.5
          ],
          [
            922919.5423422058,
            6471187.5
          ],
          [
            922922.56184368,
            6471212.5
          ],
          [
            922925.5567431926,
            6471237.5
          ],
          [
            922929.1039283324,
            6471262.5
          ],
          [
            922934.66698959,
            6471287.500000001
          ],
          [
            922937.5,
            6471295.553742655
          ],
          [
            922942.004551415,
            6471312.5
          ],
          [
            922955.0635345756,
            6471337.5
          ]
        ]
      }
    },
    {
      "type": "Feature",
      "properties": {
        "method": "transverse height maximum"
      },
      "geometry": {
        "type": "LineString",
        "coordinates": [
          [
            920000.0,
            6471025.583928103
          ],
          [
            920010.427372269,
            6471037.5
          ],
          [
            920012.5,
            6471039.558234461
          ],
          [
            920037.5,
            6471061.256890853
          ]
        ]
      }
    },
    {
      "type": "Feature",
      "properties": {
        "method": "transverse height maximum"
      },
      "geometry": {
        "type": "LineString",
        "coordinates": [
          [
            921562.5,
            6470463.995853974
          ],
          [
            921566.2035725454,
            6470462.5
          ],
          [
            921587.5,
            6470448.1792362705
          ],
          [
            921600.9459158981,
            6470462.499999999
          ],
          [
            921612.4999999999,
            6470474.16868224
          ],
          [
            921622.3377588177,
            6470487.5
          ],
          [
            921637.5,
            6470508.292188574
          ],
          [
            921640.4639409818,
            6470512.5
          ],
          [
            921657.4569329515,
            6470537.5
          ],
          [
            921662.5000000001,
            6470545.304553769
          ],
          [
            921673.847072311,
            6470562.5
          ],
          [
            921687.2241065272,
            6470587.5
          ],
          [
            921687.4999999999,
            6470588.31377516
          ],
          [
            921698.4508901802,
            6470612.5
          ],
          [
            921699.6059462435,
            6470637.5
          ],
          [
            921696.1894686673,
            6470662.5
          ],
          [
            921692.4990698335,
            6470687.5
          ],
          [
            921688.8117812203,
            6470712.5
          ],
          [
            921687.5,
            6470721.224256813
          ],
          [
            921684.513002546,
            6470737.5
          ],
          [
            921680.4549624226,
            6470762.5
          ],
          [
            921678.2665432459,
            6470787.5
          ],
          [
            921678.7799312061,
            6470812.5
          ],
          [
            921682.1785439092,
            6470837.5
          ],
          [
            921687.5,
            6470857.764480921
          ],
          [
            921688.6997666613,
            6470862.5
          ],
          [
            921697.9432473157,
            6470887.5
          ]
        ]
      }
    },
    {
      "type": "Feature",
      "properties": {
        "method": "transverse height maximum"
      },
      "geometry": {
        "type": "LineString",
        "coordinates": [
          [
            922086.4926064309,
            6470487.5
          ],
          [
            922087.5,
            6470488.643370185
          ],
          [
            922107.238172568,
            6470512.499999999
          ],
          [
            922112.5,
            6470519.986923636
          ],
          [
            922123.47077871,
            6470537.5
          ],
          [
            922135.8806033625,
            6470562.5
          ],
          [
            922137.5,
            6470566.160079884
          ],
          [
            922146.7291022615,
            6470587.5
          ],
          [
            922159.2676529033,
            6470612.500000001
          ],
          [
            922162.5,
            6470617.859339996
          ],
          [
            922174.0366667251,
            6470637.5
          ],
          [
            922187.5,
            6470658.157295918
          ],
          [
            922189.9921645575,
            6470662.5
          ],
          [
            922203.4731554543,
            6470687.5
          ],
          [
            922212.5,
            6470706.624893679
          ],
          [
            922214.8528074176,
            6470712.5
          ],
          [
            922223.4001160897,
            6470737.5
          ],
          [
            922230.612335141,
            6470762.5
          ],
          [
            922236.8902361102,
            6470787.500000001
          ],
          [
            922237.5,
            6470790.075271164
          ],
          [
            922242.2746597375,
            6470812.5
          ],
          [
            922247.1414756809,
            6470837.5
          ],
          [
            922251.5750236813,
            6470862.5
          ],
          [
            922255.4199062712,
            6470887.5
          ],
          [
            922258.4107040477,
            6470912.5
          ],
          [
            922260.3321352713,
            6470937.5
          ],
          [
            922261.2045484505,
            6470962.5
          ],
          [
            922261.3240477687,
            6470987.5
          ],
          [
            922261.0060282184,
            6471012.500000001
          ],
          [
            922260.4558100904,
            6471037.5
          ],
          [
            922259.6995918243,
            6471062.5
          ],
          [
            922258.1453829989,
            6471087.5
          ],
          [
            922254.9641083272,
            6471112.5
          ],
          [
            922250.3680329779,
            6471137.5
          ],
          [
            922245.0449333185,
            6471162.5
          ],
          [
            922239.3417525616,
            6471187.5
          ],
          [
            922237.5,
            6471194.974626877
          ],
          [
            922233.5044171264,
            6471212.499999999
          ],
          [
            922227.9812384177,
            6471237.500000001
          ],
          [
            922222.8359354559,
            6471262.5
          ],
          [
            922218.1302910426,
            6471287.5
          ],
          [
            922213.8872128009,
            6471312.5
          ],
          [
            922212.5,
            6471322.276343504
          ],
          [
            922209.986307332,
            6471337.5
          ],
          [
            922207.0113522541,
            6471362.5
          ],
          [
            922205.5797807411,
            6471387.499999999
          ],
          [
            922205.6218394615,
            6471412.5
          ],
          [
            922205.9215494124,
            6471437.5
          ],
          [
            922204.8356479146,
            6471462.5
          ],
          [
            922201.9240130625,
            6471487.5
          ],
          [
            922198.1652673099,
            6471512.5
          ],
          [
            922194.470224509,
            6471537.5
          ],
          [
            922190.9834375966,
            6471562.5
          ],
          [
            922187.4999999999,
            6471586.7202304825
          ],
          [
            922187.3876467494,
            6471587.5
          ],
          [
            922183.7123491648,
            6471612.5
          ],
          [
            922180.0535888873,
            6471637.5
          ],
          [
            922176.565879927,
            6471662.5
          ],
          [
            922173.4328205291,
            6471687.5
          ],
          [
            922170.7804821315,
            6471712.5
          ],
          [
            922168.5639833251,
            6471737.5
          ],
          [
            922166.6183568595,
            6471762.5
          ],
          [
            922164.8585249215,
            6471787.5
          ],
          [
            922163.2435000419,
            6471812.5
          ],
          [
            922162.5,
            6471824.092834345
          ],
          [
            922161.6595028725,
            6471837.5
          ],
          [
            922159.9663230212,
            6471862.5
          ],
          [
            922157.9578914861,
            6471887.5
          ],
          [
            922155.3699861288,
            6471912.5
          ],
          [
            922152.0744894204,
            6471937.5
          ],
          [
            922148.6084309133,
            6471962.5
          ],
          [
            922147.0230990036,
            6471987.5
          ],
          [
            922148.7245765326,
            6472012.5
          ],
          [
            922152.1339213925,
            6472037.5
          ],
          [
            922155.9107778162,
            6472062.5
          ],
          [
            922159.6469290439,
            6472087.5
          ],
          [
            922162.5,
            6472107.064192618
          ],
          [
            922163.2502556723,
            6472112.5
          ],
          [
            922166.5987831828,
            6472137.5
          ],
          [
            922169.8622078801,
            6472162.5
          ],
          [
            922172.9769866905,
            6472187.5
          ],
          [
            922175.8287692316,
            6472212.5
          ],
          [
            922178.3216481183,
            6472237.499999999
          ],
          [
            922180.4416134498,
            6472262.5
          ],
          [
            922182.2136583305,
            6472287.5
          ],
          [
            922183.6629812076,
            6472312.5
          ],
          [
            922184.8106855846,
            6472337.5
          ],
          [
            922185.574310968,
            6472362.499999999
          ],
          [
            922185.692940869,
            6472387.5
          ],
          [
            922185.2057615629,
            6472412.5
          ],
          [
            922185.0324138826,
            6472437.5
          ],
          [
            922186.2964026311,
            6472462.500000001
          ],
          [
            922187.5,
            6472471.517022714
          ],
          [
            922189.1905811985,
            6472487.5
          ],
          [
            922193.39788,
            6472512.5
          ],
          [
            922198.9683980413,
            6472537.5
          ],
          [
            922205.7033004675,
            6472562.5
          ],
          [
            922212.5,
            6472584.4986574715
          ],
          [
            922213.2215990789,
            6472587.5
          ],
          [
            922219.1650494736,
            6472612.5
          ],
          [
            922225.5568179607,
            6472637.5
          ],
          [
            922232.4999174277,
            6472662.5
          ],
          [
            922237.5,
            6472680.739612311
          ],
          [
            922238.8594050162,
            6472687.5
          ],
          [
            922242.5625866648,
            6472712.5
          ],
          [
            922245.0181275095,
            6472737.5
          ],
          [
            922246.2320424963,
            6472762.5
          ],
          [
            922246.2145638887,
            6472787.5
          ],
          [
            922244.9741682719,
            6472812.5
          ],
          [
            922242.6476733163,
            6472837.5
          ],
          [
            922239.4352223452,
            6472862.5
          ],
          [
            922237.5,
            6472874.806685454
          ],
          [
            922234.4145323333,
            6472887.5
          ],
          [
            922227.9241322165,
            6472912.5
          ],
          [
            922221.3161448176,
            6472937.5
          ],
          [
            922214.4974073567,
            6472962.5
          ],
          [
            922212.5,
            6472969.143041039
          ],
          [
            922204.2429974899,
            6472987.5
          ],
          [
            922191.9981708708,
            6473012.5
          ],
          [
            922187.5,
            6473019.806247009
          ],
          [
            922172.5836293332,
            6473037.5
          ],
          [
            922162.5,
            6473045.762518814
          ]
        ]
      }
    },
    {
      "type": "Feature",
      "properties": {
        "method": "transverse height maximum"
      },
      "geometry": {
        "type": "LineString",
        "coordinates": [
          [
            921371.4092055873,
            6470562.5
          ],
          [
            921362.5,
            6470578.677863022
          ],
          [
            921357.9814651692,
            6470587.5
          ],
          [
            921347.9237862591,
            6470612.5
          ],
          [
            921341.1639755648,
            6470637.5
          ],
          [
            921337.9256966242,
            6470662.5
          ],
          [
            921338.1285304532,
            6470687.5
          ],
          [
            921340.5990485665,
            6470712.5
          ],
          [
            921343.5266814516,
            6470737.5
          ],
          [
            921344.6233355887,
            6470762.5
          ],
          [
            921341.7027468223,
            6470787.5
          ],
          [
            921337.4999999999,
            6470800.699389574
          ],
          [
            921335.1184612778,
            6470812.500000001
          ],
          [
            921327.468852598,
            6470837.5
          ],
          [
            921317.166674526,
            6470862.5
          ],
          [
            921312.5,
            6470871.81645234
          ],
          [
            921306.1661973592,
            6470887.5
          ],
          [
            921295.2082367071,
            6470912.5
          ],
          [
            921287.5,
            6470928.706736834
          ],
          [
            921283.8161672428,
            6470937.5
          ],
          [
            921273.6357773588,
            6470962.5
          ],
          [
            921264.6397946689,
            6470987.5
          ],
          [
            921265.4229261811,
            6471012.5
          ]
        ]
      }
    },
    {
      "type": "Feature",
      "properties": {
        "method": "transverse height maximum"
      },
      "geometry": {
        "type": "LineString",
        "coordinates": [
          [
            923612.5,
            6470664.498351426
          ],
          [
            923637.5,
            6470686.957332381
          ],
          [
            923638.0798910765,
            6470687.5
          ],
          [
            923657.9118448723,
            6470712.5
          ],
          [
            923662.5000000001,
            6470721.515575631
          ],
          [
            923668.944535869,
            6470737.5
          ],
          [
            923676.3170060255,
            6470762.500000001
          ],
          [
            923682.3789657889,
            6470787.5
          ],
          [
            923687.5,
            6470808.250548793
          ],
          [
            923688.7522121483,
            6470812.5
          ],
          [
            923698.3821736842,
            6470837.5
          ],
          [
            923712.5,
            6470858.190793945
          ],
          [
            923727.8957726033,
            6470862.5
          ],
          [
            923737.5,
            6470865.424511658
          ],
          [
            923746.8957691733,
            6470862.5
          ],
          [
            923762.5,
            6470853.16593693
          ],
          [
            923775.859497847,
            6470862.5
          ],
          [
            923775.4732925232,
            6470887.5
          ],
          [
            923768.6651012276,
            6470912.5
          ],
          [
            923762.5,
            6470924.853828253
          ],
          [
            923757.770573337,
            6470937.5
          ],
          [
            923746.9961663167,
            6470962.5
          ],
          [
            923737.5,
            6470985.137682627
          ]
        ]
      }
    },
    {
      "type": "Feature",
      "properties": {
        "method": "transverse height maximum"
      },
      "geometry": {
        "type": "LineString",
        "coordinates": [
          [
            924133.39336353,
            6470987.5
          ],
          [
            924123.666938237,
            6471012.5
          ],
          [
            924112.5000000001,
            6471035.964195661
          ],
          [
            924111.9093583395,
            6471037.5
          ],
          [
            924099.142878027,
            6471062.5
          ],
          [
            924087.5,
            6471086.462128538
          ],
          [
            924086.8731819362,
            6471087.5
          ],
          [
            924070.2384083333,
            6471112.5
          ],
          [
            924062.5,
            6471123.426030549
          ],
          [
            924051.5107493988,
            6471137.5
          ],
          [
            924037.5000000001,
            6471159.635127724
          ],
          [
            924036.429133019,
            6471162.5
          ]
        ]
      }
    },
    {
      "type": "Feature",
      "properties": {
        "method": "transverse height maximum"
      },
      "geometry": {
        "type": "LineString",
        "coordinates": [
          [
            923612.5,
            6471055.898863766
          ],
          [
            923606.1050815899,
            6471062.500000001
          ],
          [
            923587.5,
            6471085.741735202
          ],
          [
            923586.8051060361,
            6471087.5
          ],
          [
            923576.9165257136,
            6471112.5
          ],
          [
            923565.5337292977,
            6471137.5
          ],
          [
            923562.5,
            6471151.453411905
          ],
          [
            923560.7202677737,
            6471162.5
          ],
          [
            923559.9197912395,
            6471187.500000001
          ],
          [
            923557.9070065977,
            6471212.5
          ],
          [
            923554.1020449969,
            6471237.5
          ],
          [
            923548.5032708601,
            6471262.5
          ],
          [
            923542.2496213163,
            6471287.5
          ],
          [
            923540.2951775012,
            6471312.5
          ],
          [
            923544.297275238,
            6471337.5
          ],
          [
            923550.585769376,
            6471362.5
          ],
          [
            923554.7903522082,
            6471387.5
          ],
          [
            923554.0494020199,
            6471412.5
          ],
          [
            923550.9137600302,
            6471437.500000001
          ],
          [
            923551.1461922398,
            6471462.5
          ],
          [
            923555.6060256434,
            6471487.499999999
          ],
          [
            923562.409636048,
            6471512.5
          ],
          [
            923562.4999999999,
            6471512.799079228
          ],
          [
            923569.5762945783,
            6471537.5
          ],
          [
            923577.5119587248,
            6471562.5
          ],
          [
            923587.3125663828,
            6471587.5
          ],
          [
            923587.5000000001,
            6471587.924663327
          ],
          [
            923595.5485324616,
            6471612.5
          ],
          [
            923605.770220858,
            6471637.5
          ],
          [
            923612.5,
            6471651.525665927
          ],
          [
            923617.1476933941,
            6471662.5
          ],
          [
            923629.2067606782,
            6471687.5
          ],
          [
            923637.5,
            6471703.309752848
          ],
          [
            923642.6149634128,
            6471712.5
          ],
          [
            923657.4566630265,
            6471737.5
          ],
          [
            923662.5,
            6471747.4543433115
          ]
        ]
      }
    },
    {
      "type": "Feature",
      "properties": {
        "method": "transverse height maximum"
      },
      "geometry": {
        "type": "LineString",
        "coordinates": [
          [
            922962.5,
            6471343.852015836
          ],
          [
            922975.937230862,
            6471362.5
          ],
          [
            922987.5000000001,
            6471373.955804651
          ],
          [
            922996.7345614645,
            6471387.5
          ],
          [
            923012.5,
            6471407.38566677
          ],
          [
            923015.7910895437,
            6471412.5
          ],
          [
            923033.3916244966,
            6471437.5
          ],
          [
            923037.5,
            6471442.7499994775
          ],
          [
            923051.4073085807,
            6471462.5
          ],
          [
            923062.5,
            6471475.751404766
          ],
          [
            923071.5857319939,
            6471487.5
          ],
          [
            923087.5,
            6471505.742769928
          ],
          [
            923092.8318546922,
            6471512.5
          ],
          [
            923112.5,
            6471536.656252087
          ],
          [
            923113.1140974063,
            6471537.5
          ],
          [
            923130.353482826,
            6471562.5
          ],
          [
            923137.4999999999,
            6471572.337409936
          ],
          [
            923147.2829987721,
            6471587.5
          ],
          [
            923162.5,
            6471611.239428035
          ],
          [
            923163.2734905244,
            6471612.5
          ],
          [
            923176.0630373607,
            6471637.5
          ],
          [
            923186.8307653165,
            6471662.5
          ],
          [
            923187.5,
            6471664.688144307
          ]
        ]
      }
    },
    {
      "type": "Feature",
      "properties": {
        "method": "transverse height maximum"
      },
      "geometry": {
        "type": "LineString",
        "coordinates": [
          [
            920965.5997935494,
            6471387.5
          ],
          [
            920966.7027999341,
            6471412.5
          ],
          [
            920972.3897884951,
            6471437.5
          ],
          [
            920981.5364953737,
            6471462.5
          ],
          [
            920987.4999999999,
            6471474.105710629
          ],
          [
            920994.3696858528,
            6471487.5
          ],
          [
            921009.2022801779,
            6471512.5
          ],
          [
            921012.5,
            6471517.847084839
          ],
          [
            921024.4036504665,
            6471537.5
          ],
          [
            921037.5,
            6471561.746651452
          ],
          [
            921037.8249255387,
            6471562.5
          ],
          [
            921046.6417677413,
            6471587.5
          ],
          [
            921054.658459617,
            6471612.500000001
          ],
          [
            921062.5,
            6471632.607731963
          ]
        ]
      }
    },
    {
      "type": "Feature",
      "properties": {
        "method": "transverse height maximum"
      },
      "geometry": {
        "type": "LineString",
        "coordinates": [
          [
            923773.1806904308,
            6471862.5
          ],
          [
            923787.5,
            6471879.276571271
          ],
          [
            923793.3290469793,
            6471887.5
          ],
          [
            923809.8558761096,
            6471912.500000001
          ],
          [
            923812.5,
            6471918.073324177
          ],
          [
            923819.0955822885,
            6471937.5
          ],
          [
            923823.4976374517,
            6471962.5
          ],
          [
            923825.2800819888,
            6471987.5
          ],
          [
            923828.0871242214,
            6472012.5
          ],
          [
            923833.7101565503,
            6472037.5
          ],
          [
            923837.5,
            6472048.13041014
          ],
          [
            923840.3584211498,
            6472062.5
          ],
          [
            923848.9412944812,
            6472087.5
          ],
          [
            923862.5,
            6472108.756574736
          ],
          [
            923864.2484286567,
            6472112.5
          ],
          [
            923882.9203326267,
            6472137.5
          ],
          [
            923887.5,
            6472141.638045999
          ],
          [
            923906.6828890938,
            6472162.5
          ]
        ]
      }
    },
    {
      "type": "Feature",
      "properties": {
        "method": "transverse height maximum"
      },
      "geometry": {
        "type": "LineString",
        "coordinates": [
          [
            923518.4919684432,
            6471912.5
          ],
          [
            923512.5,
            6471921.113587485
          ],
          [
            923503.0747272215,
            6471937.5
          ],
          [
            923487.5,
            6471959.814765155
          ],
          [
            923485.9297382908,
            6471962.5
          ],
          [
            923469.8310127022,
            6471987.5
          ],
          [
            923462.5,
            6471997.163249265
          ],
          [
            923453.091804126,
            6472012.5
          ],
          [
            923437.5,
            6472035.111275596
          ],
          [
            923436.177975261,
            6472037.499999999
          ],
          [
            923424.1621137306,
            6472062.5
          ],
          [
            923415.7870587108,
            6472087.5
          ],
          [
            923412.5,
            6472112.444205592
          ],
          [
            923412.4952112486,
            6472112.5
          ],
          [
            923412.5,
            6472113.027350718
          ],
          [
            923412.8496408209,
            6472137.5
          ],
          [
            923415.4264417337,
            6472162.5
          ],
          [
            923419.2077053218,
            6472187.5
          ],
          [
            923423.351256167,
            6472212.5
          ],
          [
            923427.3582403259,
            6472237.499999999
          ],
          [
            923431.0539838526,
            6472262.5
          ],
          [
            923434.4089433522,
            6472287.5
          ],
          [
            923437.4316115134,
            6472312.5
          ],
          [
            923437.5,
            6472313.108336137
          ],
          [
            923441.8564803771,
            6472337.5
          ],
          [
            923445.2271172733,
            6472362.5
          ],
          [
            923447.7734248369,
            6472387.5
          ],
          [
            923449.8045780531,
            6472412.5
          ],
          [
            923451.6452993267,
            6472437.500000001
          ],
          [
            923453.6292715766,
            6472462.5
          ],
          [
            923456.0178191797,
            6472487.5
          ],
          [
            923458.9175699662,
            6472512.5
          ],
          [
            923462.4095226646,
            6472537.5
          ],
          [
            923462.5,
            6472538.009220609
          ],
          [
            923469.9597437129,
            6472562.5
          ],
          [
            923478.9908560886,
            6472587.5
          ],
          [
            923487.5,
            6472607.9234466
          ]
        ]
      }
    },
    {
      "type": "Feature",
      "properties": {
        "method": "transverse height maximum"
      },
      "geometry": {
        "type": "LineString",
        "coordinates": [
          [
            923987.5,
            6472243.716620898
          ],
          [
            923997.947517721,
            6472262.5
          ],
          [
            924009.5438705602,
            6472287.499999999
          ],
          [
            924012.5,
            6472296.070467581
          ],
          [
            924016.3451821049,
            6472312.5
          ],
          [
            924022.3309291885,
            6472337.5
          ],
          [
            924030.7533050565,
            6472362.5
          ],
          [
            924037.5,
            6472377.450513711
          ],
          [
            924040.886322995,
            6472387.5
          ],
          [
            924051.0630962491,
            6472412.5
          ],
          [
            924062.5,
            6472434.191862891
          ],
          [
            924063.947536305,
            6472437.5
          ],
          [
            924075.3265166145,
            6472462.499999999
          ],
          [
            924087.5,
            6472484.2777197985
          ],
          [
            924089.0975727737,
            6472487.5
          ],
          [
            924102.264178457,
            6472512.5
          ],
          [
            924112.5,
            6472528.306419148
          ],
          [
            924118.1813225484,
            6472537.5
          ],
          [
            924136.5816695567,
            6472562.499999999
          ],
          [
            924137.5,
            6472563.648351225
          ]
        ]
      }
    },
    {
      "type": "Feature",
      "properties": {
        "method": "transverse height maximum"
      },
      "geometry": {
        "type": "LineString",
        "coordinates": [
          [
            924325.4449995791,
            6472712.5
          ],
          [
            924337.5,
            6472725.92149048
          ],
          [
            924345.7117346062,
            6472737.5
          ],
          [
            924357.5618710185,
            6472762.5
          ],
          [
            924361.8019784269,
            6472787.5
          ],
          [
            924362.5,
            6472802.846238112
          ],
          [
            924362.7761367859,
            6472812.5
          ],
          [
            924363.9694418103,
            6472837.5
          ],
          [
            924366.4268270833,
            6472862.5
          ],
          [
            924370.1602429363,
            6472887.5
          ],
          [
            924375.3459423082,
            6472912.500000001
          ],
          [
            924382.4497408536,
            6472937.5
          ],
          [
            924387.5,
            6472951.6011863295
          ],
          [
            924389.9112216554,
            6472962.5
          ],
          [
            924396.9388297128,
            6472987.5
          ],
          [
            924406.3481743685,
            6473012.5
          ],
          [
            924412.5,
            6473025.19717806
          ],
          [
            924416.7769002866,
            6473037.5
          ],
          [
            924427.8902395014,
            6473062.5
          ],
          [
            924437.5,
            6473078.2462757835
          ],
          [
            924441.7306332322,
            6473087.5
          ],
          [
            924455.1557941523,
            6473112.5
          ],
          [
            924462.5000000001,
            6473124.102493092
          ],
          [
            924468.6561586449,
            6473137.5
          ],
          [
            924479.5221061592,
            6473162.5
          ],
          [
            924487.5,
            6473183.183956193
          ],
          [
            924488.6175318111,
            6473187.5
          ],
          [
            924493.5408863015,
            6473212.5
          ],
          [
            924498.1249825564,
            6473237.5
          ],
          [
            924503.0311787553,
            6473262.499999999
          ],
          [
            924508.6308441784,
            6473287.5
          ],
          [
            924512.5,
            6473302.762462537
          ],
          [
            924514.2311112201,
            6473312.5
          ],
          [
            924518.8651196901,
            6473337.5
          ],
          [
            924523.8907788419,
            6473362.5
          ],
          [
            924529.4475524558,
            6473387.5
          ],
          [
            924535.723374407,
            6473412.499999999
          ],
          [
            924537.5,
            6473419.161264971
          ],
          [
            924541.6428788829,
            6473437.5
          ],
          [
            924548.3204602503,
            6473462.5
          ],
          [
            924557.1733124172,
            6473487.5
          ],
          [
            924562.5,
            6473499.714169387
          ],
          [
            924567.4697074915,
            6473512.5
          ],
          [
            924579.0714208253,
            6473537.5
          ],
          [
            924587.5,
            6473552.693058812
          ],
          [
            924592.091539887,
            6473562.5
          ],
          [
            924604.1661631337,
            6473587.5
          ],
          [
            924612.5,
            6473603.49807295
          ],
          [
            924616.3155223973,
            6473612.5
          ],
          [
            924626.686598972,
            6473637.499999999
          ],
          [
            924637.5,
            6473659.031007565
          ],
          [
            924638.907120083,
            6473662.5
          ],
          [
            924649.353056635,
            6473687.5
          ],
          [
            924662.5,
            6473710.566972892
          ],
          [
            924663.3971261465,
            6473712.5
          ],
          [
            924675.8836049075,
            6473737.5
          ],
          [
            924687.5,
            6473755.415961135
          ],
          [
            924691.1698469326,
            6473762.5
          ],
          [
            924705.4072022265,
            6473787.5
          ],
          [
            924712.5,
            6473798.146034378
          ],
          [
            924719.8271755903,
            6473812.5
          ],
          [
            924734.6498471621,
            6473837.5
          ],
          [
            924737.4999999999,
            6473841.861833125
          ],
          [
            924747.9557338568,
            6473862.5
          ],
          [
            924762.5,
            6473886.54914035
          ],
          [
            924762.9850836721,
            6473887.5
          ],
          [
            924774.84492966,
            6473912.5
          ],
          [
            924786.6606458209,
            6473937.5
          ],
          [
            924787.5,
            6473939.468726075
          ],
          [
            924795.826218261,
            6473962.5
          ],
          [
            924805.8219990677,
            6473987.5
          ],
          [
            924812.5,
            6474001.913212897
          ],
          [
            924817.0399664897,
            6474012.5
          ],
          [
            924829.502037312,
            6474037.5
          ],
          [
            924837.5,
            6474050.995622708
          ],
          [
            924844.5660061397,
            6474062.5
          ],
          [
            924862.5,
            6474087.432713149
          ],
          [
            924862.5541334294,
            6474087.5
          ],
          [
            924884.0719530039,
            6474112.5
          ],
          [
            924887.5,
            6474116.177526769
          ]
        ]
      }
    },
    {
      "type": "Feature",
      "properties": {
        "method": "transverse height maximum"
      },
      "geometry": {
        "type": "LineString",
        "coordinates": [
          [
            923620.8437722228,
            6472887.5
          ],
          [
            923612.5,
            6472910.18389406
          ],
          [
            923611.9068842151,
            6472912.5
          ],
          [
            923604.1829063196,
            6472937.5
          ],
          [
            923593.9988630792,
            6472962.5
          ],
          [
            923587.5,
            6472974.485320225
          ],
          [
            923583.9915864159,
            6472987.500000001
          ],
          [
            923578.8692343612,
            6473012.5
          ],
          [
            923578.2186398767,
            6473037.5
          ],
          [
            923582.918520063,
            6473062.5
          ],
          [
            923587.5,
            6473076.841022024
          ],
          [
            923594.3013892175,
            6473087.5
          ],
          [
            923608.4726698544,
            6473112.5
          ],
          [
            923612.4999999999,
            6473120.692854437
          ],
          [
            923625.2938239655,
            6473137.5
          ],
          [
            923637.5,
            6473156.658845419
          ],
          [
            923642.8790524625,
            6473162.5
          ],
          [
            923662.5,
            6473180.327203177
          ],
          [
            923670.4220473316,
            6473187.5
          ],
          [
            923687.5,
            6473201.676542565
          ],
          [
            923696.3232451384,
            6473212.5
          ],
          [
            923712.5,
            6473234.376597501
          ]
        ]
      }
    },
    {
      "type": "Feature",
      "properties": {
        "method": "transverse height maximum"
      },
      "geometry": {
        "type": "LineString",
        "coordinates": [
          [
            922312.5,
            6473156.020445778
          ],
          [
            922316.2224411883,
            6473162.5
          ],
          [
            922330.0314747873,
            6473187.500000001
          ],
          [
            922337.5,
            6473202.588736594
          ],
          [
            922341.6700446547,
            6473212.5
          ],
          [
            922351.3045796792,
            6473237.5
          ],
          [
            922360.5579247051,
            6473262.5
          ],
          [
            922362.5,
            6473268.4055789625
          ],
          [
            922371.0586219839,
            6473287.5
          ],
          [
            922380.6841576947,
            6473312.5
          ],
          [
            922387.5,
            6473331.300099664
          ],
          [
            922389.5796268062,
            6473337.5
          ],
          [
            922396.9146037379,
            6473362.5
          ],
          [
            922403.331438032,
            6473387.5
          ],
          [
            922408.6963388916,
            6473412.500000001
          ],
          [
            922412.5,
            6473433.773029023
          ],
          [
            922413.0650505027,
            6473437.5
          ],
          [
            922416.29677968,
            6473462.5
          ],
          [
            922418.6947303786,
            6473487.5
          ],
          [
            922420.277868705,
            6473512.5
          ],
          [
            922421.4647651968,
            6473537.5
          ],
          [
            922422.8149754719,
            6473562.5
          ],
          [
            922424.7101723847,
            6473587.5
          ],
          [
            922427.4673376959,
            6473612.5
          ],
          [
            922431.6155806929,
            6473637.5
          ],
          [
            922437.5,
            6473658.791862156
          ],
          [
            922438.9429889825,
            6473662.5
          ],
          [
            922462.5,
            6473682.034789581
          ],
          [
            922475.7428028664,
            6473687.5
          ]
        ]
      }
    },
    {
      "type": "Feature",
      "properties": {
        "method": "transverse height maximum"
      },
      "geometry": {
        "type": "LineString",
        "coordinates": [
          [
            921680.1791405187,
            6473187.5
          ],
          [
            921662.5000000001,
            6473209.78584431
          ],
          [
            921660.0437629563,
            6473212.499999999
          ],
          [
            921639.9399001464,
            6473237.5
          ],
          [
            921637.5,
            6473240.815200962
          ],
          [
            921622.9337769657,
            6473262.5
          ],
          [
            921612.5,
            6473279.188630098
          ],
          [
            921608.0953446621,
            6473287.5
          ],
          [
            921593.7802344606,
            6473312.5
          ],
          [
            921587.5,
            6473323.253934392
          ],
          [
            921579.6550263405,
            6473337.5
          ],
          [
            921566.4062924758,
            6473362.5
          ],
          [
            921562.5,
            6473369.797146174
          ],
          [
            921552.9873955423,
            6473387.500000001
          ],
          [
            921540.1741830374,
            6473412.5
          ],
          [
            921537.5,
            6473417.516039161
          ],
          [
            921526.6833297717,
            6473437.5
          ],
          [
            921513.7368224328,
            6473462.5
          ],
          [
            921512.5,
            6473464.757272515
          ],
          [
            921499.5652772398,
            6473487.5
          ],
          [
            921487.5,
            6473508.056916045
          ],
          [
            921484.2388865085,
            6473512.5
          ],
          [
            921462.5,
            6473537.471840768
          ]
        ]
      }
    },
    {
      "type": "Feature",
      "properties": {
        "method": "transverse height maximum"
      },
      "geometry": {
        "type": "LineString",
        "coordinates": [
          [
            923381.8127609488,
            6473437.5
          ],
          [
            923375.5097689499,
            6473462.5
          ],
          [
            923368.9409672357,
            6473487.5
          ],
          [
            923362.5,
            6473510.392029068
          ],
          [
            923361.8686012347,
            6473512.499999999
          ],
          [
            923354.7220123536,
            6473537.5
          ],
          [
            923346.1119700094,
            6473562.5
          ],
          [
            923337.5,
            6473581.871239099
          ],
          [
            923335.2483391559,
            6473587.499999999
          ],
          [
            923323.3550035784,
            6473612.5
          ],
          [
            923312.5,
            6473631.511873368
          ],
          [
            923309.1150928761,
            6473637.5
          ],
          [
            923293.2207897122,
            6473662.5
          ],
          [
            923287.5,
            6473670.6775341835
          ],
          [
            923276.4189426267,
            6473687.499999999
          ],
          [
            923262.5000000001,
            6473710.346925938
          ],
          [
            923261.4119662612,
            6473712.5
          ],
          [
            923252.4051729953,
            6473737.5
          ],
          [
            923248.9129865002,
            6473762.5
          ],
          [
            923251.468687958,
            6473787.499999999
          ],
          [
            923258.9757325825,
            6473812.5
          ]
        ]
      }
    },
    {
      "type": "Feature",
      "properties": {
        "method": "transverse height maximum"
      },
      "geometry": {
        "type": "LineString",
        "coordinates": [
          [
            922149.7650308305,
            6473512.5
          ],
          [
            922139.0570503339,
            6473537.5
          ],
          [
            922137.5,
            6473541.4176661465
          ],
          [
            922130.5348981739,
            6473562.5
          ],
          [
            922123.6236052144,
            6473587.5
          ],
          [
            922118.1414604045,
            6473612.5
          ],
          [
            922114.3069531501,
            6473637.5
          ],
          [
            922112.4999999999,
            6473659.9041200755
          ],
          [
            922112.3101080384,
            6473662.5
          ],
          [
            922112.1471195134,
            6473687.5
          ],
          [
            922112.5,
            6473694.2954992335
          ],
          [
            922113.5332883514,
            6473712.5
          ]
        ]
      }
    },
    {
      "type": "Feature",
      "properties": {
        "method": "transverse height maximum"
      },
      "geometry": {
        "type": "LineString",
        "coordinates": [
          [
            921362.5,
            6473631.85841018
          ],
          [
            921359.1675778046,
            6473637.5
          ],
          [
            921345.6236681419,
            6473662.5
          ],
          [
            921337.5,
            6473678.517932066
          ],
          [
            921332.884103485,
            6473687.5
          ],
          [
            921320.3688622308,
            6473712.5
          ],
          [
            921312.5,
            6473727.520165537
          ],
          [
            921306.8674164086,
            6473737.5
          ],
          [
            921291.1683314808,
            6473762.5
          ],
          [
            921287.5,
            6473767.332461623
          ],
          [
            921269.8097254214,
            6473787.5
          ],
          [
            921262.5,
            6473794.713538932
          ],
          [
            921241.6765761934,
            6473812.5
          ]
        ]
      }
    },
    {
      "type": "Feature",
      "properties": {
        "method": "transverse height maximum"
      },
      "geometry": {
        "type": "LineString",
        "coordinates": [
          [
            922126.1982239904,
            6473812.500000001
          ],
          [
            922129.4625369789,
            6473837.5
          ],
          [
            922132.5136407475,
            6473862.5
          ],
          [
            922135.3854883952,
            6473887.5
          ],
          [
            922137.5,
            6473907.698298147
          ],
          [
            922137.9991696436,
            6473912.5
          ],
          [
            922140.0184518943,
            6473937.5
          ],
          [
            922141.4828389952,
            6473962.5
          ],
          [
            922142.4492356102,
            6473987.5
          ],
          [
            922142.8811010559,
            6474012.5
          ],
          [
            922142.7592345905,
            6474037.5
          ],
          [
            922142.0872718096,
            6474062.5
          ],
          [
            922140.6683153057,
            6474087.5
          ],
          [
            922138.2135404253,
            6474112.5
          ],
          [
            922137.5,
            6474119.245693337
          ],
          [
            922130.5359893815,
            6474137.5
          ],
          [
            922112.5,
            6474149.369816281
          ]
        ]
      }
    },
    {
      "type": "Feature",
      "properties": {
        "method": "transverse height maximum"
      },
      "geometry": {
        "type": "LineString",
        "coordinates": [
          [
            921444.9976493024,
            6474037.5
          ],
          [
            921445.7682562303,
            6474062.5
          ],
          [
            921446.7186061909,
            6474087.5
          ],
          [
            921447.351756364,
            6474112.5
          ],
          [
            921447.2402748729,
            6474137.5
          ],
          [
            921445.8660576714,
            6474162.5
          ],
          [
            921442.0579112064,
            6474187.5
          ],
          [
            921437.5,
            6474199.983412454
          ],
          [
            921429.0127957356,
            6474212.5
          ],
          [
            921412.5,
            6474224.572370932
          ],
          [
            921390.0975854838,
            6474237.5
          ],
          [
            921387.5,
            6474239.192164304
          ]
        ]
      }
    },
    {
      "type": "Feature",
      "properties": {
        "method": "transverse height maximum"
      },
      "geometry": {
        "type": "LineString",
        "coordinates": [
          [
            920974.9741462677,
            6474087.5
          ],
          [
            920964.3457398955,
            6474112.5
          ],
          [
            920962.5,
            6474117.144540897
          ],
          [
            920957.7833668455,
            6474137.5
          ],
          [
            920950.8415075658,
            6474162.5
          ],
          [
            920944.3768704778,
            6474187.5
          ],
          [
            920939.7049013086,
            6474212.5
          ],
          [
            920937.6808038849,
            6474237.5
          ],
          [
            920938.704963902,
            6474262.5
          ],
          [
            920942.4122624065,
            6474287.5
          ],
          [
            920948.281023521,
            6474312.5
          ],
          [
            920956.6827002824,
            6474337.5
          ],
          [
            920962.5,
            6474349.809980178
          ],
          [
            920970.3221497053,
            6474362.5
          ],
          [
            920987.5,
            6474384.606183363
          ]
        ]
      }
    },
    {
      "type": "Feature",
      "properties": {
        "method": "transverse height maximum"
      },
      "geometry": {
        "type": "LineString",
        "coordinates": [
          [
            923412.5,
            6474339.0272352155
          ],
          [
            923390.8094433608,
            6474362.5
          ],
          [
            923387.5,
            6474366.8275403725
          ],
          [
            923381.126653968,
            6474387.5
          ],
          [
            923373.8313178197,
            6474412.5
          ],
          [
            923366.3839219352,
            6474437.5
          ],
          [
            923362.5,
            6474452.248720228
          ],
          [
            923360.7053168019,
            6474462.5
          ],
          [
            923357.9502557311,
            6474487.500000001
          ],
          [
            923356.6405938377,
            6474512.5
          ],
          [
            923355.8949183688,
            6474537.5
          ],
          [
            923354.5852626275,
            6474562.5
          ],
          [
            923351.3620751398,
            6474587.500000001
          ],
          [
            923345.2792554982,
            6474612.5
          ],
          [
            923337.5,
            6474634.431782776
          ],
          [
            923336.3099516106,
            6474637.5
          ],
          [
            923327.3741415801,
            6474662.5
          ],
          [
            923322.12416283,
            6474687.5
          ],
          [
            923320.1878424513,
            6474712.5
          ],
          [
            923320.3871424745,
            6474737.5
          ],
          [
            923321.6623104465,
            6474762.5
          ],
          [
            923323.2710270698,
            6474787.5
          ],
          [
            923324.8329390129,
            6474812.5
          ],
          [
            923326.2702667952,
            6474837.5
          ],
          [
            923327.6046251276,
            6474862.5
          ],
          [
            923328.7904487171,
            6474887.499999999
          ],
          [
            923329.7637942095,
            6474912.5
          ],
          [
            923330.5122505379,
            6474937.499999999
          ],
          [
            923331.0382233147,
            6474962.5
          ],
          [
            923331.333305579,
            6474987.5
          ],
          [
            923331.3640617215,
            6475000.0
          ]
        ]
      }
    },
    {
      "type": "Feature",
      "properties": {
        "method": "transverse height maximum"
      },
      "geometry": {
        "type": "LineString",
        "coordinates": [
          [
            921712.5,
            6470417.87596164
          ],
          [
            921719.6835564978,
            6470412.5
          ],
          [
            921712.5,
            6470407.489684078
          ],
          [
            921692.6397832559,
            6470387.5
          ],
          [
            921687.5,
            6470385.57369864
          ],
          [
            921662.5,
            6470380.044923001
          ],
          [
            921637.5,
            6470378.35450317
          ],
          [
            921612.4999999999,
            6470378.027390294
          ],
          [
            921587.5,
            6470375.219069905
          ],
          [
            921562.5,
            6470364.291372663
          ],
          [
            921560.43065099,
            6470362.5
          ],
          [
            921537.5,
            6470345.199981662
          ],
          [
            921530.1671511314,
            6470337.5
          ],
          [
            921512.5,
            6470320.492011525
          ]
        ]
      }
    },
    {
      "type": "Feature",
      "properties": {
        "method": "transverse height maximum"
      },
      "geometry": {
        "type": "LineString",
        "coordinates": [
          [
            922062.9333143319,
            6470462.5
          ],
          [
            922062.5,
            6470462.069928009
          ],
          [
            922037.5,
            6470438.730224574
          ],
          [
            922035.0822568415,
            6470437.5
          ],
          [
            922012.5,
            6470430.721279575
          ],
          [
            921987.5,
            6470431.978583971
          ],
          [
            921962.5,
            6470434.629506354
          ],
          [
            921937.4999999999,
            6470437.240445046
          ],
          [
            921935.1061929528,
            6470437.5
          ],
          [
            921912.5,
            6470441.3392921295
          ],
          [
            921887.5,
            6470446.492531243
          ],
          [
            921862.5000000001,
            6470452.850623591
          ],
          [
            921837.5000000001,
            6470460.670601117
          ]
        ]
      }
    },
    {
      "type": "Feature",
      "properties": {
        "method": "transverse height maximum"
      },
      "geometry": {
        "type": "LineString",
        "coordinates": [
          [
            921556.3825310476,
            6471812.5
          ],
          [
            921537.5,
            6471797.454351915
          ],
          [
            921519.7024228788,
            6471787.5
          ],
          [
            921512.5,
            6471783.136951188
          ],
          [
            921487.5,
            6471777.223407686
          ],
          [
            921462.5,
            6471778.287707113
          ],
          [
            921437.5,
            6471780.723304223
          ],
          [
            921412.5000000001,
            6471781.17516181
          ],
          [
            921387.5,
            6471778.860148481
          ],
          [
            921362.5,
            6471774.215855413
          ],
          [
            921337.5,
            6471768.5042833425
          ],
          [
            921312.5,
            6471764.821014341
          ],
          [
            921287.5,
            6471764.7459387025
          ],
          [
            921262.5,
            6471764.611799763
          ],
          [
            921237.5,
            6471763.181354481
          ],
          [
            921230.8088036395,
            6471762.5
          ]
        ]
      }
    },
    {
      "type": "Feature",
      "properties": {
        "method": "transverse height maximum"
      },
      "geometry": {
        "type": "LineString",
        "coordinates": [
          [
            922940.1198065464,
            6471837.5
          ],
          [
            922937.5,
            6471841.301719507
          ],
          [
            922912.5,
            6471851.807199988
          ],
          [
            922887.5,
            6471850.567357366
          ],
          [
            922862.5,
            6471845.996234198
          ],
          [
            922837.5,
            6471841.553269143
          ],
          [
            922812.5,
            6471839.693609957
          ],
          [
            922787.5,
            6471841.320953133
          ],
          [
            922762.5,
            6471845.900531151
          ],
          [
            922737.5,
            6471852.204531677
          ],
          [
            922712.5,
            6471859.200226402
          ],
          [
            922701.1805331815,
            6471862.5
          ],
          [
            922687.5,
            6471866.226404311
          ],
          [
            922662.5,
            6471873.001693657
          ],
          [
            922637.5,
            6471880.605775442
          ],
          [
            922619.0004043988,
            6471887.5
          ],
          [
            922612.5,
            6471889.796161517
          ],
          [
            922587.5,
            6471898.794759339
          ],
          [
            922562.5,
            6471906.322361841
          ],
          [
            922537.5,
            6471911.564412903
          ],
          [
            922531.7453999337,
            6471912.5
          ],
          [
            922512.5,
            6471915.519151699
          ],
          [
            922487.5,
            6471920.646184532
          ],
          [
            922462.5,
            6471927.92425838
          ],
          [
            922437.5,
            6471931.759379291
          ],
          [
            922412.5,
            6471926.0175273875
          ],
          [
            922387.5,
            6471915.19416546
          ],
          [
            922380.4343484596,
            6471912.5
          ],
          [
            922362.5,
            6471904.344857366
          ],
          [
            922337.5,
            6471898.320436386
          ],
          [
            922312.5,
            6471899.949598974
          ],
          [
            922287.4999999999,
            6471907.532642416
          ],
          [
            922262.5,
            6471911.419116601
          ]
        ]
      }
    },
    {
      "type": "Feature",
      "properties": {
        "method": "transverse height maximum"
      },
      "geometry": {
        "type": "LineString",
        "coordinates": [
          [
            923362.5,
            6471868.412447245
          ],
          [
            923337.5,
            6471867.711550844
          ],
          [
            923312.5,
            6471871.758884605
          ],
          [
            923287.5,
            6471876.123970434
          ],
          [
            923262.5000000001,
            6471879.994252397
          ],
          [
            923237.5,
            6471883.240182259
          ],
          [
            923212.5,
            6471886.539238942
          ],
          [
            923209.6730458653,
            6471887.5
          ],
          [
            923187.5000000001,
            6471902.326619404
          ],
          [
            923182.7645662725,
            6471912.5
          ],
          [
            923175.9221343643,
            6471937.5
          ],
          [
            923170.9559563197,
            6471962.5
          ],
          [
            923168.3186077728,
            6471987.5
          ],
          [
            923175.3066623664,
            6472012.5
          ],
          [
            923187.5,
            6472026.503209216
          ],
          [
            923191.5303363735,
            6472037.5
          ],
          [
            923193.6028658745,
            6472062.5
          ],
          [
            923187.5,
            6472072.539817022
          ],
          [
            923162.5,
            6472077.217136144
          ]
        ]
      }
    },
    {
      "type": "Feature",
      "properties": {
        "method": "transverse height maximum"
      },
      "geometry": {
        "type": "LineString",
        "coordinates": [
          [
            922087.5,
            6471970.804331557
          ],
          [
            922062.5,
            6471963.266922433
          ],
          [
            922060.7249461304,
            6471962.5
          ],
          [
            922037.5,
            6471952.581952663
          ],
          [
            922012.5,
            6471941.538221736
          ],
          [
            922003.1360139073,
            6471937.5
          ],
          [
            921987.5,
            6471930.369245273
          ],
          [
            921962.5,
            6471919.121994191
          ],
          [
            921948.7780644859,
            6471912.5
          ],
          [
            921937.5,
            6471906.512747678
          ],
          [
            921912.5,
            6471894.076583438
          ],
          [
            921900.5117529732,
            6471887.5
          ],
          [
            921887.5,
            6471881.390378597
          ],
          [
            921862.5,
            6471871.464391915
          ]
        ]
      }
    },
    {
      "type": "Feature",
      "properties": {
        "method": "transverse height maximum"
      },
      "geometry": {
        "type": "LineString",
        "coordinates": [
          [
            925000.0,
            6472295.222787153
          ],
          [
            924987.5,
            6472293.8657788765
          ],
          [
            924962.5,
            6472296.31592154
          ],
          [
            924937.5,
            6472303.059196862
          ],
          [
            924912.5000000001,
            6472312.342559611
          ],
          [
            924912.122086657,
            6472312.5
          ],
          [
            924887.5,
            6472321.71452405
          ],
          [
            924862.5,
            6472332.235988345
          ]
        ]
      }
    },
    {
      "type": "Feature",
      "properties": {
        "method": "transverse height maximum"
      },
      "geometry": {
        "type": "LineString",
        "coordinates": [
          [
            920212.5,
            6474726.948154316
          ],
          [
            920198.545189681,
            6474737.5
          ],
          [
            920187.5,
            6474744.415681953
          ],
          [
            920162.5,
            6474761.911436191
          ],
          [
            920161.7149708497,
            6474762.5
          ],
          [
            920137.5,
            6474775.6065588845
          ],
          [
            920115.5629105708,
            6474787.5
          ],
          [
            920112.5,
            6474788.869230699
          ],
          [
            920087.5,
            6474800.074962926
          ],
          [
            920062.5524052595,
            6474812.5
          ],
          [
            920062.5,
            6474812.525896939
          ],
          [
            920037.5,
            6474828.034221593
          ],
          [
            920027.2547201953,
            6474837.5
          ],
          [
            920012.4999999999,
            6474850.109231639
          ],
          [
            920001.6621234956,
            6474862.500000001
          ],
          [
            920000.0,
            6474864.308070274
          ]
        ]
      }
    }
  ],
  "provenance": {
    "source_url": "https://data.geopf.fr/wms-r/wms?SERVICE=WMS&VERSION=1.3.0&REQUEST=GetMap&LAYERS=ELEVATION.ELEVATIONGRIDCOVERAGE.HIGHRES&STYLES=normal&CRS=EPSG%3A2154&BBOX=919500.0%2C6469500.0%2C925500.0%2C6475500.0&WIDTH=240&HEIGHT=240&FORMAT=image%2Ftiff",
    "dataset_url": "https://www.data.gouv.fr/datasets/rge-alti-r",
    "layer": "ELEVATION.ELEVATIONGRIDCOVERAGE.HIGHRES",
    "attribution": "Crests derived from © IGN RGE ALTI · Licence Ouverte 2.0",
    "licence": "Licence Ouverte 2.0",
    "retrieved_utc": "2026-09-22T15:24:29.348881+00:00",
    "derived_utc": "2026-09-22T15:29:07.013683+00:00",
    "derivation_code_sha256": "097f79508273c65e26912088bd99b8e73fa7f20c2eed2ff01fec7fabbd3821be",
    "response_bytes": 230534,
    "response_sha256": "db0d5ece7346eaabefbbaf4db241b8740febf0835383440666331320f1686603",
    "terrain_file": "ign-terrain-184-1294.tif",
    "raster_bounds_epsg2154": [
      919500.0,
      6469500.0,
      925500.0,
      6475500.0
    ],
    "bounds_epsg2154": [
      920000.0,
      6470000.0,
      925000.0,
      6475000.0
    ],
    "parameters": {
      "grid_m": 25,
      "buffer_m": 500,
      "gaussian_sigma_m": 50,
      "minimum_transverse_curvature_per_m": 0.0003,
      "transverse_probe_m": 200,
      "minimum_drop_each_side_m": 5,
      "minimum_line_length_m": 200
    },
    "terrain_height_range_m": [
      304.0498046875,
      2054.321533203125
    ],
    "method": "Gaussian-smoothed DEM; zero derivative along most concave Hessian eigenvector; negative curvature, two-sided drop and length filters. No flight coordinates used.",
    "limitations": "Approximate, scale-dependent crests; not an official or exhaustive ridge network. Gaps remain at weak ridges, orientation transitions and junctions; no invented links."
  }
}
