{
  "type": "FeatureCollection",
  "features": [
    {
      "type": "Feature",
      "id": "detail_orographique.11173",
      "geometry": {
        "type": "Point",
        "coordinates": [
          918526.49983213,
          6469208.00475222
        ]
      },
      "geometry_name": "geometrie",
      "properties": {
        "cleabs": "PAIOROGR0000000007454390",
        "nature": "Sommet",
        "nature_detaillee": null,
        "toponyme": "Chamechaude",
        "statut_du_toponyme": "Validé",
        "importance": "2",
        "date_creation": "2006-07-11T13:39:39.862Z",
        "date_modification": "2023-06-12T14:58:54.662Z",
        "date_d_apparition": null,
        "date_de_confirmation": "2023-06-12Z",
        "sources": null,
        "identifiants_sources": null,
        "methode_d_acquisition_planimetrique": "BDNyme",
        "precision_planimetrique": 30,
        "insee_commune": "38471",
        "identifiant_voie_ban": null,
        "id_ban_odonyme": null
      }
    },
    {
      "type": "Feature",
      "id": "detail_orographique.11178",
      "geometry": {
        "type": "Point",
        "coordinates": [
          915103.59983475,
          6469552.1047523
        ]
      },
      "geometry_name": "geometrie",
      "properties": {
        "cleabs": "PAIOROGR0000000007454395",
        "nature": "Sommet",
        "nature_detaillee": null,
        "toponyme": "Montvernet",
        "statut_du_toponyme": "Validé",
        "importance": "4",
        "date_creation": "2006-07-11T13:39:39.862Z",
        "date_modification": "2019-09-20T16:10:23.317Z",
        "date_d_apparition": null,
        "date_de_confirmation": null,
        "sources": null,
        "identifiants_sources": null,
        "methode_d_acquisition_planimetrique": "BDNyme",
        "precision_planimetrique": 30,
        "insee_commune": "38472",
        "identifiant_voie_ban": null,
        "id_ban_odonyme": null
      }
    },
    {
      "type": "Feature",
      "id": "detail_orographique.11241",
      "geometry": {
        "type": "Point",
        "coordinates": [
          917121.59983325,
          6467670.40475233
        ]
      },
      "geometry_name": "geometrie",
      "properties": {
        "cleabs": "PAIOROGR0000000007454458",
        "nature": "Sommet",
        "nature_detaillee": null,
        "toponyme": "l'Appanon",
        "statut_du_toponyme": "Validé",
        "importance": "5",
        "date_creation": "2006-07-11T13:39:39.862Z",
        "date_modification": "2025-12-05T11:24:01.818Z",
        "date_d_apparition": null,
        "date_de_confirmation": null,
        "sources": null,
        "identifiants_sources": null,
        "methode_d_acquisition_planimetrique": "BDNyme",
        "precision_planimetrique": 30,
        "insee_commune": "38472",
        "identifiant_voie_ban": "38472_m4iczp",
        "id_ban_odonyme": "c6de467e-d590-4b99-928b-9a8276d39757"
      }
    },
    {
      "type": "Feature",
      "id": "detail_orographique.11388",
      "geometry": {
        "type": "Point",
        "coordinates": [
          916292.89983395,
          6465293.70475246
        ]
      },
      "geometry_name": "geometrie",
      "properties": {
        "cleabs": "PAIOROGR0000000007454605",
        "nature": "Sommet",
        "nature_detaillee": null,
        "toponyme": "l'Écoutoux",
        "statut_du_toponyme": "Validé",
        "importance": "4",
        "date_creation": "2006-07-11T13:39:39.862Z",
        "date_modification": "2019-09-20T16:10:23.317Z",
        "date_d_apparition": null,
        "date_de_confirmation": null,
        "sources": null,
        "identifiants_sources": "",
        "methode_d_acquisition_planimetrique": "BDNyme",
        "precision_planimetrique": 30,
        "insee_commune": "38328",
        "identifiant_voie_ban": null,
        "id_ban_odonyme": null
      }
    }
  ],
  "totalFeatures": 4,
  "numberMatched": 4,
  "numberReturned": 4,
  "timeStamp": "2026-09-22T14:44:31.863Z",
  "crs": {
    "type": "name",
    "properties": {
      "name": "urn:ogc:def:crs:EPSG::2154"
    }
  },
  "provenance": {
    "source_url": "https://data.geopf.fr/wfs/ows?SERVICE=WFS&VERSION=2.0.0&REQUEST=GetFeature&TYPENAMES=BDTOPO_V3%3Adetail_orographique&SRSNAME=EPSG%3A2154&CQL_FILTER=BBOX%28geometrie%2C915000%2C6.465e%2B06%2C920000%2C6.47e%2B06%2C%27EPSG%3A2154%27%29+AND+nature+IN+%28%27Sommet%27%2C%27Pic%27%29&OUTPUTFORMAT=application%2Fjson&COUNT=1000",
    "dataset_url": "https://www.data.gouv.fr/datasets/bd-topo-r",
    "layer": "BDTOPO_V3:detail_orographique",
    "attribution": "Summits: © IGN · BD TOPO · Licence Ouverte 2.0",
    "licence": "Licence Ouverte 2.0",
    "retrieved_utc": "2026-09-22T14:44:31.849197+00:00",
    "response_sha256": "1080e58fac1eb17886765e4e5387c70eca4b4d1337208ebdb76fb640057d6e99",
    "response_bytes": 3556,
    "response_feature_count": 5,
    "bounds_epsg2154": [
      915000.0,
      6465000.0,
      920000.0,
      6470000.0
    ],
    "selection": "Sommet/Pic only; exact Lambert-93 cell bounds.",
    "note": "Named summits; not a complete ridge network or DEM maxima."
  }
}
