{
  "type": "FeatureCollection",
  "features": [],
  "totalFeatures": 0,
  "numberMatched": 0,
  "numberReturned": 0,
  "timeStamp": "2026-10-06T17:43:44.056Z",
  "crs": null,
  "provenance": {
    "source_url": "https://data.geopf.fr/wfs/ows?SERVICE=WFS&VERSION=2.0.0&REQUEST=GetFeature&TYPENAMES=BDTOPO_V3%3Adetail_orographique&SRSNAME=EPSG%3A2154&CQL_FILTER=BBOX%28geometrie%2C445000%2C6.865e%2B06%2C450000%2C6.87e%2B06%2C%27EPSG%3A2154%27%29+AND+nature+IN+%28%27Sommet%27%2C%27Pic%27%29&OUTPUTFORMAT=application%2Fjson&COUNT=1000",
    "dataset_url": "https://www.data.gouv.fr/datasets/bd-topo-r",
    "layer": "BDTOPO_V3:detail_orographique",
    "attribution": "Summits: © IGN · BD TOPO · Licence Ouverte 2.0",
    "licence": "Licence Ouverte 2.0",
    "retrieved_utc": "2026-10-06T17:43:44.041711+00:00",
    "response_sha256": "ad2a16a42ef3d06dedda55af22aec95463cd56fea907e9b8a0b5a8f84e85183b",
    "response_bytes": 147,
    "response_feature_count": 0,
    "bounds_epsg2154": [
      445000.0,
      6865000.0,
      450000.0,
      6870000.0
    ],
    "selection": "Sommet/Pic only; exact Lambert-93 cell bounds.",
    "note": "Named summits; not a complete ridge network or DEM maxima."
  }
}
