{
  "type": "FeatureCollection",
  "crs": {
    "type": "name",
    "properties": {
      "name": "EPSG:2154"
    }
  },
  "features": [
    {
      "type": "Feature",
      "properties": {
        "method": "transverse height maximum"
      },
      "geometry": {
        "type": "LineString",
        "coordinates": [
          [
            916497.8341420707,
            6465000.0
          ],
          [
            916493.7132382914,
            6465012.5
          ],
          [
            916487.5,
            6465028.379390457
          ],
          [
            916483.6835729036,
            6465037.499999999
          ],
          [
            916472.1466633227,
            6465062.5
          ],
          [
            916462.5,
            6465081.116233365
          ],
          [
            916458.6107230786,
            6465087.499999999
          ],
          [
            916441.8274096384,
            6465112.5
          ],
          [
            916437.5,
            6465118.412343969
          ],
          [
            916422.8851129588,
            6465137.5
          ],
          [
            916412.5,
            6465151.164808332
          ],
          [
            916404.3722100283,
            6465162.499999999
          ],
          [
            916387.5,
            6465187.118176608
          ],
          [
            916387.2441926157,
            6465187.500000001
          ],
          [
            916371.2825056564,
            6465212.5
          ],
          [
            916362.5,
            6465225.765853201
          ],
          [
            916354.8513911914,
            6465237.5
          ],
          [
            916338.0170648481,
            6465262.5
          ],
          [
            916337.5,
            6465263.1463079555
          ]
        ]
      }
    },
    {
      "type": "Feature",
      "properties": {
        "method": "transverse height maximum"
      },
      "geometry": {
        "type": "LineString",
        "coordinates": [
          [
            919899.4470249615,
            6465000.0
          ],
          [
            919898.6202198813,
            6465012.5
          ],
          [
            919894.5340103328,
            6465037.5
          ],
          [
            919887.4999999999,
            6465054.02867086
          ],
          [
            919883.7817737707,
            6465062.5
          ],
          [
            919862.5,
            6465080.578339091
          ],
          [
            919858.1959532708,
            6465087.5
          ],
          [
            919842.4841157412,
            6465112.5
          ],
          [
            919837.5,
            6465121.107521443
          ],
          [
            919832.6737151141,
            6465137.5
          ],
          [
            919826.5383539775,
            6465162.499999999
          ],
          [
            919820.5548317443,
            6465187.5
          ],
          [
            919813.4581104263,
            6465212.5
          ],
          [
            919812.5,
            6465214.913156134
          ],
          [
            919804.2359751639,
            6465237.499999999
          ],
          [
            919790.4330718075,
            6465262.5
          ],
          [
            919787.5,
            6465266.594122738
          ]
        ]
      }
    },
    {
      "type": "Feature",
      "properties": {
        "method": "transverse height maximum"
      },
      "geometry": {
        "type": "LineString",
        "coordinates": [
          [
            918612.7755420476,
            6465000.0
          ],
          [
            918620.0088119967,
            6465012.5
          ],
          [
            918633.0876842538,
            6465037.499999999
          ],
          [
            918637.5,
            6465046.550310632
          ],
          [
            918643.7526303999,
            6465062.5
          ],
          [
            918652.9964763157,
            6465087.5
          ],
          [
            918662.5,
            6465110.94249034
          ],
          [
            918663.0803547301,
            6465112.5
          ],
          [
            918672.2238547112,
            6465137.5
          ],
          [
            918683.8402413632,
            6465162.5
          ],
          [
            918687.5,
            6465169.3045706395
          ],
          [
            918696.579030419,
            6465187.5
          ],
          [
            918712.1395247701,
            6465212.5
          ],
          [
            918712.5,
            6465213.025139898
          ],
          [
            918727.7334316511,
            6465237.5
          ],
          [
            918737.5,
            6465250.99116335
          ],
          [
            918745.0077220635,
            6465262.5
          ],
          [
            918762.5,
            6465287.254037272
          ],
          [
            918762.6532039114,
            6465287.5
          ],
          [
            918777.5898949287,
            6465312.5
          ],
          [
            918787.5,
            6465328.368188939
          ],
          [
            918792.366049243,
            6465337.5
          ],
          [
            918805.6162832566,
            6465362.5
          ],
          [
            918812.4999999999,
            6465374.781832247
          ],
          [
            918818.6782446135,
            6465387.5
          ],
          [
            918831.6203157811,
            6465412.499999999
          ],
          [
            918837.5,
            6465422.846871058
          ],
          [
            918844.9284712666,
            6465437.5
          ],
          [
            918859.1775947283,
            6465462.5
          ],
          [
            918862.4999999999,
            6465467.844844185
          ],
          [
            918873.809907589,
            6465487.5
          ],
          [
            918887.5,
            6465507.910252754
          ],
          [
            918890.4485990043,
            6465512.5
          ],
          [
            918907.6374814556,
            6465537.499999999
          ],
          [
            918912.5000000001,
            6465544.019212386
          ],
          [
            918925.4040914894,
            6465562.5
          ],
          [
            918937.5,
            6465578.789844105
          ],
          [
            918943.4967203563,
            6465587.5
          ],
          [
            918960.8784301907,
            6465612.5
          ],
          [
            918962.5,
            6465614.822279201
          ],
          [
            918976.4941120301,
            6465637.5
          ],
          [
            918987.5,
            6465654.26473014
          ],
          [
            918992.3992675514,
            6465662.5
          ],
          [
            919007.9193231297,
            6465687.500000001
          ],
          [
            919012.5,
            6465694.245870189
          ],
          [
            919023.8000539886,
            6465712.5
          ],
          [
            919037.5,
            6465732.447097383
          ],
          [
            919040.8000287395,
            6465737.5
          ],
          [
            919057.6744243725,
            6465762.5
          ],
          [
            919062.5000000001,
            6465769.204486179
          ],
          [
            919075.1571900795,
            6465787.5
          ],
          [
            919087.5,
            6465804.185039055
          ],
          [
            919093.6490099573,
            6465812.5
          ],
          [
            919112.5,
            6465837.06108401
          ],
          [
            919112.8470086284,
            6465837.5
          ],
          [
            919132.377633712,
            6465862.5
          ],
          [
            919137.5,
            6465868.780181716
          ],
          [
            919153.2150463854,
            6465887.5
          ],
          [
            919162.5,
            6465898.2432849975
          ],
          [
            919175.3030911683,
            6465912.5
          ],
          [
            919187.5,
            6465925.812494207
          ],
          [
            919198.5897281212,
            6465937.5
          ],
          [
            919212.5,
            6465951.846349248
          ],
          [
            919222.9418696883,
            6465962.5
          ],
          [
            919237.5,
            6465977.198665825
          ],
          [
            919247.5494494113,
            6465987.5
          ],
          [
            919262.5,
            6466002.882444308
          ],
          [
            919271.7519492613,
            6466012.5
          ],
          [
            919287.5,
            6466029.13039555
          ],
          [
            919295.5131440818,
            6466037.5
          ],
          [
            919312.5,
            6466055.6337591065
          ],
          [
            919319.1515805343,
            6466062.5
          ],
          [
            919337.5,
            6466081.671587379
          ]
        ]
      }
    },
    {
      "type": "Feature",
      "properties": {
        "method": "transverse height maximum"
      },
      "geometry": {
        "type": "LineString",
        "coordinates": [
          [
            916303.344173748,
            6465337.5
          ],
          [
            916309.6144992232,
            6465362.5
          ],
          [
            916312.5,
            6465385.910579104
          ],
          [
            916312.6975429031,
            6465387.5
          ],
          [
            916313.6502429191,
            6465412.5
          ],
          [
            916313.8415180757,
            6465437.5
          ],
          [
            916314.1596696838,
            6465462.5
          ],
          [
            916314.7764099187,
            6465487.5
          ],
          [
            916315.2071262088,
            6465512.5
          ],
          [
            916314.5140878608,
            6465537.5
          ],
          [
            916312.5,
            6465556.292112794
          ],
          [
            916311.8650910401,
            6465562.5
          ],
          [
            916309.2036287443,
            6465587.5
          ],
          [
            916308.7810138708,
            6465612.5
          ],
          [
            916312.5,
            6465630.161703329
          ],
          [
            916315.974580324,
            6465637.5
          ],
          [
            916337.1108818871,
            6465662.499999999
          ],
          [
            916337.4999999999,
            6465662.891749854
          ],
          [
            916350.4153188434,
            6465687.5
          ],
          [
            916362.5,
            6465711.712329754
          ],
          [
            916362.7851219221,
            6465712.5
          ],
          [
            916372.7485599032,
            6465737.5
          ],
          [
            916383.002396288,
            6465762.5
          ],
          [
            916387.5,
            6465773.654555945
          ],
          [
            916392.5972956126,
            6465787.5
          ],
          [
            916400.1434236098,
            6465812.5
          ],
          [
            916402.6780066608,
            6465837.5
          ],
          [
            916398.98272105,
            6465862.5
          ],
          [
            916392.6169285766,
            6465887.5
          ],
          [
            916387.5,
            6465905.627980225
          ],
          [
            916385.4804098691,
            6465912.5
          ],
          [
            916378.2135365349,
            6465937.5
          ],
          [
            916371.7143193213,
            6465962.5
          ],
          [
            916365.9404050332,
            6465987.5
          ],
          [
            916362.4999999999,
            6466004.071250694
          ],
          [
            916360.6949671708,
            6466012.499999999
          ],
          [
            916356.0648675602,
            6466037.5
          ],
          [
            916352.2826833287,
            6466062.5
          ],
          [
            916349.3304265034,
            6466087.5
          ],
          [
            916347.3977230897,
            6466112.5
          ],
          [
            916346.9331989512,
            6466137.5
          ],
          [
            916348.8911710142,
            6466162.5
          ],
          [
            916355.4277541213,
            6466187.5
          ],
          [
            916362.5,
            6466200.093148317
          ],
          [
            916370.6582969317,
            6466212.5
          ],
          [
            916387.5,
            6466230.349379318
          ],
          [
            916395.0583176333,
            6466237.5
          ],
          [
            916412.5,
            6466252.832264438
          ]
        ]
      }
    },
    {
      "type": "Feature",
      "properties": {
        "method": "transverse height maximum"
      },
      "geometry": {
        "type": "LineString",
        "coordinates": [
          [
            919412.5,
            6466157.157007288
          ],
          [
            919416.9195387033,
            6466162.5
          ],
          [
            919437.5,
            6466187.23935385
          ],
          [
            919437.6655735492,
            6466187.5
          ],
          [
            919451.4206512123,
            6466212.5
          ],
          [
            919462.5,
            6466232.849941175
          ],
          [
            919464.4134282934,
            6466237.5
          ],
          [
            919473.8333543976,
            6466262.5
          ],
          [
            919483.7845600327,
            6466287.5
          ],
          [
            919487.4999999999,
            6466296.545762432
          ],
          [
            919492.8287856914,
            6466312.5
          ],
          [
            919501.8273432975,
            6466337.5
          ],
          [
            919512.1233680409,
            6466362.5
          ],
          [
            919512.5,
            6466363.41298351
          ],
          [
            919521.059142963,
            6466387.5
          ],
          [
            919530.7646765072,
            6466412.5
          ],
          [
            919537.5,
            6466428.169329769
          ],
          [
            919541.0485035457,
            6466437.5
          ],
          [
            919551.452813583,
            6466462.5
          ],
          [
            919562.5,
            6466483.543151555
          ],
          [
            919564.4304672638,
            6466487.5
          ],
          [
            919578.3056104913,
            6466512.5
          ],
          [
            919587.5,
            6466526.025520308
          ],
          [
            919595.1293649212,
            6466537.5
          ],
          [
            919612.5,
            6466559.637250258
          ],
          [
            919614.7902957454,
            6466562.5
          ]
        ]
      }
    },
    {
      "type": "Feature",
      "properties": {
        "method": "transverse height maximum"
      },
      "geometry": {
        "type": "LineString",
        "coordinates": [
          [
            916512.5000000001,
            6466347.626490312
          ],
          [
            916520.8362808463,
            6466362.5
          ],
          [
            916530.929507,
            6466387.500000001
          ],
          [
            916537.5,
            6466409.69628927
          ],
          [
            916538.3181120737,
            6466412.5
          ],
          [
            916543.9706620573,
            6466437.5
          ],
          [
            916547.882290728,
            6466462.5
          ],
          [
            916550.2833993769,
            6466487.5
          ],
          [
            916551.1253811987,
            6466512.499999999
          ],
          [
            916550.2417994919,
            6466537.499999999
          ],
          [
            916547.445941969,
            6466562.5
          ],
          [
            916542.5329544066,
            6466587.5
          ],
          [
            916537.5,
            6466605.153087174
          ],
          [
            916535.3078924562,
            6466612.5
          ],
          [
            916526.5586742357,
            6466637.5
          ],
          [
            916515.9438505433,
            6466662.5
          ],
          [
            916512.5,
            6466671.127749674
          ],
          [
            916505.4648358134,
            6466687.5
          ],
          [
            916500.5744123445,
            6466712.5
          ],
          [
            916506.0923546286,
            6466737.5
          ],
          [
            916512.5,
            6466761.422454547
          ],
          [
            916512.8643713277,
            6466762.5
          ],
          [
            916520.6188725367,
            6466787.5
          ],
          [
            916529.932237572,
            6466812.5
          ],
          [
            916537.5,
            6466830.1628744155
          ],
          [
            916543.989897393,
            6466837.5
          ],
          [
            916557.5028064671,
            6466862.500000001
          ],
          [
            916549.0868457396,
            6466887.5
          ],
          [
            916546.3198501415,
            6466912.5
          ],
          [
            916554.9556168732,
            6466937.5
          ],
          [
            916562.5,
            6466951.020837701
          ],
          [
            916568.2842729456,
            6466962.5
          ],
          [
            916582.1915070864,
            6466987.5
          ],
          [
            916587.5,
            6466996.600089852
          ],
          [
            916596.6285805532,
            6467012.5
          ],
          [
            916611.2508679206,
            6467037.5
          ],
          [
            916612.5,
            6467039.617941099
          ],
          [
            916626.0700601033,
            6467062.5
          ],
          [
            916634.0149405003,
            6467087.5
          ],
          [
            916635.743959537,
            6467112.5
          ],
          [
            916636.6115337601,
            6467137.5
          ],
          [
            916637.5000000001,
            6467148.098844863
          ],
          [
            916638.670517007,
            6467162.5
          ],
          [
            916642.2757995455,
            6467187.5
          ],
          [
            916647.3306943006,
            6467212.5
          ],
          [
            916653.5781182179,
            6467237.5
          ],
          [
            916660.7122453754,
            6467262.5
          ],
          [
            916662.5,
            6467268.26073615
          ],
          [
            916668.5171526285,
            6467287.5
          ],
          [
            916676.5549812589,
            6467312.5
          ],
          [
            916685.709186179,
            6467337.500000001
          ],
          [
            916687.5,
            6467341.630672238
          ],
          [
            916697.3146261533,
            6467362.5
          ],
          [
            916711.0016652447,
            6467387.5
          ],
          [
            916712.5,
            6467390.006581595
          ],
          [
            916727.0047205243,
            6467412.499999999
          ],
          [
            916737.5,
            6467428.419402184
          ],
          [
            916744.3010916044,
            6467437.5
          ],
          [
            916762.5,
            6467462.022575775
          ]
        ]
      }
    },
    {
      "type": "Feature",
      "properties": {
        "method": "transverse height maximum"
      },
      "geometry": {
        "type": "LineString",
        "coordinates": [
          [
            917507.2981715412,
            6466462.5
          ],
          [
            917501.0832307772,
            6466487.5
          ],
          [
            917499.2680717567,
            6466512.5
          ],
          [
            917498.4833987808,
            6466537.5
          ],
          [
            917498.4111471375,
            6466562.5
          ],
          [
            917499.449307079,
            6466587.5
          ],
          [
            917501.4638925851,
            6466612.5
          ],
          [
            917503.8029154149,
            6466637.499999999
          ],
          [
            917505.7841092801,
            6466662.5
          ],
          [
            917506.960743853,
            6466687.500000001
          ],
          [
            917507.135940739,
            6466712.5
          ],
          [
            917506.4674880316,
            6466737.5
          ],
          [
            917505.6563809594,
            6466762.5
          ],
          [
            917505.6930609462,
            6466787.5
          ],
          [
            917507.324549355,
            6466812.5
          ],
          [
            917510.9144357933,
            6466837.499999999
          ],
          [
            917512.5,
            6466845.240837378
          ],
          [
            917515.7052129224,
            6466862.5
          ],
          [
            917520.2774157935,
            6466887.5
          ],
          [
            917523.8741439533,
            6466912.5
          ],
          [
            917526.2569584845,
            6466937.5
          ],
          [
            917526.9504099428,
            6466962.5
          ]
        ]
      }
    },
    {
      "type": "Feature",
      "properties": {
        "method": "transverse height maximum"
      },
      "geometry": {
        "type": "LineString",
        "coordinates": [
          [
            918312.5,
            6466587.475447304
          ],
          [
            918312.5278528723,
            6466587.5
          ],
          [
            918337.5,
            6466612.377931381
          ],
          [
            918337.5873430831,
            6466612.5
          ],
          [
            918356.8137324606,
            6466637.5
          ],
          [
            918362.4999999999,
            6466644.600216531
          ],
          [
            918375.8205311745,
            6466662.5
          ],
          [
            918387.5,
            6466678.226826389
          ],
          [
            918394.8070575589,
            6466687.5
          ],
          [
            918412.5,
            6466710.633927686
          ],
          [
            918414.2307435162,
            6466712.5
          ],
          [
            918436.1166118071,
            6466737.5
          ],
          [
            918437.5,
            6466739.201815368
          ],
          [
            918458.0160921802,
            6466762.5
          ],
          [
            918462.5,
            6466768.761032474
          ],
          [
            918475.5514789718,
            6466787.5
          ],
          [
            918487.5,
            6466808.331727219
          ],
          [
            918489.9939491958,
            6466812.5
          ],
          [
            918505.524739687,
            6466837.5
          ],
          [
            918512.5,
            6466850.716636774
          ],
          [
            918520.4075300079,
            6466862.5
          ],
          [
            918533.426369449,
            6466887.5
          ],
          [
            918537.5,
            6466897.374622259
          ],
          [
            918545.7527542849,
            6466912.5
          ],
          [
            918556.0361786647,
            6466937.5
          ],
          [
            918562.5,
            6466956.934593269
          ],
          [
            918565.1573399035,
            6466962.5
          ],
          [
            918576.5387059173,
            6466987.500000001
          ],
          [
            918586.1151523459,
            6467012.5
          ],
          [
            918587.5000000001,
            6467016.090705323
          ],
          [
            918597.2223307445,
            6467037.5
          ],
          [
            918606.1046038595,
            6467062.5
          ]
        ]
      }
    },
    {
      "type": "Feature",
      "properties": {
        "method": "transverse height maximum"
      },
      "geometry": {
        "type": "LineString",
        "coordinates": [
          [
            919912.4999999999,
            6466874.880530857
          ],
          [
            919923.4909621953,
            6466887.5
          ],
          [
            919937.5,
            6466905.716895371
          ],
          [
            919942.4508146665,
            6466912.5
          ],
          [
            919959.9115772556,
            6466937.5
          ],
          [
            919962.5,
            6466941.201549962
          ],
          [
            919976.733524304,
            6466962.5
          ],
          [
            919987.5,
            6466978.041849921
          ],
          [
            919993.8250778206,
            6466987.5
          ],
          [
            920000.0,
            6466996.581878252
          ]
        ]
      }
    },
    {
      "type": "Feature",
      "properties": {
        "method": "transverse height maximum"
      },
      "geometry": {
        "type": "LineString",
        "coordinates": [
          [
            915637.1636132945,
            6467037.5
          ],
          [
            915614.725492447,
            6467062.5
          ],
          [
            915612.5,
            6467072.610687823
          ],
          [
            915609.7544215431,
            6467087.5
          ],
          [
            915606.4414361998,
            6467112.5
          ],
          [
            915603.5111106677,
            6467137.5
          ],
          [
            915600.4982973333,
            6467162.5
          ],
          [
            915597.1881685643,
            6467187.5
          ],
          [
            915593.8839691109,
            6467212.5
          ],
          [
            915591.2550201976,
            6467237.5
          ],
          [
            915589.7098452246,
            6467262.5
          ],
          [
            915589.1391588415,
            6467287.5
          ],
          [
            915589.1545170498,
            6467312.5
          ],
          [
            915589.5107459499,
            6467337.5
          ],
          [
            915590.1552701745,
            6467362.5
          ],
          [
            915591.0433922369,
            6467387.5
          ],
          [
            915592.5461760806,
            6467412.5
          ]
        ]
      }
    },
    {
      "type": "Feature",
      "properties": {
        "method": "transverse height maximum"
      },
      "geometry": {
        "type": "LineString",
        "coordinates": [
          [
            917887.5,
            6467066.53954786
          ],
          [
            917865.9688678154,
            6467087.5
          ],
          [
            917862.5,
            6467090.996290102
          ],
          [
            917846.7874653182,
            6467112.5
          ],
          [
            917837.5,
            6467125.438253488
          ],
          [
            917829.4255322246,
            6467137.5
          ],
          [
            917813.3157796063,
            6467162.5
          ],
          [
            917812.5,
            6467163.8461047
          ],
          [
            917798.3319134851,
            6467187.5
          ],
          [
            917787.5000000001,
            6467208.297850852
          ],
          [
            917785.2726316658,
            6467212.5
          ],
          [
            917773.8158948079,
            6467237.5
          ],
          [
            917763.1643247033,
            6467262.5
          ],
          [
            917762.5,
            6467263.999913343
          ],
          [
            917751.657259688,
            6467287.5
          ],
          [
            917739.027789564,
            6467312.5
          ],
          [
            917737.5,
            6467315.188356059
          ],
          [
            917725.2826276917,
            6467337.5
          ],
          [
            917712.8856742579,
            6467362.5
          ],
          [
            917712.5,
            6467363.3529986525
          ],
          [
            917701.2496794802,
            6467387.5
          ],
          [
            917692.3644638552,
            6467412.5
          ],
          [
            917687.5000000001,
            6467428.281426686
          ],
          [
            917684.150905543,
            6467437.5
          ],
          [
            917676.7351288383,
            6467462.5
          ],
          [
            917670.713515578,
            6467487.5
          ],
          [
            917665.4632095564,
            6467512.5
          ],
          [
            917662.4999999999,
            6467527.561734172
          ],
          [
            917660.2156064631,
            6467537.499999999
          ],
          [
            917654.1822269405,
            6467562.5
          ],
          [
            917645.3849932769,
            6467587.5
          ],
          [
            917637.5,
            6467596.263275381
          ],
          [
            917612.5,
            6467611.454718948
          ],
          [
            917610.6836973707,
            6467612.499999999
          ]
        ]
      }
    },
    {
      "type": "Feature",
      "properties": {
        "method": "transverse height maximum"
      },
      "geometry": {
        "type": "LineString",
        "coordinates": [
          [
            918810.646116048,
            6467237.5
          ],
          [
            918788.651553651,
            6467262.5
          ],
          [
            918787.5,
            6467264.109786617
          ],
          [
            918770.2130650622,
            6467287.5
          ],
          [
            918762.5,
            6467299.881204864
          ],
          [
            918753.7236374144,
            6467312.5
          ],
          [
            918738.7774810645,
            6467337.5
          ],
          [
            918737.5,
            6467339.875768702
          ],
          [
            918722.2771417535,
            6467362.5
          ],
          [
            918712.5,
            6467378.335462326
          ],
          [
            918704.2564549514,
            6467387.499999999
          ],
          [
            918690.0154469934,
            6467412.5
          ],
          [
            918687.5,
            6467420.937650163
          ],
          [
            918683.8777674654,
            6467437.5
          ],
          [
            918681.3140995522,
            6467462.5
          ],
          [
            918679.2771666867,
            6467487.5
          ],
          [
            918675.7884399868,
            6467512.5
          ],
          [
            918669.3657591697,
            6467537.5
          ],
          [
            918662.5,
            6467555.183867995
          ],
          [
            918660.187568605,
            6467562.499999999
          ],
          [
            918651.6370042914,
            6467587.5
          ],
          [
            918644.1763641533,
            6467612.5
          ],
          [
            918638.2462866121,
            6467637.5
          ],
          [
            918637.5,
            6467641.329077208
          ],
          [
            918634.0720258729,
            6467662.5
          ],
          [
            918630.4086789697,
            6467687.5
          ]
        ]
      }
    },
    {
      "type": "Feature",
      "properties": {
        "method": "transverse height maximum"
      },
      "geometry": {
        "type": "LineString",
        "coordinates": [
          [
            917487.5,
            6467314.3685653005
          ],
          [
            917498.2363214485,
            6467337.5
          ],
          [
            917509.6829102857,
            6467362.5
          ],
          [
            917512.5000000001,
            6467368.90076374
          ],
          [
            917525.2415738889,
            6467387.5
          ],
          [
            917537.5,
            6467402.542431729
          ],
          [
            917562.5,
            6467408.325283701
          ],
          [
            917587.5,
            6467398.197159177
          ],
          [
            917601.161273516,
            6467387.5
          ],
          [
            917612.5,
            6467378.143910913
          ],
          [
            917622.1410295051,
            6467362.5
          ],
          [
            917631.4364975132,
            6467337.5
          ]
        ]
      }
    },
    {
      "type": "Feature",
      "properties": {
        "method": "transverse height maximum"
      },
      "geometry": {
        "type": "LineString",
        "coordinates": [
          [
            919220.5080167017,
            6467437.5
          ],
          [
            919225.0761788045,
            6467462.5
          ],
          [
            919229.8739582348,
            6467487.5
          ],
          [
            919232.548099651,
            6467512.5
          ],
          [
            919225.4929548269,
            6467537.5
          ],
          [
            919212.5000000001,
            6467552.174898629
          ],
          [
            919205.8114378346,
            6467562.500000001
          ],
          [
            919187.5000000001,
            6467580.4399387725
          ],
          [
            919182.1094215184,
            6467587.5
          ],
          [
            919162.5,
            6467608.903982239
          ],
          [
            919160.134205122,
            6467612.499999999
          ],
          [
            919143.4641657687,
            6467637.5
          ],
          [
            919137.5,
            6467646.884507571
          ],
          [
            919130.1544397125,
            6467662.5
          ],
          [
            919118.3042475081,
            6467687.5
          ],
          [
            919112.5,
            6467699.219686634
          ],
          [
            919106.0309364535,
            6467712.5
          ],
          [
            919093.6778297626,
            6467737.5
          ],
          [
            919087.5000000001,
            6467750.166142569
          ],
          [
            919080.8650163735,
            6467762.5
          ],
          [
            919067.4903772754,
            6467787.5
          ],
          [
            919062.5,
            6467796.516182716
          ],
          [
            919052.616383583,
            6467812.5
          ],
          [
            919037.5000000001,
            6467836.132901116
          ],
          [
            919036.5965997259,
            6467837.5
          ],
          [
            919020.0087910084,
            6467862.5
          ],
          [
            919012.5,
            6467874.6742240535
          ],
          [
            919004.37690927,
            6467887.5
          ],
          [
            918991.6663873589,
            6467912.5
          ],
          [
            918987.5,
            6467924.756713525
          ],
          [
            918982.7894659585,
            6467937.5
          ],
          [
            918977.9633283182,
            6467962.5
          ],
          [
            918976.2358383214,
            6467987.5
          ],
          [
            918976.5305628254,
            6468012.5
          ],
          [
            918976.9305097184,
            6468037.5
          ],
          [
            918974.1977151511,
            6468062.5
          ],
          [
            918967.5646948232,
            6468087.5
          ],
          [
            918962.5,
            6468101.09116551
          ],
          [
            918958.2063935857,
            6468112.5
          ],
          [
            918946.5749169023,
            6468137.5
          ],
          [
            918937.4999999999,
            6468156.761762099
          ],
          [
            918934.4942094951,
            6468162.5
          ],
          [
            918923.3040385911,
            6468187.5
          ],
          [
            918916.7151451978,
            6468212.5
          ],
          [
            918914.6412809745,
            6468237.5
          ],
          [
            918916.2865855535,
            6468262.5
          ],
          [
            918921.3004498265,
            6468287.5
          ],
          [
            918934.379224092,
            6468312.499999999
          ]
        ]
      }
    },
    {
      "type": "Feature",
      "properties": {
        "method": "transverse height maximum"
      },
      "geometry": {
        "type": "LineString",
        "coordinates": [
          [
            915378.7961339728,
            6467587.5
          ],
          [
            915379.8332133844,
            6467612.5
          ],
          [
            915381.6331867703,
            6467637.499999999
          ],
          [
            915383.6603559825,
            6467662.5
          ],
          [
            915385.430877974,
            6467687.5
          ],
          [
            915386.650851429,
            6467712.5
          ],
          [
            915387.1646543646,
            6467737.499999999
          ],
          [
            915386.8730201882,
            6467762.499999999
          ],
          [
            915385.6886586454,
            6467787.5
          ],
          [
            915383.5767790467,
            6467812.500000001
          ],
          [
            915380.6527819674,
            6467837.5
          ],
          [
            915377.1391256826,
            6467862.5
          ],
          [
            915373.2470079693,
            6467887.5
          ],
          [
            915369.1167710852,
            6467912.5
          ],
          [
            915364.97602593,
            6467937.5
          ],
          [
            915362.5,
            6467953.910581277
          ],
          [
            915361.377342603,
            6467962.5
          ],
          [
            915358.6876452317,
            6467987.5
          ],
          [
            915356.5138714071,
            6468012.5
          ],
          [
            915354.4262220914,
            6468037.5
          ],
          [
            915351.8780502741,
            6468062.5
          ],
          [
            915348.5288192327,
            6468087.5
          ],
          [
            915344.3155969834,
            6468112.5
          ],
          [
            915339.1539426962,
            6468137.5
          ],
          [
            915337.5,
            6468144.307638306
          ],
          [
            915333.9246190047,
            6468162.499999999
          ],
          [
            915328.2403790115,
            6468187.5
          ],
          [
            915321.1274460712,
            6468212.5
          ],
          [
            915312.5,
            6468235.953252163
          ],
          [
            915311.9730563719,
            6468237.499999999
          ],
          [
            915302.4328708051,
            6468262.5
          ],
          [
            915291.4791713031,
            6468287.5
          ],
          [
            915287.5,
            6468296.170688311
          ],
          [
            915279.866214272,
            6468312.5
          ],
          [
            915267.2620887309,
            6468337.5
          ],
          [
            915262.5,
            6468345.637862559
          ],
          [
            915251.7007179308,
            6468362.5
          ],
          [
            915237.5000000001,
            6468380.704615923
          ]
        ]
      }
    },
    {
      "type": "Feature",
      "properties": {
        "method": "transverse height maximum"
      },
      "geometry": {
        "type": "LineString",
        "coordinates": [
          [
            919771.5351533275,
            6467812.5
          ],
          [
            919767.1313129696,
            6467837.5
          ],
          [
            919777.2901786091,
            6467862.5
          ],
          [
            919787.5,
            6467874.699837532
          ],
          [
            919795.8823998088,
            6467887.5
          ],
          [
            919812.5,
            6467908.28102656
          ],
          [
            919815.6795289858,
            6467912.5
          ],
          [
            919835.5412856843,
            6467937.5
          ],
          [
            919837.5,
            6467940.040467016
          ],
          [
            919854.7411366417,
            6467962.500000001
          ],
          [
            919862.4999999999,
            6467973.607929362
          ],
          [
            919872.3246344719,
            6467987.5
          ],
          [
            919887.5,
            6468012.444125867
          ],
          [
            919887.5349273165,
            6468012.5
          ],
          [
            919900.584235032,
            6468037.5
          ],
          [
            919911.8610606903,
            6468062.5
          ],
          [
            919912.5,
            6468064.036730345
          ],
          [
            919922.7617195839,
            6468087.5
          ],
          [
            919933.1387346749,
            6468112.5
          ],
          [
            919937.4999999999,
            6468122.990360016
          ],
          [
            919944.4599548741,
            6468137.5
          ],
          [
            919956.463611096,
            6468162.499999999
          ],
          [
            919962.5,
            6468174.679474109
          ]
        ]
      }
    },
    {
      "type": "Feature",
      "properties": {
        "method": "transverse height maximum"
      },
      "geometry": {
        "type": "LineString",
        "coordinates": [
          [
            917844.5012945505,
            6467837.5
          ],
          [
            917862.5,
            6467857.875001172
          ],
          [
            917866.4872810951,
            6467862.5
          ],
          [
            917884.5055474031,
            6467887.5
          ],
          [
            917887.4999999999,
            6467892.133958241
          ],
          [
            917899.805092626,
            6467912.5
          ],
          [
            917912.5,
            6467934.013343244
          ],
          [
            917914.4722715267,
            6467937.5
          ],
          [
            917927.8596037364,
            6467962.5
          ],
          [
            917937.5,
            6467980.863590573
          ],
          [
            917940.8128613716,
            6467987.5
          ],
          [
            917952.1367245212,
            6468012.5
          ],
          [
            917962.5,
            6468036.841943397
          ],
          [
            917962.7637795777,
            6468037.5
          ],
          [
            917971.5353288589,
            6468062.5
          ],
          [
            917979.2688378862,
            6468087.5
          ],
          [
            917986.1722115029,
            6468112.5
          ],
          [
            917987.5,
            6468118.257833732
          ],
          [
            917991.5678905229,
            6468137.5
          ],
          [
            917995.6202793574,
            6468162.5
          ],
          [
            917998.6390367565,
            6468187.5
          ],
          [
            918000.8790760799,
            6468212.5
          ],
          [
            918002.6176959825,
            6468237.499999999
          ],
          [
            918004.201632877,
            6468262.5
          ],
          [
            918006.2279630754,
            6468287.5
          ],
          [
            918009.9903521363,
            6468312.5
          ],
          [
            918012.5,
            6468321.7143780105
          ],
          [
            918017.4845302389,
            6468337.5
          ],
          [
            918030.1119508627,
            6468362.5
          ],
          [
            918037.5,
            6468375.189505491
          ],
          [
            918047.5583820047,
            6468387.5
          ],
          [
            918057.1508077409,
            6468412.5
          ],
          [
            918037.5,
            6468424.703921393
          ],
          [
            918013.7777361221,
            6468437.5
          ],
          [
            918012.5,
            6468437.5943297045
          ]
        ]
      }
    },
    {
      "type": "Feature",
      "properties": {
        "method": "transverse height maximum"
      },
      "geometry": {
        "type": "LineString",
        "coordinates": [
          [
            918887.5,
            6468379.218924582
          ],
          [
            918878.5017452888,
            6468387.5
          ],
          [
            918862.5,
            6468401.730797301
          ],
          [
            918853.5083866148,
            6468412.5
          ],
          [
            918837.5,
            6468430.72435141
          ],
          [
            918832.3851516803,
            6468437.499999999
          ],
          [
            918812.5,
            6468462.294433928
          ],
          [
            918812.3568074132,
            6468462.5
          ],
          [
            918794.2991087325,
            6468487.5
          ],
          [
            918787.5,
            6468496.424819476
          ],
          [
            918777.5326991297,
            6468512.5
          ],
          [
            918762.6981489194,
            6468537.5
          ],
          [
            918762.5,
            6468537.8793205265
          ],
          [
            918749.3227137327,
            6468562.5
          ],
          [
            918737.6718810484,
            6468587.5
          ],
          [
            918737.5,
            6468587.971577703
          ]
        ]
      }
    },
    {
      "type": "Feature",
      "properties": {
        "method": "transverse height maximum"
      },
      "geometry": {
        "type": "LineString",
        "coordinates": [
          [
            915112.5,
            6468522.164888758
          ],
          [
            915094.6448865534,
            6468537.5
          ],
          [
            915087.5,
            6468543.524641977
          ],
          [
            915070.3454013465,
            6468562.5
          ],
          [
            915062.5,
            6468570.81995293
          ],
          [
            915051.7696232898,
            6468587.5
          ],
          [
            915037.5,
            6468606.878308946
          ],
          [
            915033.3291368885,
            6468612.5
          ],
          [
            915014.6622901235,
            6468637.5
          ],
          [
            915012.5,
            6468640.627616714
          ],
          [
            915000.0,
            6468657.425791184
          ]
        ]
      }
    },
    {
      "type": "Feature",
      "properties": {
        "method": "transverse height maximum"
      },
      "geometry": {
        "type": "LineString",
        "coordinates": [
          [
            915976.6542953638,
            6468562.5
          ],
          [
            915969.5418816273,
            6468587.5
          ],
          [
            915962.5,
            6468604.864041629
          ],
          [
            915956.9040884151,
            6468612.499999999
          ],
          [
            915937.9550082448,
            6468637.5
          ],
          [
            915937.5,
            6468638.0079049105
          ],
          [
            915912.5,
            6468654.41228523
          ],
          [
            915903.2554374471,
            6468662.5
          ],
          [
            915887.4999999999,
            6468675.041694001
          ],
          [
            915878.8062417208,
            6468687.5
          ],
          [
            915862.5,
            6468709.054528496
          ],
          [
            915859.8890593945,
            6468712.5
          ],
          [
            915839.5700412792,
            6468737.5
          ]
        ]
      }
    },
    {
      "type": "Feature",
      "properties": {
        "method": "transverse height maximum"
      },
      "geometry": {
        "type": "LineString",
        "coordinates": [
          [
            916613.8249099444,
            6468562.5
          ],
          [
            916637.4502426132,
            6468587.499999999
          ],
          [
            916637.4999999999,
            6468587.565687363
          ],
          [
            916656.8930158858,
            6468612.5
          ],
          [
            916662.5,
            6468622.4907400375
          ],
          [
            916671.4399018872,
            6468637.5
          ],
          [
            916682.1647113387,
            6468662.5
          ],
          [
            916687.5,
            6468679.060267798
          ],
          [
            916690.5460865038,
            6468687.5
          ],
          [
            916697.414612877,
            6468712.5
          ],
          [
            916702.6469525096,
            6468737.5
          ],
          [
            916707.2897443624,
            6468762.5
          ],
          [
            916712.5,
            6468787.457892436
          ],
          [
            916712.5095827618,
            6468787.5
          ],
          [
            916719.5403865698,
            6468812.5
          ],
          [
            916727.2288913127,
            6468837.500000001
          ],
          [
            916735.4389075506,
            6468862.5
          ],
          [
            916737.4999999999,
            6468868.017856882
          ],
          [
            916745.2207248226,
            6468887.5
          ],
          [
            916756.9010191525,
            6468912.499999999
          ],
          [
            916762.5,
            6468924.204820736
          ]
        ]
      }
    },
    {
      "type": "Feature",
      "properties": {
        "method": "transverse height maximum"
      },
      "geometry": {
        "type": "LineString",
        "coordinates": [
          [
            918687.5,
            6468625.841936148
          ],
          [
            918669.6483671735,
            6468637.5
          ],
          [
            918662.5,
            6468642.5858691875
          ],
          [
            918641.586794874,
            6468662.5
          ],
          [
            918637.5,
            6468667.584943246
          ],
          [
            918619.8937590808,
            6468687.5
          ],
          [
            918612.5,
            6468697.320772899
          ],
          [
            918598.2812763453,
            6468712.5
          ],
          [
            918587.5,
            6468727.695284378
          ],
          [
            918581.7014714797,
            6468737.5
          ],
          [
            918574.7742928368,
            6468762.5
          ],
          [
            918572.6262237319,
            6468787.5
          ]
        ]
      }
    },
    {
      "type": "Feature",
      "properties": {
        "method": "transverse height maximum"
      },
      "geometry": {
        "type": "LineString",
        "coordinates": [
          [
            918331.0105183423,
            6468812.500000001
          ],
          [
            918337.5000000001,
            6468818.999821091
          ],
          [
            918356.2373188221,
            6468837.5
          ],
          [
            918362.5,
            6468843.66600096
          ],
          [
            918381.3858808305,
            6468862.5
          ],
          [
            918387.5,
            6468868.647497773
          ],
          [
            918403.4461596225,
            6468887.5
          ],
          [
            918412.5,
            6468900.320612072
          ],
          [
            918418.9599208271,
            6468912.5
          ],
          [
            918429.172694445,
            6468937.499999999
          ],
          [
            918437.5,
            6468958.3542560125
          ],
          [
            918438.8664525367,
            6468962.5
          ],
          [
            918447.417875918,
            6468987.5
          ],
          [
            918457.1014912269,
            6469012.5
          ],
          [
            918462.5,
            6469025.574647082
          ],
          [
            918466.3117036659,
            6469037.5
          ],
          [
            918472.6136628379,
            6469062.5
          ],
          [
            918476.7620449063,
            6469087.5
          ],
          [
            918479.2686089927,
            6469112.5
          ],
          [
            918480.8827556432,
            6469137.500000001
          ],
          [
            918482.2864321882,
            6469162.5
          ],
          [
            918484.0779318507,
            6469187.5
          ],
          [
            918486.8024704753,
            6469212.5
          ],
          [
            918487.5,
            6469217.1492214985
          ],
          [
            918489.8757330419,
            6469237.5
          ],
          [
            918493.2611231826,
            6469262.5
          ],
          [
            918496.7896770068,
            6469287.5
          ],
          [
            918500.4176169247,
            6469312.5
          ],
          [
            918504.4313250509,
            6469337.5
          ],
          [
            918509.2042869354,
            6469362.5
          ],
          [
            918512.5,
            6469377.468322434
          ],
          [
            918514.159960904,
            6469387.5
          ],
          [
            918518.2762376878,
            6469412.5
          ],
          [
            918522.2613606165,
            6469437.5
          ],
          [
            918526.058773579,
            6469462.5
          ],
          [
            918530.245858149,
            6469487.5
          ],
          [
            918535.9398224648,
            6469512.500000001
          ],
          [
            918537.5,
            6469517.7270996915
          ],
          [
            918541.8469882066,
            6469537.5
          ],
          [
            918548.9705011857,
            6469562.5
          ],
          [
            918557.4032062073,
            6469587.5
          ],
          [
            918562.5,
            6469603.265096078
          ],
          [
            918564.9093534464,
            6469612.5
          ],
          [
            918569.4885475595,
            6469637.5
          ],
          [
            918571.0834583214,
            6469662.5
          ],
          [
            918562.5,
            6469686.065828045
          ],
          [
            918561.0480050601,
            6469687.500000001
          ],
          [
            918562.5,
            6469689.745684867
          ],
          [
            918587.5,
            6469696.134386734
          ],
          [
            918600.8043215008,
            6469712.5
          ],
          [
            918612.5,
            6469729.561796277
          ],
          [
            918616.1699532664,
            6469737.5
          ],
          [
            918622.0678783153,
            6469762.5
          ],
          [
            918624.308850857,
            6469787.5
          ],
          [
            918625.328410755,
            6469812.5
          ],
          [
            918627.6269398031,
            6469837.5
          ],
          [
            918637.5,
            6469859.6221173555
          ],
          [
            918639.3387566758,
            6469862.5
          ],
          [
            918662.5,
            6469876.346199062
          ],
          [
            918687.5,
            6469874.884436483
          ]
        ]
      }
    },
    {
      "type": "Feature",
      "properties": {
        "method": "transverse height maximum"
      },
      "geometry": {
        "type": "LineString",
        "coordinates": [
          [
            915837.5,
            6469427.49797542
          ],
          [
            915845.9037086886,
            6469437.5
          ],
          [
            915862.5,
            6469456.979016594
          ],
          [
            915866.8295093022,
            6469462.5
          ],
          [
            915886.2332458362,
            6469487.500000001
          ],
          [
            915887.4999999999,
            6469489.127167195
          ],
          [
            915903.6080986087,
            6469512.499999999
          ],
          [
            915912.5,
            6469525.718852421
          ],
          [
            915919.6429285022,
            6469537.5
          ],
          [
            915934.0936022775,
            6469562.500000001
          ],
          [
            915937.5,
            6469568.270332542
          ],
          [
            915947.8637280966,
            6469587.5
          ],
          [
            915961.540829407,
            6469612.5
          ],
          [
            915962.5,
            6469614.142641703
          ],
          [
            915975.6406377655,
            6469637.5
          ],
          [
            915987.5,
            6469657.555157639
          ],
          [
            915990.6654977524,
            6469662.5
          ],
          [
            916006.6868307666,
            6469687.5
          ],
          [
            916012.5,
            6469696.405994877
          ],
          [
            916025.0226746451,
            6469712.5
          ],
          [
            916037.5,
            6469728.710007104
          ]
        ]
      }
    },
    {
      "type": "Feature",
      "properties": {
        "method": "transverse height maximum"
      },
      "geometry": {
        "type": "LineString",
        "coordinates": [
          [
            916837.5,
            6469550.66235674
          ],
          [
            916833.5491635782,
            6469562.5
          ],
          [
            916825.0734110987,
            6469587.5
          ],
          [
            916816.6325802045,
            6469612.5
          ],
          [
            916812.4999999999,
            6469625.96212933
          ],
          [
            916809.3445522143,
            6469637.5
          ],
          [
            916804.0126555465,
            6469662.500000001
          ],
          [
            916799.8525058571,
            6469687.5
          ],
          [
            916796.0874070656,
            6469712.5
          ],
          [
            916791.8455607226,
            6469737.5
          ],
          [
            916787.5,
            6469757.660711602
          ],
          [
            916786.478305128,
            6469762.5
          ],
          [
            916780.0847206615,
            6469787.5
          ],
          [
            916771.9796694655,
            6469812.5
          ],
          [
            916762.4999999999,
            6469836.145431903
          ],
          [
            916761.8711218663,
            6469837.5
          ],
          [
            916749.41354608,
            6469862.5
          ],
          [
            916737.5,
            6469883.488870832
          ]
        ]
      }
    },
    {
      "type": "Feature",
      "properties": {
        "method": "transverse height maximum"
      },
      "geometry": {
        "type": "LineString",
        "coordinates": [
          [
            915115.2322026328,
            6469612.5
          ],
          [
            915112.5,
            6469618.066478535
          ],
          [
            915102.6620372758,
            6469637.5
          ],
          [
            915090.6957665405,
            6469662.5
          ],
          [
            915087.5,
            6469669.125351676
          ],
          [
            915079.4815118545,
            6469687.5
          ],
          [
            915069.1446083706,
            6469712.5
          ],
          [
            915062.5,
            6469729.138517352
          ],
          [
            915059.6820826327,
            6469737.5
          ],
          [
            915051.822643365,
            6469762.5
          ],
          [
            915044.2504175926,
            6469787.5
          ],
          [
            915037.4999999999,
            6469810.330677949
          ],
          [
            915036.9835975968,
            6469812.5
          ],
          [
            915031.5424292504,
            6469837.5
          ],
          [
            915026.6681722127,
            6469862.5
          ],
          [
            915022.4543047464,
            6469887.5
          ],
          [
            915018.9696006383,
            6469912.5
          ],
          [
            915016.3249924025,
            6469937.5
          ],
          [
            915014.6780224734,
            6469962.5
          ],
          [
            915014.08876223,
            6469987.5
          ],
          [
            915014.2352257341,
            6470000.0
          ]
        ]
      }
    },
    {
      "type": "Feature",
      "properties": {
        "method": "transverse height maximum"
      },
      "geometry": {
        "type": "LineString",
        "coordinates": [
          [
            917562.5,
            6469652.7025714815
          ],
          [
            917558.2258523348,
            6469662.5
          ],
          [
            917546.7749487152,
            6469687.5
          ],
          [
            917537.5,
            6469709.210026106
          ],
          [
            917536.4329603199,
            6469712.5
          ],
          [
            917529.0813618095,
            6469737.5
          ],
          [
            917522.5348555561,
            6469762.5
          ],
          [
            917515.7893510807,
            6469787.5
          ],
          [
            917512.5,
            6469797.090510974
          ],
          [
            917506.3526176963,
            6469812.500000001
          ],
          [
            917493.1368794084,
            6469837.5
          ],
          [
            917487.5,
            6469848.710048391
          ],
          [
            917480.4091230925,
            6469862.5
          ],
          [
            917468.1275262462,
            6469887.5
          ],
          [
            917462.5,
            6469899.302722902
          ],
          [
            917453.4584991793,
            6469912.5
          ],
          [
            917437.4999999999,
            6469927.2126368005
          ],
          [
            917421.8662497227,
            6469937.5
          ],
          [
            917412.5,
            6469941.567191171
          ],
          [
            917387.5,
            6469959.057810405
          ],
          [
            917383.7892688996,
            6469962.5
          ]
        ]
      }
    },
    {
      "type": "Feature",
      "properties": {
        "method": "transverse height maximum"
      },
      "geometry": {
        "type": "LineString",
        "coordinates": [
          [
            918739.669077404,
            6469937.5
          ],
          [
            918737.5,
            6469938.995445348
          ],
          [
            918724.9315418013,
            6469962.5
          ],
          [
            918722.9046187691,
            6469987.5
          ],
          [
            918724.4136760358,
            6470000.0
          ]
        ]
      }
    },
    {
      "type": "Feature",
      "properties": {
        "method": "transverse height maximum"
      },
      "geometry": {
        "type": "LineString",
        "coordinates": [
          [
            916725.8497291809,
            6469962.5
          ],
          [
            916732.6008618481,
            6469987.5
          ],
          [
            916735.1683638002,
            6470000.0
          ]
        ]
      }
    },
    {
      "type": "Feature",
      "properties": {
        "method": "transverse height maximum"
      },
      "geometry": {
        "type": "LineString",
        "coordinates": [
          [
            916887.5,
            6465167.131820593
          ],
          [
            916862.5,
            6465165.99873159
          ],
          [
            916837.5,
            6465166.1643991005
          ],
          [
            916812.5,
            6465167.619028962
          ],
          [
            916787.5,
            6465170.015855497
          ],
          [
            916762.5,
            6465171.240564884
          ],
          [
            916740.8731925454,
            6465162.5
          ],
          [
            916737.5,
            6465161.575615956
          ],
          [
            916712.5,
            6465158.80067745
          ],
          [
            916702.0130552505,
            6465162.5
          ],
          [
            916687.5,
            6465170.624230798
          ],
          [
            916669.8141319692,
            6465187.5
          ],
          [
            916662.5,
            6465199.275691612
          ],
          [
            916658.2244950753,
            6465212.5
          ],
          [
            916662.5,
            6465218.191696702
          ],
          [
            916687.5,
            6465217.778002666
          ]
        ]
      }
    },
    {
      "type": "Feature",
      "properties": {
        "method": "transverse height maximum"
      },
      "geometry": {
        "type": "LineString",
        "coordinates": [
          [
            916287.5,
            6465311.644808678
          ],
          [
            916262.5,
            6465305.946349042
          ],
          [
            916237.5,
            6465300.653516017
          ],
          [
            916212.5,
            6465293.718582138
          ],
          [
            916195.2689649625,
            6465287.5
          ],
          [
            916187.5,
            6465284.756250812
          ],
          [
            916162.5,
            6465274.1058573825
          ],
          [
            916140.7148194793,
            6465262.5
          ],
          [
            916137.4999999999,
            6465260.722654737
          ],
          [
            916112.5,
            6465246.088288066
          ],
          [
            916098.8230104215,
            6465237.5
          ],
          [
            916087.5,
            6465230.733408295
          ],
          [
            916062.5,
            6465216.3448934285
          ],
          [
            916055.5036103146,
            6465212.5
          ],
          [
            916037.5,
            6465203.151665027
          ],
          [
            916012.5,
            6465191.829043876
          ],
          [
            916001.1282458593,
            6465187.5
          ],
          [
            915987.5000000001,
            6465182.757081583
          ],
          [
            915962.5,
            6465175.784891981
          ],
          [
            915937.5,
            6465169.882546442
          ],
          [
            915912.5,
            6465165.025761077
          ],
          [
            915897.371088204,
            6465162.5
          ],
          [
            915887.5,
            6465160.9734344445
          ],
          [
            915862.5,
            6465156.950835365
          ],
          [
            915837.5,
            6465151.443644931
          ],
          [
            915812.5,
            6465143.610981873
          ],
          [
            915798.2114799422,
            6465137.500000001
          ],
          [
            915787.5,
            6465133.318234859
          ],
          [
            915762.5,
            6465121.115665366
          ],
          [
            915747.1733374543,
            6465112.5
          ],
          [
            915737.5,
            6465106.933335928
          ],
          [
            915712.5,
            6465092.522041041
          ],
          [
            915703.4517208489,
            6465087.5
          ],
          [
            915687.5,
            6465077.964943604
          ],
          [
            915662.5,
            6465064.437179369
          ],
          [
            915658.9535754324,
            6465062.5
          ],
          [
            915637.5,
            6465051.064186619
          ],
          [
            915612.5,
            6465038.473565719
          ],
          [
            915610.4556146817,
            6465037.5
          ],
          [
            915587.4999999999,
            6465026.141838854
          ],
          [
            915562.5,
            6465013.963397448
          ],
          [
            915559.4607842029,
            6465012.5
          ],
          [
            915537.5,
            6465000.611336088
          ],
          [
            915536.4716640519,
            6465000.0
          ]
        ]
      }
    },
    {
      "type": "Feature",
      "properties": {
        "method": "transverse height maximum"
      },
      "geometry": {
        "type": "LineString",
        "coordinates": [
          [
            917789.3342804123,
            6467787.5
          ],
          [
            917787.5,
            6467785.952257237
          ],
          [
            917762.5,
            6467771.766285422
          ],
          [
            917739.8852545422,
            6467762.5
          ],
          [
            917737.5,
            6467761.423072694
          ],
          [
            917712.4999999999,
            6467752.316347109
          ],
          [
            917687.5,
            6467742.396553616
          ],
          [
            917675.103472026,
            6467737.5
          ],
          [
            917662.5,
            6467732.771879883
          ],
          [
            917637.5,
            6467725.40577799
          ],
          [
            917612.5,
            6467721.8370983265
          ],
          [
            917587.5,
            6467722.984479731
          ],
          [
            917562.5000000001,
            6467727.666991617
          ],
          [
            917537.5,
            6467733.289576392
          ],
          [
            917517.9284716938,
            6467737.5
          ],
          [
            917512.5,
            6467738.784695979
          ],
          [
            917487.5,
            6467745.033577104
          ],
          [
            917462.5,
            6467754.126435858
          ],
          [
            917447.7833044662,
            6467762.5
          ]
        ]
      }
    },
    {
      "type": "Feature",
      "properties": {
        "method": "transverse height maximum"
      },
      "geometry": {
        "type": "LineString",
        "coordinates": [
          [
            917362.3803801571,
            6468237.5
          ],
          [
            917337.5,
            6468213.322571725
          ],
          [
            917336.3513455068,
            6468212.5
          ],
          [
            917312.5,
            6468196.235440415
          ],
          [
            917292.3460723135,
            6468187.5
          ],
          [
            917287.5,
            6468185.2235163255
          ],
          [
            917262.5,
            6468179.343409265
          ],
          [
            917237.5,
            6468175.879482814
          ],
          [
            917212.5,
            6468168.641774376
          ],
          [
            917202.8743648113,
            6468162.5
          ],
          [
            917187.4999999999,
            6468153.636595267
          ],
          [
            917168.7728831024,
            6468137.499999999
          ],
          [
            917162.5,
            6468132.783344508
          ],
          [
            917141.7852600608,
            6468112.499999999
          ],
          [
            917137.5,
            6468108.677824204
          ],
          [
            917118.4839193115,
            6468087.499999999
          ],
          [
            917112.5,
            6468080.839884431
          ]
        ]
      }
    },
    {
      "type": "Feature",
      "properties": {
        "method": "transverse height maximum"
      },
      "geometry": {
        "type": "LineString",
        "coordinates": [
          [
            920000.0,
            6468691.861586013
          ],
          [
            919987.5,
            6468697.390815232
          ],
          [
            919962.5,
            6468708.837074481
          ],
          [
            919955.4362872823,
            6468712.5
          ],
          [
            919937.5,
            6468721.261322936
          ],
          [
            919912.5,
            6468734.542233984
          ],
          [
            919907.460612313,
            6468737.5
          ],
          [
            919887.5,
            6468749.616584234
          ],
          [
            919868.0733058533,
            6468762.5
          ],
          [
            919862.5,
            6468766.67161033
          ],
          [
            919837.5,
            6468785.701727171
          ],
          [
            919835.1218737793,
            6468787.5
          ],
          [
            919812.5,
            6468805.492959111
          ],
          [
            919803.4969326832,
            6468812.5
          ],
          [
            919787.5,
            6468825.14407168
          ],
          [
            919771.8112559096,
            6468837.5
          ],
          [
            919762.5,
            6468844.719408201
          ],
          [
            919739.4727584627,
            6468862.5
          ],
          [
            919737.5,
            6468863.973102577
          ],
          [
            919712.5,
            6468881.252603859
          ],
          [
            919701.4784691208,
            6468887.5
          ],
          [
            919687.5,
            6468894.822720368
          ],
          [
            919662.4999999999,
            6468902.6531288205
          ],
          [
            919637.5,
            6468906.790008406
          ],
          [
            919612.5,
            6468908.491845644
          ],
          [
            919587.5,
            6468908.384176216
          ],
          [
            919562.5,
            6468906.7792113
          ],
          [
            919537.5,
            6468903.66949844
          ],
          [
            919512.5,
            6468898.831520627
          ],
          [
            919487.5,
            6468892.175332067
          ],
          [
            919473.2569115724,
            6468887.5
          ],
          [
            919462.5,
            6468883.593254746
          ],
          [
            919437.5,
            6468874.363700868
          ],
          [
            919412.5,
            6468866.075406501
          ],
          [
            919398.9564374422,
            6468862.5
          ],
          [
            919387.5000000001,
            6468857.226440299
          ],
          [
            919362.5,
            6468849.953416096
          ],
          [
            919337.5,
            6468850.819035998
          ],
          [
            919312.5000000001,
            6468862.080974158
          ],
          [
            919311.5201109671,
            6468862.5
          ],
          [
            919287.5,
            6468867.241455941
          ],
          [
            919262.5,
            6468865.718918918
          ],
          [
            919245.8992649105,
            6468862.5
          ],
          [
            919237.5,
            6468860.871953734
          ],
          [
            919212.5,
            6468856.190539212
          ],
          [
            919187.5,
            6468852.785056517
          ],
          [
            919162.5,
            6468850.304338923
          ],
          [
            919137.5,
            6468848.123950343
          ]
        ]
      }
    },
    {
      "type": "Feature",
      "properties": {
        "method": "transverse height maximum"
      },
      "geometry": {
        "type": "LineString",
        "coordinates": [
          [
            917736.3352912561,
            6468662.5
          ],
          [
            917737.5000000001,
            6468642.787770518
          ],
          [
            917739.0452551444,
            6468637.5
          ],
          [
            917737.5,
            6468634.377032925
          ],
          [
            917734.4932976825,
            6468612.5
          ],
          [
            917723.0767871997,
            6468587.5
          ],
          [
            917712.5,
            6468574.600591909
          ],
          [
            917705.9544222604,
            6468562.5
          ],
          [
            917687.5,
            6468537.606630524
          ],
          [
            917687.4325055304,
            6468537.5
          ],
          [
            917671.7082002341,
            6468512.5
          ],
          [
            917662.5,
            6468500.239376274
          ],
          [
            917653.0858833656,
            6468487.5
          ],
          [
            917637.5,
            6468467.745161571
          ],
          [
            917632.3485237373,
            6468462.5
          ],
          [
            917612.5,
            6468440.3201018255
          ],
          [
            917608.8491083613,
            6468437.5
          ],
          [
            917587.5,
            6468417.082415078
          ],
          [
            917579.57859814,
            6468412.5
          ],
          [
            917562.5,
            6468401.22364253
          ],
          [
            917537.5,
            6468392.498951546
          ],
          [
            917524.2772285284,
            6468387.5
          ],
          [
            917512.4999999999,
            6468383.285744216
          ],
          [
            917487.5,
            6468368.81479045
          ],
          [
            917479.8645837617,
            6468362.5
          ],
          [
            917462.5,
            6468348.382744724
          ],
          [
            917451.7671931317,
            6468337.5
          ],
          [
            917437.5,
            6468323.713887408
          ],
          [
            917427.630205625,
            6468312.5
          ],
          [
            917412.5,
            6468296.254252651
          ],
          [
            917405.3676034593,
            6468287.5
          ],
          [
            917387.5,
            6468266.738149763
          ]
        ]
      }
    },
    {
      "type": "Feature",
      "properties": {
        "method": "transverse height maximum"
      },
      "geometry": {
        "type": "LineString",
        "coordinates": [
          [
            918237.5,
            6468720.142241967
          ],
          [
            918228.8201031007,
            6468712.5
          ],
          [
            918212.5,
            6468698.588176155
          ],
          [
            918198.7071284074,
            6468687.5
          ],
          [
            918187.5,
            6468678.699410529
          ],
          [
            918166.9992647917,
            6468662.500000001
          ],
          [
            918162.5,
            6468659.019338876
          ],
          [
            918137.5,
            6468639.835956777
          ],
          [
            918134.4590531769,
            6468637.5
          ],
          [
            918112.5,
            6468621.754537088
          ],
          [
            918099.5285289456,
            6468612.5
          ],
          [
            918087.5,
            6468604.798405324
          ],
          [
            918062.5,
            6468589.295934381
          ],
          [
            918059.6634716708,
            6468587.5
          ],
          [
            918037.5,
            6468575.081637677
          ],
          [
            918017.5580404986,
            6468562.5
          ],
          [
            918012.5,
            6468559.537824534
          ],
          [
            917987.5,
            6468545.729053937
          ],
          [
            917970.5070172914,
            6468537.5
          ],
          [
            917962.5,
            6468534.186231646
          ],
          [
            917937.5,
            6468527.345297325
          ],
          [
            917912.5,
            6468524.80286683
          ],
          [
            917887.5,
            6468532.180709118
          ],
          [
            917881.2346155818,
            6468537.499999999
          ],
          [
            917865.6259472774,
            6468562.5
          ]
        ]
      }
    },
    {
      "type": "Feature",
      "properties": {
        "method": "transverse height maximum"
      },
      "geometry": {
        "type": "LineString",
        "coordinates": [
          [
            918787.5000000001,
            6469059.372845717
          ],
          [
            918762.5,
            6469052.380967062
          ],
          [
            918737.5,
            6469049.375971603
          ],
          [
            918712.5,
            6469048.769952157
          ],
          [
            918687.5,
            6469048.443485589
          ],
          [
            918662.5,
            6469042.964159191
          ],
          [
            918652.3725216896,
            6469037.5
          ],
          [
            918653.908521322,
            6469012.5
          ],
          [
            918662.5,
            6468998.765345033
          ],
          [
            918665.6768346487,
            6468987.5
          ],
          [
            918671.2250987235,
            6468962.499999999
          ],
          [
            918674.7784887172,
            6468937.5
          ],
          [
            918680.2265357317,
            6468912.5
          ],
          [
            918687.5,
            6468900.503945114
          ]
        ]
      }
    },
    {
      "type": "Feature",
      "properties": {
        "method": "transverse height maximum"
      },
      "geometry": {
        "type": "LineString",
        "coordinates": [
          [
            917612.5,
            6469287.999258448
          ],
          [
            917589.7113689831,
            6469312.5
          ],
          [
            917587.5,
            6469314.356480761
          ],
          [
            917562.5,
            6469330.252770152
          ],
          [
            917550.3777611398,
            6469337.5
          ],
          [
            917537.5,
            6469348.899215929
          ],
          [
            917527.7083381512,
            6469362.5
          ],
          [
            917519.4655464181,
            6469387.5
          ],
          [
            917517.23755092,
            6469412.5
          ],
          [
            917522.4932201715,
            6469437.5
          ],
          [
            917537.5,
            6469453.877453852
          ],
          [
            917551.9937925043,
            6469462.5
          ],
          [
            917562.5,
            6469466.961806197
          ],
          [
            917587.5,
            6469485.391671699
          ]
        ]
      }
    },
    {
      "type": "Feature",
      "properties": {
        "method": "transverse height maximum"
      },
      "geometry": {
        "type": "LineString",
        "coordinates": [
          [
            915498.2179316967,
            6469437.5
          ],
          [
            915487.5,
            6469448.198361509
          ],
          [
            915472.319907309,
            6469462.5
          ],
          [
            915462.5,
            6469470.754599138
          ],
          [
            915439.5987650488,
            6469487.5
          ],
          [
            915437.5,
            6469488.939655321
          ],
          [
            915412.5,
            6469503.678333634
          ],
          [
            915395.1844857982,
            6469512.5
          ],
          [
            915387.5,
            6469516.200401794
          ],
          [
            915362.4999999999,
            6469525.499401706
          ],
          [
            915337.5,
            6469532.504330941
          ],
          [
            915318.1494321786,
            6469537.5
          ],
          [
            915312.5,
            6469538.989260488
          ],
          [
            915287.5,
            6469546.6450105375
          ],
          [
            915262.4999999999,
            6469557.106255149
          ],
          [
            915251.2232053633,
            6469562.5
          ],
          [
            915237.5,
            6469569.128182588
          ],
          [
            915212.5000000001,
            6469577.998642647
          ],
          [
            915187.5,
            6469583.64416519
          ],
          [
            915166.6730455934,
            6469587.5
          ],
          [
            915162.5,
            6469588.12306254
          ]
        ]
      }
    },
    {
      "type": "Feature",
      "properties": {
        "method": "transverse height maximum"
      },
      "geometry": {
        "type": "LineString",
        "coordinates": [
          [
            919187.5,
            6469579.482327699
          ],
          [
            919179.3688810567,
            6469562.5
          ],
          [
            919175.7475700481,
            6469537.5
          ],
          [
            919176.1637215507,
            6469512.5
          ],
          [
            919173.8940159854,
            6469487.500000001
          ],
          [
            919162.5,
            6469475.6348069785
          ],
          [
            919137.5,
            6469470.575102599
          ],
          [
            919112.5,
            6469477.926057309
          ],
          [
            919094.9819751283,
            6469487.5
          ],
          [
            919087.5,
            6469491.175110729
          ],
          [
            919062.4999999999,
            6469504.392479886
          ]
        ]
      }
    },
    {
      "type": "Feature",
      "properties": {
        "method": "transverse height maximum"
      },
      "geometry": {
        "type": "LineString",
        "coordinates": [
          [
            919987.5,
            6469774.922606924
          ],
          [
            919962.5,
            6469767.168371915
          ],
          [
            919937.5,
            6469765.560537228
          ],
          [
            919912.5,
            6469781.927460189
          ],
          [
            919908.6433742603,
            6469787.5
          ],
          [
            919887.5,
            6469806.015189726
          ],
          [
            919862.5,
            6469806.638193644
          ],
          [
            919837.5,
            6469799.202564812
          ],
          [
            919812.5,
            6469790.703209509
          ],
          [
            919802.8073289653,
            6469787.5
          ],
          [
            919787.4999999999,
            6469781.357912994
          ],
          [
            919762.5,
            6469772.921280723
          ],
          [
            919737.5,
            6469768.204441943
          ],
          [
            919712.5,
            6469769.664740021
          ],
          [
            919687.5,
            6469771.372029867
          ],
          [
            919662.5,
            6469768.469633249
          ],
          [
            919637.5,
            6469764.078638862
          ],
          [
            919616.3861750928,
            6469762.500000001
          ],
          [
            919612.5,
            6469761.749761518
          ],
          [
            919587.5,
            6469761.558836685
          ],
          [
            919562.5000000001,
            6469758.210664242
          ],
          [
            919537.5,
            6469752.854320917
          ],
          [
            919512.5,
            6469747.587915558
          ],
          [
            919487.5,
            6469742.990396769
          ],
          [
            919462.5,
            6469738.614861065
          ],
          [
            919457.1847428277,
            6469737.5
          ],
          [
            919437.5,
            6469731.983755196
          ],
          [
            919412.5,
            6469724.029505622
          ],
          [
            919387.5,
            6469716.998701044
          ],
          [
            919362.5,
            6469712.669597528
          ],
          [
            919360.8139492561,
            6469712.5
          ],
          [
            919337.5000000001,
            6469710.040762063
          ],
          [
            919312.5,
            6469706.3077523885
          ],
          [
            919287.5,
            6469698.4989733
          ],
          [
            919266.8671217252,
            6469687.499999999
          ],
          [
            919262.5,
            6469684.840706987
          ],
          [
            919237.9418554145,
            6469662.499999999
          ]
        ]
      }
    },
    {
      "type": "Feature",
      "properties": {
        "method": "transverse height maximum"
      },
      "geometry": {
        "type": "LineString",
        "coordinates": [
          [
            916712.5,
            6469911.290077849
          ],
          [
            916708.8863893643,
            6469912.500000001
          ],
          [
            916687.5,
            6469918.609231616
          ],
          [
            916662.5,
            6469920.704156085
          ],
          [
            916637.5,
            6469921.314672383
          ],
          [
            916612.5,
            6469920.715804995
          ],
          [
            916587.5,
            6469919.13575014
          ],
          [
            916562.5,
            6469916.862198391
          ],
          [
            916537.5,
            6469913.931382841
          ],
          [
            916527.9425223098,
            6469912.5
          ],
          [
            916512.5,
            6469910.719916141
          ],
          [
            916487.5,
            6469907.426993906
          ],
          [
            916462.5,
            6469904.086179927
          ],
          [
            916437.5000000001,
            6469901.055709799
          ],
          [
            916412.5,
            6469898.860144098
          ],
          [
            916387.5,
            6469898.3860652
          ],
          [
            916362.5,
            6469900.734021325
          ],
          [
            916337.5,
            6469905.010359171
          ],
          [
            916312.5,
            6469904.776613564
          ],
          [
            916287.5,
            6469896.113174161
          ],
          [
            916272.992427815,
            6469887.499999999
          ],
          [
            916262.5,
            6469882.939370027
          ],
          [
            916237.5,
            6469869.785545986
          ],
          [
            916222.0610403368,
            6469862.499999999
          ],
          [
            916212.5,
            6469858.473983301
          ],
          [
            916187.5,
            6469853.338513828
          ],
          [
            916162.5,
            6469851.6953497315
          ]
        ]
      }
    }
  ],
  "provenance": {
    "source_url": "https://data.geopf.fr/wms-r/wms?SERVICE=WMS&VERSION=1.3.0&REQUEST=GetMap&LAYERS=ELEVATION.ELEVATIONGRIDCOVERAGE.HIGHRES&STYLES=normal&CRS=EPSG%3A2154&BBOX=914500.0%2C6464500.0%2C920500.0%2C6470500.0&WIDTH=240&HEIGHT=240&FORMAT=image%2Ftiff",
    "dataset_url": "https://www.data.gouv.fr/datasets/rge-alti-r",
    "layer": "ELEVATION.ELEVATIONGRIDCOVERAGE.HIGHRES",
    "attribution": "Crests derived from © IGN RGE ALTI · Licence Ouverte 2.0",
    "licence": "Licence Ouverte 2.0",
    "retrieved_utc": "2026-09-22T15:24:28.078001+00:00",
    "derived_utc": "2026-09-22T15:29:06.892585+00:00",
    "derivation_code_sha256": "097f79508273c65e26912088bd99b8e73fa7f20c2eed2ff01fec7fabbd3821be",
    "response_bytes": 230534,
    "response_sha256": "0b76167ed9a79909df4425cd8b5ca98638c36290050e8d936e4f2a98bd5f749a",
    "terrain_file": "ign-terrain-183-1293.tif",
    "raster_bounds_epsg2154": [
      914500.0,
      6464500.0,
      920500.0,
      6470500.0
    ],
    "bounds_epsg2154": [
      915000.0,
      6465000.0,
      920000.0,
      6470000.0
    ],
    "parameters": {
      "grid_m": 25,
      "buffer_m": 500,
      "gaussian_sigma_m": 50,
      "minimum_transverse_curvature_per_m": 0.0003,
      "transverse_probe_m": 200,
      "minimum_drop_each_side_m": 5,
      "minimum_line_length_m": 200
    },
    "terrain_height_range_m": [
      405.4615478515625,
      2072.86962890625
    ],
    "method": "Gaussian-smoothed DEM; zero derivative along most concave Hessian eigenvector; negative curvature, two-sided drop and length filters. No flight coordinates used.",
    "limitations": "Approximate, scale-dependent crests; not an official or exhaustive ridge network. Gaps remain at weak ridges, orientation transitions and junctions; no invented links."
  }
}
