{
  "type": "FeatureCollection",
  "features": [],
  "totalFeatures": 0,
  "numberMatched": 0,
  "numberReturned": 0,
  "timeStamp": "2026-10-06T17:43:44.311Z",
  "crs": null,
  "provenance": {
    "source_url": "https://data.geopf.fr/wfs/ows?SERVICE=WFS&VERSION=2.0.0&REQUEST=GetFeature&TYPENAMES=BDTOPO_V3%3Adetail_orographique&SRSNAME=EPSG%3A2154&CQL_FILTER=BBOX%28geometrie%2C845000%2C6.94e%2B06%2C850000%2C6.945e%2B06%2C%27EPSG%3A2154%27%29+AND+nature+IN+%28%27Sommet%27%2C%27Pic%27%29&OUTPUTFORMAT=application%2Fjson&COUNT=1000",
    "dataset_url": "https://www.data.gouv.fr/datasets/bd-topo-r",
    "layer": "BDTOPO_V3:detail_orographique",
    "attribution": "Summits: © IGN · BD TOPO · Licence Ouverte 2.0",
    "licence": "Licence Ouverte 2.0",
    "retrieved_utc": "2026-10-06T17:43:44.297013+00:00",
    "response_sha256": "769a6ee22d58101bda73f887a5c47ff129a0ffbb0c6376606343adfc0130f5e0",
    "response_bytes": 147,
    "response_feature_count": 0,
    "bounds_epsg2154": [
      845000.0,
      6940000.0,
      850000.0,
      6945000.0
    ],
    "selection": "Sommet/Pic only; exact Lambert-93 cell bounds.",
    "note": "Named summits; not a complete ridge network or DEM maxima."
  }
}
