{
  "type": "FeatureCollection",
  "crs": {
    "type": "name",
    "properties": {
      "name": "EPSG:2154"
    }
  },
  "features": [
    {
      "type": "Feature",
      "properties": {
        "method": "transverse height maximum"
      },
      "geometry": {
        "type": "LineString",
        "coordinates": [
          [
            916419.462820375,
            6500612.5
          ],
          [
            916425.3006647746,
            6500637.5
          ],
          [
            916425.7762820693,
            6500662.5
          ],
          [
            916427.295423531,
            6500687.5
          ],
          [
            916430.1319834333,
            6500712.5
          ],
          [
            916433.7414382767,
            6500737.5
          ],
          [
            916437.5,
            6500759.139847261
          ],
          [
            916438.0394959957,
            6500762.5
          ],
          [
            916442.5906414243,
            6500787.5
          ],
          [
            916447.2097446398,
            6500812.5
          ],
          [
            916451.4100704207,
            6500837.5
          ],
          [
            916455.463543568,
            6500862.5
          ],
          [
            916460.5838534604,
            6500887.5
          ],
          [
            916462.5,
            6500892.540384636
          ],
          [
            916469.2973285918,
            6500912.5
          ],
          [
            916487.2722359349,
            6500937.499999999
          ]
        ]
      }
    },
    {
      "type": "Feature",
      "properties": {
        "method": "transverse height maximum"
      },
      "geometry": {
        "type": "LineString",
        "coordinates": [
          [
            916118.3467390413,
            6501037.5
          ],
          [
            916123.1757568275,
            6501062.5
          ],
          [
            916129.1385659884,
            6501087.5
          ],
          [
            916135.0509280113,
            6501112.5
          ],
          [
            916137.5,
            6501122.3731493065
          ],
          [
            916140.7604505857,
            6501137.5
          ],
          [
            916146.9085693347,
            6501162.5
          ],
          [
            916154.1683942212,
            6501187.5
          ],
          [
            916162.5,
            6501210.900061328
          ],
          [
            916163.052028259,
            6501212.5
          ],
          [
            916174.1571993196,
            6501237.5
          ],
          [
            916187.5,
            6501261.4006295
          ],
          [
            916188.1225024399,
            6501262.5
          ],
          [
            916204.7429862955,
            6501287.5
          ],
          [
            916212.5,
            6501298.3919430645
          ],
          [
            916222.2917566099,
            6501312.5
          ],
          [
            916237.5,
            6501335.177611672
          ],
          [
            916238.9378762218,
            6501337.5
          ],
          [
            916253.5228341634,
            6501362.5
          ],
          [
            916262.5,
            6501378.139990262
          ],
          [
            916267.6982591712,
            6501387.5
          ],
          [
            916282.2102596116,
            6501412.5
          ],
          [
            916287.5,
            6501421.259859371
          ],
          [
            916297.5744032561,
            6501437.5
          ],
          [
            916312.5,
            6501461.568976282
          ],
          [
            916313.0707624421,
            6501462.5
          ],
          [
            916326.773285,
            6501487.5
          ],
          [
            916337.5,
            6501507.678127895
          ],
          [
            916339.98479277,
            6501512.5
          ],
          [
            916352.7654650861,
            6501537.500000001
          ],
          [
            916362.5,
            6501555.318224884
          ],
          [
            916366.400053424,
            6501562.5
          ],
          [
            916380.5554436708,
            6501587.499999999
          ],
          [
            916387.5,
            6501599.18275137
          ],
          [
            916395.6705726907,
            6501612.5
          ],
          [
            916411.8229472713,
            6501637.5
          ],
          [
            916412.5000000001,
            6501638.591973634
          ],
          [
            916428.0134282908,
            6501662.5
          ],
          [
            916437.5,
            6501677.504420326
          ],
          [
            916443.8864731067,
            6501687.5
          ],
          [
            916459.5548837589,
            6501712.5
          ],
          [
            916462.5,
            6501716.996809709
          ],
          [
            916474.276688563,
            6501737.5
          ],
          [
            916487.5,
            6501759.030073636
          ],
          [
            916489.3809952405,
            6501762.5
          ],
          [
            916504.7046216294,
            6501787.5
          ],
          [
            916512.5,
            6501799.124601218
          ],
          [
            916524.2940326954,
            6501812.5
          ],
          [
            916537.5,
            6501826.544034678
          ]
        ]
      }
    },
    {
      "type": "Feature",
      "properties": {
        "method": "transverse height maximum"
      },
      "geometry": {
        "type": "LineString",
        "coordinates": [
          [
            916635.2845236815,
            6502062.5
          ],
          [
            916637.5,
            6502066.026421452
          ],
          [
            916646.9949478797,
            6502087.5
          ],
          [
            916655.5217331812,
            6502112.500000001
          ],
          [
            916661.4941095953,
            6502137.5
          ],
          [
            916662.4999999999,
            6502144.438090037
          ],
          [
            916664.4695000281,
            6502162.5
          ],
          [
            916665.1382306732,
            6502187.5
          ],
          [
            916662.7610292352,
            6502212.5
          ],
          [
            916662.5,
            6502213.409844555
          ],
          [
            916653.6134918993,
            6502237.5
          ],
          [
            916637.4999999999,
            6502262.435128788
          ],
          [
            916637.4345598773,
            6502262.5
          ],
          [
            916620.3831108018,
            6502287.5
          ],
          [
            916620.5883655774,
            6502312.5
          ],
          [
            916623.4543513848,
            6502337.5
          ],
          [
            916620.7814402404,
            6502362.5
          ],
          [
            916614.8606949891,
            6502387.5
          ],
          [
            916612.5,
            6502394.468606634
          ],
          [
            916605.4702068731,
            6502412.500000001
          ],
          [
            916594.1121461649,
            6502437.5
          ],
          [
            916587.5,
            6502450.110802534
          ],
          [
            916580.093140406,
            6502462.5
          ],
          [
            916563.6807905132,
            6502487.5
          ],
          [
            916562.5,
            6502489.1403904585
          ],
          [
            916543.0298481802,
            6502512.5
          ],
          [
            916537.5,
            6502519.173504552
          ],
          [
            916519.5917999188,
            6502537.5
          ],
          [
            916512.5,
            6502545.571239903
          ]
        ]
      }
    },
    {
      "type": "Feature",
      "properties": {
        "method": "transverse height maximum"
      },
      "geometry": {
        "type": "LineString",
        "coordinates": [
          [
            919607.0071172013,
            6502412.5
          ],
          [
            919607.1238296089,
            6502437.5
          ],
          [
            919612.5,
            6502451.7398543665
          ],
          [
            919616.1455109308,
            6502462.5
          ],
          [
            919630.6349756675,
            6502487.500000001
          ],
          [
            919637.5,
            6502497.058309536
          ],
          [
            919648.1915803594,
            6502512.5
          ],
          [
            919662.5,
            6502533.807105627
          ],
          [
            919664.9664645821,
            6502537.5
          ],
          [
            919676.9461618097,
            6502562.5
          ],
          [
            919684.6263193007,
            6502587.5
          ],
          [
            919687.5,
            6502603.009023736
          ],
          [
            919689.3367474538,
            6502612.5
          ],
          [
            919691.5326005212,
            6502637.5
          ],
          [
            919691.7416028706,
            6502662.5
          ],
          [
            919690.4239357196,
            6502687.5
          ],
          [
            919687.895863769,
            6502712.5
          ],
          [
            919687.5,
            6502715.33799323
          ],
          [
            919684.3940968463,
            6502737.500000001
          ],
          [
            919680.3443978139,
            6502762.5
          ],
          [
            919676.2402215524,
            6502787.5
          ],
          [
            919672.3219041022,
            6502812.5
          ],
          [
            919668.7395789297,
            6502837.5
          ],
          [
            919665.9912994291,
            6502862.5
          ],
          [
            919664.017035445,
            6502887.5
          ],
          [
            919662.505101867,
            6502912.5
          ],
          [
            919662.5,
            6502912.657513696
          ],
          [
            919661.5736911948,
            6502937.5
          ],
          [
            919660.9473716376,
            6502962.5
          ],
          [
            919659.7488535239,
            6502987.5
          ],
          [
            919657.0183966222,
            6503012.5
          ],
          [
            919650.1079222815,
            6503037.500000001
          ],
          [
            919637.5,
            6503057.098928815
          ],
          [
            919634.3612644555,
            6503062.5
          ],
          [
            919616.3232909715,
            6503087.5
          ]
        ]
      }
    },
    {
      "type": "Feature",
      "properties": {
        "method": "transverse height maximum"
      },
      "geometry": {
        "type": "LineString",
        "coordinates": [
          [
            917462.5,
            6502574.832264677
          ],
          [
            917453.6499375924,
            6502587.5
          ],
          [
            917440.1169698547,
            6502612.5
          ],
          [
            917437.5,
            6502619.61953072
          ],
          [
            917429.2022368578,
            6502637.5
          ],
          [
            917420.8441435538,
            6502662.5
          ],
          [
            917413.8633131456,
            6502687.5
          ],
          [
            917412.5,
            6502694.348180657
          ],
          [
            917408.7609199847,
            6502712.5
          ],
          [
            917405.1461842458,
            6502737.499999999
          ],
          [
            917397.680741404,
            6502762.5
          ]
        ]
      }
    },
    {
      "type": "Feature",
      "properties": {
        "method": "transverse height maximum"
      },
      "geometry": {
        "type": "LineString",
        "coordinates": [
          [
            919087.5,
            6504020.376188099
          ],
          [
            919062.5,
            6504023.671768847
          ],
          [
            919054.7813710887,
            6504037.5
          ],
          [
            919052.7552209406,
            6504062.5
          ],
          [
            919053.7190603741,
            6504087.5
          ],
          [
            919056.48443431,
            6504112.5
          ],
          [
            919060.4046597277,
            6504137.5
          ],
          [
            919062.5,
            6504152.430679252
          ],
          [
            919064.2022015164,
            6504162.5
          ],
          [
            919066.4378708432,
            6504187.5
          ],
          [
            919067.1556602585,
            6504212.5
          ],
          [
            919068.3356044884,
            6504237.5
          ],
          [
            919070.9834296623,
            6504262.5
          ]
        ]
      }
    },
    {
      "type": "Feature",
      "properties": {
        "method": "transverse height maximum"
      },
      "geometry": {
        "type": "LineString",
        "coordinates": [
          [
            919037.247234534,
            6504462.5
          ],
          [
            919037.0578995111,
            6504487.5
          ],
          [
            919034.8823999575,
            6504512.5
          ],
          [
            919028.8877035555,
            6504537.5
          ],
          [
            919013.8973934364,
            6504562.5
          ],
          [
            919012.5,
            6504563.303369647
          ],
          [
            918987.5,
            6504574.628225758
          ],
          [
            918962.5,
            6504578.956452565
          ],
          [
            918937.5,
            6504584.815382332
          ],
          [
            918933.4293648286,
            6504587.5
          ],
          [
            918912.5,
            6504609.874051491
          ],
          [
            918911.1556795376,
            6504612.500000001
          ],
          [
            918912.5,
            6504635.3568510525
          ],
          [
            918912.6222634286,
            6504637.5
          ]
        ]
      }
    },
    {
      "type": "Feature",
      "properties": {
        "method": "transverse height maximum"
      },
      "geometry": {
        "type": "LineString",
        "coordinates": [
          [
            919212.5,
            6504665.707112428
          ],
          [
            919208.9458707749,
            6504662.5
          ],
          [
            919187.5,
            6504639.456109048
          ],
          [
            919185.2994253968,
            6504637.5
          ],
          [
            919178.7101500368,
            6504612.5
          ],
          [
            919172.4440115528,
            6504587.5
          ],
          [
            919162.5000000001,
            6504575.866378622
          ],
          [
            919148.2103939069,
            6504562.5
          ],
          [
            919137.5,
            6504554.753789673
          ],
          [
            919125.0254668051,
            6504537.5
          ],
          [
            919122.8962131944,
            6504512.5
          ],
          [
            919137.5000000001,
            6504488.211932717
          ],
          [
            919137.9387586131,
            6504487.5
          ]
        ]
      }
    },
    {
      "type": "Feature",
      "properties": {
        "method": "transverse height maximum"
      },
      "geometry": {
        "type": "LineString",
        "coordinates": [
          [
            919068.9060460737,
            6504787.5
          ],
          [
            919081.2447239471,
            6504812.500000001
          ],
          [
            919087.5,
            6504830.239719827
          ],
          [
            919090.7033063294,
            6504837.5
          ],
          [
            919098.8792612969,
            6504862.5
          ],
          [
            919105.1704910671,
            6504887.5
          ],
          [
            919110.2174590203,
            6504912.5
          ],
          [
            919112.5,
            6504925.264746724
          ],
          [
            919115.2013080523,
            6504937.5
          ],
          [
            919120.6066713475,
            6504962.5
          ],
          [
            919126.1203058083,
            6504987.499999999
          ],
          [
            919129.026536599,
            6505000.0
          ]
        ]
      }
    },
    {
      "type": "Feature",
      "properties": {
        "method": "transverse height maximum"
      },
      "geometry": {
        "type": "LineString",
        "coordinates": [
          [
            915846.746053274,
            6500012.499999999
          ],
          [
            915837.5,
            6500004.064532846
          ],
          [
            915832.44100512,
            6500000.0
          ]
        ]
      }
    },
    {
      "type": "Feature",
      "properties": {
        "method": "transverse height maximum"
      },
      "geometry": {
        "type": "LineString",
        "coordinates": [
          [
            917787.5000000001,
            6500082.2258101525
          ],
          [
            917762.5000000001,
            6500084.37607385
          ],
          [
            917737.4999999999,
            6500082.881306836
          ],
          [
            917712.5,
            6500079.979945675
          ],
          [
            917687.5,
            6500078.2851482015
          ],
          [
            917662.5,
            6500078.165053508
          ],
          [
            917637.5,
            6500076.760312953
          ],
          [
            917612.5,
            6500070.141632005
          ],
          [
            917597.5484500825,
            6500062.5
          ],
          [
            917587.5,
            6500056.383994452
          ],
          [
            917562.5,
            6500037.885404819
          ],
          [
            917562.0140812293,
            6500037.5
          ]
        ]
      }
    },
    {
      "type": "Feature",
      "properties": {
        "method": "transverse height maximum"
      },
      "geometry": {
        "type": "LineString",
        "coordinates": [
          [
            916262.4999999999,
            6500306.73938392
          ],
          [
            916237.5,
            6500294.096461859
          ],
          [
            916225.2246599464,
            6500287.5
          ],
          [
            916212.5,
            6500281.725725108
          ],
          [
            916187.5,
            6500269.410767689
          ],
          [
            916174.3742875562,
            6500262.5
          ],
          [
            916162.4999999999,
            6500256.454246974
          ],
          [
            916137.5,
            6500243.128575847
          ],
          [
            916127.0901558688,
            6500237.5
          ],
          [
            916112.5,
            6500229.20090508
          ],
          [
            916087.5,
            6500215.655322273
          ],
          [
            916081.2511545386,
            6500212.5
          ],
          [
            916062.5,
            6500201.785722281
          ],
          [
            916037.5,
            6500188.389298883
          ],
          [
            916035.8703902615,
            6500187.5
          ],
          [
            916012.5,
            6500170.937261728
          ],
          [
            916000.5902612748,
            6500162.5
          ],
          [
            915987.5,
            6500149.757283797
          ],
          [
            915974.2789665597,
            6500137.5
          ],
          [
            915962.5,
            6500124.968283913
          ],
          [
            915950.6773747628,
            6500112.5
          ],
          [
            915937.5,
            6500100.075889676
          ]
        ]
      }
    },
    {
      "type": "Feature",
      "properties": {
        "method": "transverse height maximum"
      },
      "geometry": {
        "type": "LineString",
        "coordinates": [
          [
            915281.7075214256,
            6500387.5
          ],
          [
            915262.5,
            6500373.668730409
          ],
          [
            915247.6128802471,
            6500362.5
          ],
          [
            915237.5,
            6500355.6154158665
          ],
          [
            915212.5,
            6500339.619821433
          ],
          [
            915208.9285107743,
            6500337.5
          ],
          [
            915187.5,
            6500324.546678006
          ],
          [
            915164.8008785151,
            6500312.5
          ],
          [
            915162.5,
            6500311.208331486
          ],
          [
            915137.5,
            6500297.960890952
          ],
          [
            915116.1869911519,
            6500287.500000001
          ],
          [
            915112.5,
            6500285.475487229
          ],
          [
            915087.5,
            6500272.434214813
          ],
          [
            915066.2019680483,
            6500262.5
          ],
          [
            915062.5,
            6500260.585588876
          ],
          [
            915037.5,
            6500247.984935365
          ],
          [
            915019.6958276817,
            6500237.500000001
          ]
        ]
      }
    },
    {
      "type": "Feature",
      "properties": {
        "method": "transverse height maximum"
      },
      "geometry": {
        "type": "LineString",
        "coordinates": [
          [
            915579.7240680206,
            6500462.5
          ],
          [
            915562.5,
            6500457.440547433
          ],
          [
            915537.5,
            6500451.408957712
          ],
          [
            915512.5,
            6500445.862534111
          ],
          [
            915487.5,
            6500440.318470527
          ],
          [
            915474.6638166176,
            6500437.5
          ],
          [
            915462.5,
            6500434.669827755
          ],
          [
            915437.5,
            6500429.103668212
          ],
          [
            915412.5,
            6500423.414295866
          ],
          [
            915387.5,
            6500417.5730916
          ],
          [
            915362.5,
            6500412.60890197
          ],
          [
            915360.9903986718,
            6500412.5
          ],
          [
            915337.5,
            6500410.776714694
          ],
          [
            915312.5,
            6500408.385496788
          ]
        ]
      }
    },
    {
      "type": "Feature",
      "properties": {
        "method": "transverse height maximum"
      },
      "geometry": {
        "type": "LineString",
        "coordinates": [
          [
            917507.6433298541,
            6500537.5
          ],
          [
            917487.5,
            6500532.062130625
          ],
          [
            917462.5,
            6500522.763225323
          ],
          [
            917440.4744381827,
            6500512.5
          ],
          [
            917437.5,
            6500510.816813059
          ],
          [
            917412.5,
            6500493.501978622
          ],
          [
            917404.9781304913,
            6500487.5
          ],
          [
            917387.5,
            6500471.003216543
          ],
          [
            917378.6613538426,
            6500462.5
          ],
          [
            917362.5,
            6500447.794406276
          ],
          [
            917349.0528168797,
            6500437.5
          ],
          [
            917337.4999999999,
            6500429.596322077
          ],
          [
            917312.5,
            6500415.74119582
          ],
          [
            917305.3350125619,
            6500412.5
          ],
          [
            917287.5000000001,
            6500404.012726403
          ],
          [
            917262.5,
            6500394.41699093
          ],
          [
            917239.1063523939,
            6500387.5
          ],
          [
            917237.5000000001,
            6500386.996778273
          ],
          [
            917212.5,
            6500381.5147444215
          ],
          [
            917187.5,
            6500377.075354569
          ],
          [
            917162.5,
            6500372.730799142
          ],
          [
            917137.5,
            6500367.636345396
          ],
          [
            917117.6504091567,
            6500362.5
          ],
          [
            917112.5,
            6500361.20137913
          ],
          [
            917087.5,
            6500353.769977769
          ],
          [
            917062.5,
            6500345.525705301
          ],
          [
            917037.5,
            6500337.532913289
          ],
          [
            917037.3748800235,
            6500337.5
          ],
          [
            917012.5,
            6500331.488767144
          ],
          [
            916987.5,
            6500325.500424301
          ],
          [
            916962.5,
            6500315.805546164
          ],
          [
            916957.7492932061,
            6500312.5
          ],
          [
            916937.5,
            6500299.8830893235
          ],
          [
            916923.829271197,
            6500287.5
          ],
          [
            916912.5,
            6500278.281589348
          ],
          [
            916887.5,
            6500262.947381899
          ],
          [
            916886.4915931146,
            6500262.5
          ],
          [
            916862.5,
            6500254.10957749
          ],
          [
            916837.5,
            6500246.155607743
          ],
          [
            916812.9805619522,
            6500237.5
          ],
          [
            916812.5,
            6500237.321426423
          ],
          [
            916787.5,
            6500227.267501005
          ],
          [
            916762.5,
            6500217.401340525
          ],
          [
            916748.9450265627,
            6500212.5
          ],
          [
            916737.5,
            6500208.278258537
          ],
          [
            916712.5,
            6500200.069107242
          ]
        ]
      }
    },
    {
      "type": "Feature",
      "properties": {
        "method": "transverse height maximum"
      },
      "geometry": {
        "type": "LineString",
        "coordinates": [
          [
            917842.0080615908,
            6500612.5
          ],
          [
            917837.5,
            6500609.691530141
          ],
          [
            917812.5,
            6500598.58148084
          ],
          [
            917787.5,
            6500591.556396016
          ],
          [
            917772.3885015241,
            6500587.5
          ],
          [
            917762.5,
            6500585.007371043
          ],
          [
            917737.5,
            6500577.484655375
          ],
          [
            917712.5,
            6500568.991412151
          ],
          [
            917693.7569882903,
            6500562.5
          ],
          [
            917687.5,
            6500559.635641733
          ],
          [
            917662.5,
            6500549.1865231
          ],
          [
            917637.5,
            6500540.715688683
          ],
          [
            917612.5,
            6500540.11181063
          ],
          [
            917587.5,
            6500543.118579984
          ],
          [
            917562.5,
            6500543.701556337
          ],
          [
            917537.5,
            6500542.036301771
          ]
        ]
      }
    },
    {
      "type": "Feature",
      "properties": {
        "method": "transverse height maximum"
      },
      "geometry": {
        "type": "LineString",
        "coordinates": [
          [
            916082.0124164175,
            6500912.5
          ],
          [
            916062.5,
            6500892.312561216
          ],
          [
            916058.0243348683,
            6500887.5
          ],
          [
            916037.5,
            6500868.219691643
          ],
          [
            916031.3916417112,
            6500862.5
          ],
          [
            916012.5,
            6500845.2586092455
          ],
          [
            916002.5646717929,
            6500837.5
          ],
          [
            915987.5,
            6500825.575792719
          ],
          [
            915965.3527283479,
            6500812.500000001
          ],
          [
            915962.5,
            6500810.652115822
          ],
          [
            915937.5,
            6500797.310380119
          ],
          [
            915917.7628307567,
            6500787.5
          ],
          [
            915912.5,
            6500784.21399111
          ],
          [
            915887.5,
            6500766.52594301
          ]
        ]
      }
    },
    {
      "type": "Feature",
      "properties": {
        "method": "transverse height maximum"
      },
      "geometry": {
        "type": "LineString",
        "coordinates": [
          [
            917487.5,
            6501099.763203156
          ],
          [
            917475.3778309564,
            6501087.5
          ],
          [
            917462.5,
            6501071.996553892
          ],
          [
            917452.341467807,
            6501062.5
          ],
          [
            917437.5,
            6501047.833498491
          ],
          [
            917420.4477168581,
            6501037.499999999
          ],
          [
            917412.5,
            6501033.385091441
          ],
          [
            917387.5,
            6501022.861918949
          ],
          [
            917362.5,
            6501013.446032284
          ],
          [
            917360.0512513913,
            6501012.5
          ],
          [
            917337.5,
            6501002.346112755
          ],
          [
            917312.5,
            6500989.328413923
          ],
          [
            917309.2194886401,
            6500987.5
          ],
          [
            917287.5,
            6500972.772119626
          ],
          [
            917271.9896202098,
            6500962.5
          ],
          [
            917262.5,
            6500955.5089116525
          ],
          [
            917237.5,
            6500938.829079701
          ],
          [
            917235.396135027,
            6500937.5
          ],
          [
            917212.5,
            6500921.961916363
          ],
          [
            917198.0855831095,
            6500912.5
          ],
          [
            917187.5,
            6500905.271160488
          ],
          [
            917162.5,
            6500890.13685299
          ],
          [
            917157.157728813,
            6500887.5
          ],
          [
            917137.5,
            6500878.905911589
          ],
          [
            917112.5,
            6500870.841932032
          ],
          [
            917087.5,
            6500863.959802718
          ],
          [
            917082.3614777278,
            6500862.5
          ],
          [
            917062.5000000001,
            6500857.439828028
          ],
          [
            917037.5,
            6500849.717560583
          ],
          [
            917012.5,
            6500839.8753687395
          ]
        ]
      }
    },
    {
      "type": "Feature",
      "properties": {
        "method": "transverse height maximum"
      },
      "geometry": {
        "type": "LineString",
        "coordinates": [
          [
            915147.9669352922,
            6501137.5
          ],
          [
            915137.5,
            6501119.004773844
          ],
          [
            915132.2792472896,
            6501112.5
          ],
          [
            915112.5,
            6501094.339336301
          ],
          [
            915101.8563661436,
            6501087.5
          ],
          [
            915087.5,
            6501079.609384154
          ],
          [
            915062.5,
            6501068.46854184
          ],
          [
            915047.6665191861,
            6501062.5
          ],
          [
            915037.5000000001,
            6501058.669792114
          ],
          [
            915012.5,
            6501049.690901823
          ],
          [
            915000.0,
            6501045.112760097
          ]
        ]
      }
    },
    {
      "type": "Feature",
      "properties": {
        "method": "transverse height maximum"
      },
      "geometry": {
        "type": "LineString",
        "coordinates": [
          [
            916909.6234924644,
            6501287.5
          ],
          [
            916887.5,
            6501267.008220101
          ],
          [
            916882.5480511982,
            6501262.5
          ],
          [
            916862.5,
            6501247.875341466
          ],
          [
            916848.1328957465,
            6501237.5
          ],
          [
            916837.5,
            6501230.681669357
          ],
          [
            916812.5,
            6501214.774131029
          ],
          [
            916808.8875603065,
            6501212.5
          ],
          [
            916787.5,
            6501199.113890363
          ],
          [
            916769.3353842618,
            6501187.5
          ],
          [
            916762.5000000001,
            6501182.853437496
          ],
          [
            916737.5,
            6501163.900824174
          ]
        ]
      }
    },
    {
      "type": "Feature",
      "properties": {
        "method": "transverse height maximum"
      },
      "geometry": {
        "type": "LineString",
        "coordinates": [
          [
            917267.6832585771,
            6501537.5
          ],
          [
            917262.5,
            6501529.034845052
          ],
          [
            917255.5132603841,
            6501512.5
          ],
          [
            917237.5,
            6501496.423564219
          ],
          [
            917227.0149808562,
            6501487.5
          ],
          [
            917212.5,
            6501476.385756125
          ],
          [
            917190.6504715326,
            6501462.5
          ],
          [
            917187.5,
            6501460.41558881
          ],
          [
            917162.5,
            6501447.935007057
          ],
          [
            917137.5,
            6501438.445336953
          ],
          [
            917134.4395800343,
            6501437.5
          ],
          [
            917112.5,
            6501429.433761112
          ],
          [
            917087.5,
            6501419.916727161
          ],
          [
            917067.6647367371,
            6501412.5
          ],
          [
            917062.5,
            6501410.247825765
          ],
          [
            917037.5,
            6501400.945094378
          ],
          [
            917012.5,
            6501392.557216275
          ],
          [
            916999.5719611668,
            6501387.5
          ]
        ]
      }
    },
    {
      "type": "Feature",
      "properties": {
        "method": "transverse height maximum"
      },
      "geometry": {
        "type": "LineString",
        "coordinates": [
          [
            917114.3227802253,
            6501912.5
          ],
          [
            917112.5,
            6501906.2541991165
          ],
          [
            917100.8503638122,
            6501887.5
          ],
          [
            917087.5,
            6501883.6291388925
          ],
          [
            917062.4999999999,
            6501878.535179651
          ],
          [
            917037.5,
            6501875.044176886
          ],
          [
            917012.5,
            6501872.711293917
          ],
          [
            916987.5,
            6501871.755991143
          ],
          [
            916962.5,
            6501872.533049079
          ],
          [
            916937.5,
            6501874.887805926
          ],
          [
            916912.5000000001,
            6501877.872231114
          ],
          [
            916887.5000000001,
            6501880.333759834
          ],
          [
            916862.5,
            6501881.77806275
          ],
          [
            916837.5,
            6501882.348800921
          ],
          [
            916812.5000000001,
            6501882.334967619
          ],
          [
            916787.5,
            6501881.984289035
          ],
          [
            916762.5,
            6501881.448278327
          ]
        ]
      }
    },
    {
      "type": "Feature",
      "properties": {
        "method": "transverse height maximum"
      },
      "geometry": {
        "type": "LineString",
        "coordinates": [
          [
            915087.5,
            6502133.481512044
          ],
          [
            915072.5387947329,
            6502112.5
          ],
          [
            915062.5,
            6502097.955582293
          ],
          [
            915054.0190569637,
            6502087.5
          ],
          [
            915037.5,
            6502067.078195688
          ],
          [
            915031.8747181592,
            6502062.5
          ],
          [
            915012.5,
            6502047.518951659
          ],
          [
            915000.0,
            6502043.438316455
          ]
        ]
      }
    },
    {
      "type": "Feature",
      "properties": {
        "method": "transverse height maximum"
      },
      "geometry": {
        "type": "LineString",
        "coordinates": [
          [
            917400.3179617544,
            6502137.5
          ],
          [
            917387.5000000001,
            6502128.972769513
          ],
          [
            917366.2976451903,
            6502112.5
          ],
          [
            917362.5,
            6502109.7461130945
          ],
          [
            917337.5,
            6502090.60630191
          ],
          [
            917332.7178744604,
            6502087.5
          ],
          [
            917312.5,
            6502076.066967864
          ],
          [
            917287.5,
            6502067.432452697
          ],
          [
            917264.6521730404,
            6502062.5
          ],
          [
            917262.5000000001,
            6502062.077240064
          ],
          [
            917237.5000000001,
            6502056.767921644
          ],
          [
            917212.5,
            6502050.904775694
          ],
          [
            917187.5,
            6502045.6994264545
          ]
        ]
      }
    },
    {
      "type": "Feature",
      "properties": {
        "method": "transverse height maximum"
      },
      "geometry": {
        "type": "LineString",
        "coordinates": [
          [
            915804.8311308377,
            6502537.5
          ],
          [
            915787.5,
            6502515.078814865
          ],
          [
            915783.2213006145,
            6502512.5
          ],
          [
            915762.5,
            6502503.326480862
          ],
          [
            915737.5,
            6502493.085035852
          ],
          [
            915724.612227167,
            6502487.5
          ],
          [
            915712.5,
            6502481.901275339
          ],
          [
            915687.5,
            6502469.86434128
          ],
          [
            915672.1649124883,
            6502462.5
          ],
          [
            915662.5,
            6502457.416009628
          ],
          [
            915637.5,
            6502445.097566287
          ],
          [
            915620.7148388848,
            6502437.5
          ],
          [
            915612.5000000001,
            6502433.253942536
          ],
          [
            915587.5,
            6502421.438799181
          ],
          [
            915566.6142503782,
            6502412.5
          ],
          [
            915562.5,
            6502410.447468623
          ],
          [
            915537.5,
            6502398.732048009
          ],
          [
            915512.5,
            6502388.088772335
          ],
          [
            915511.255168799,
            6502387.5
          ],
          [
            915487.5,
            6502376.29956133
          ],
          [
            915462.5,
            6502365.013614232
          ],
          [
            915457.6339651474,
            6502362.5
          ],
          [
            915437.5,
            6502352.257804512
          ],
          [
            915412.5,
            6502338.47548388
          ],
          [
            915410.8681154561,
            6502337.5
          ],
          [
            915387.5,
            6502323.823437795
          ],
          [
            915366.0241203594,
            6502312.5
          ],
          [
            915362.5,
            6502310.598009705
          ],
          [
            915337.5,
            6502298.638468439
          ],
          [
            915312.5,
            6502288.615081971
          ],
          [
            915309.5476698267,
            6502287.5
          ],
          [
            915287.5,
            6502278.3243148085
          ],
          [
            915262.5,
            6502268.449670827
          ],
          [
            915248.294407599,
            6502262.5
          ],
          [
            915237.4999999999,
            6502257.479543531
          ],
          [
            915212.5,
            6502244.99988365
          ],
          [
            915198.9630475504,
            6502237.5
          ],
          [
            915187.5,
            6502230.436069246
          ],
          [
            915162.5,
            6502213.655135407
          ],
          [
            915160.8847296162,
            6502212.5
          ]
        ]
      }
    },
    {
      "type": "Feature",
      "properties": {
        "method": "transverse height maximum"
      },
      "geometry": {
        "type": "LineString",
        "coordinates": [
          [
            915112.5,
            6502901.614766824
          ],
          [
            915087.5,
            6502894.253183376
          ],
          [
            915062.5,
            6502895.986293497
          ],
          [
            915037.5,
            6502903.696370581
          ],
          [
            915020.8836172813,
            6502912.5
          ],
          [
            915012.5,
            6502916.800631781
          ],
          [
            915000.0,
            6502923.475181988
          ]
        ]
      }
    },
    {
      "type": "Feature",
      "properties": {
        "method": "transverse height maximum"
      },
      "geometry": {
        "type": "LineString",
        "coordinates": [
          [
            917562.5,
            6504497.201485308
          ],
          [
            917537.5,
            6504499.501985268
          ],
          [
            917512.5,
            6504498.323888196
          ],
          [
            917487.5,
            6504494.7367902
          ],
          [
            917462.5,
            6504489.527758207
          ],
          [
            917453.7121197614,
            6504487.5
          ],
          [
            917437.5,
            6504483.750633173
          ],
          [
            917412.5,
            6504477.923741165
          ],
          [
            917387.5,
            6504471.543208197
          ],
          [
            917362.5,
            6504463.338566084
          ]
        ]
      }
    },
    {
      "type": "Feature",
      "properties": {
        "method": "transverse height maximum"
      },
      "geometry": {
        "type": "LineString",
        "coordinates": [
          [
            917913.6533484325,
            6504737.5
          ],
          [
            917912.5,
            6504736.384031049
          ],
          [
            917887.5,
            6504716.418146197
          ],
          [
            917880.6914983278,
            6504712.5
          ],
          [
            917862.5,
            6504702.879812664
          ],
          [
            917837.5,
            6504693.73178135
          ],
          [
            917813.6680277265,
            6504687.499999999
          ],
          [
            917812.5,
            6504687.16776221
          ],
          [
            917787.5,
            6504681.254309134
          ],
          [
            917762.5000000001,
            6504675.675123179
          ],
          [
            917737.5,
            6504668.938662703
          ],
          [
            917724.8493044727,
            6504662.5
          ],
          [
            917712.5,
            6504649.044675733
          ]
        ]
      }
    },
    {
      "type": "Feature",
      "properties": {
        "method": "transverse height maximum"
      },
      "geometry": {
        "type": "LineString",
        "coordinates": [
          [
            915512.5,
            6504749.66617272
          ],
          [
            915487.5,
            6504739.971829893
          ],
          [
            915482.7398589555,
            6504737.5
          ],
          [
            915462.5,
            6504726.705301184
          ],
          [
            915440.320806739,
            6504712.500000001
          ],
          [
            915437.5,
            6504710.555949114
          ],
          [
            915412.5,
            6504692.676982879
          ],
          [
            915404.2632169371,
            6504687.5
          ],
          [
            915387.5,
            6504677.820708341
          ],
          [
            915362.5,
            6504668.805624542
          ],
          [
            915337.5,
            6504666.364439741
          ],
          [
            915312.5,
            6504675.465752176
          ]
        ]
      }
    },
    {
      "type": "Feature",
      "properties": {
        "method": "transverse height maximum"
      },
      "geometry": {
        "type": "LineString",
        "coordinates": [
          [
            918337.5,
            6504812.377997347
          ],
          [
            918312.5000000001,
            6504802.088052078
          ],
          [
            918287.5,
            6504791.877201815
          ],
          [
            918276.3559670178,
            6504787.5
          ],
          [
            918262.5,
            6504781.401183514
          ],
          [
            918237.5,
            6504771.54636011
          ],
          [
            918212.5,
            6504763.678314871
          ],
          [
            918205.3018318205,
            6504762.5
          ],
          [
            918187.5,
            6504758.757617537
          ],
          [
            918162.5,
            6504759.624893547
          ],
          [
            918137.5,
            6504762.236421508
          ],
          [
            918116.288575849,
            6504762.5
          ],
          [
            918112.5,
            6504762.541477148
          ],
          [
            918111.7119669518,
            6504762.5
          ],
          [
            918087.5,
            6504761.090579778
          ],
          [
            918062.5,
            6504760.6946387645
          ]
        ]
      }
    },
    {
      "type": "Feature",
      "properties": {
        "method": "transverse height maximum"
      },
      "geometry": {
        "type": "LineString",
        "coordinates": [
          [
            917037.5,
            6504998.676537123
          ],
          [
            917062.5,
            6504998.721517703
          ],
          [
            917066.2957847592,
            6505000.0
          ]
        ]
      }
    }
  ],
  "provenance": {
    "source_url": "https://data.geopf.fr/wms-r/wms?SERVICE=WMS&VERSION=1.3.0&REQUEST=GetMap&LAYERS=ELEVATION.ELEVATIONGRIDCOVERAGE.HIGHRES&STYLES=normal&CRS=EPSG%3A2154&BBOX=914500.0%2C6499500.0%2C920500.0%2C6505500.0&WIDTH=240&HEIGHT=240&FORMAT=image%2Ftiff",
    "dataset_url": "https://www.data.gouv.fr/datasets/rge-alti-r",
    "layer": "ELEVATION.ELEVATIONGRIDCOVERAGE.HIGHRES",
    "attribution": "Crests derived from © IGN RGE ALTI · Licence Ouverte 2.0",
    "licence": "Licence Ouverte 2.0",
    "retrieved_utc": "2026-10-06T17:43:43.311060+00:00",
    "derived_utc": "2026-10-06T17:43:43.364739+00:00",
    "derivation_code_sha256": "fd8cc5fb145d8bd120ab0393208bb2cd7eed981b9b9d5f7f08d50835d79fd2f3",
    "response_bytes": 230534,
    "response_sha256": "7a3f2afc8c0bb1d96209b885e98c13fd23ca5c3763cb7e2be69ee79754f7b4f9",
    "terrain_file": "ign-terrain-183-1300.tif",
    "raster_bounds_epsg2154": [
      914500.0,
      6499500.0,
      920500.0,
      6505500.0
    ],
    "bounds_epsg2154": [
      915000.0,
      6500000.0,
      920000.0,
      6505000.0
    ],
    "parameters": {
      "grid_m": 25,
      "buffer_m": 500,
      "gaussian_sigma_m": 50,
      "minimum_transverse_curvature_per_m": 0.0003,
      "transverse_probe_m": 200,
      "minimum_drop_each_side_m": 5,
      "minimum_line_length_m": 200
    },
    "terrain_height_range_m": [
      373.2806396484375,
      1439.5093994140625
    ],
    "method": "Gaussian-smoothed DEM; zero derivative along most concave Hessian eigenvector; negative curvature, two-sided drop and length filters. No flight coordinates used.",
    "limitations": "Approximate, scale-dependent crests; not an official or exhaustive ridge network. Gaps remain at weak ridges, orientation transitions and junctions; no invented links."
  }
}
