{
  "type": "FeatureCollection",
  "crs": {
    "type": "name",
    "properties": {
      "name": "EPSG:2154"
    }
  },
  "features": [
    {
      "type": "Feature",
      "properties": {
        "method": "transverse height maximum"
      },
      "geometry": {
        "type": "LineString",
        "coordinates": [
          [
            983082.8320874915,
            6560000.0
          ],
          [
            983086.6012481191,
            6560012.5
          ],
          [
            983087.5,
            6560015.661480497
          ],
          [
            983093.8562979565,
            6560037.5
          ],
          [
            983100.7483270799,
            6560062.5
          ],
          [
            983108.3612332721,
            6560087.5
          ],
          [
            983112.5,
            6560099.3991485005
          ]
        ]
      }
    },
    {
      "type": "Feature",
      "properties": {
        "method": "transverse height maximum"
      },
      "geometry": {
        "type": "LineString",
        "coordinates": [
          [
            984672.5228832222,
            6562212.5
          ],
          [
            984687.5,
            6562234.464017105
          ],
          [
            984689.392807557,
            6562237.5
          ],
          [
            984696.5855882989,
            6562262.5
          ],
          [
            984698.7683221401,
            6562287.5
          ],
          [
            984699.1475018648,
            6562312.5
          ],
          [
            984699.555421166,
            6562337.5
          ],
          [
            984700.9412571648,
            6562362.5
          ],
          [
            984701.2340615456,
            6562387.5
          ],
          [
            984696.9906313487,
            6562412.5
          ],
          [
            984688.5558290522,
            6562437.5
          ],
          [
            984687.5,
            6562440.439007291
          ],
          [
            984677.358429998,
            6562462.5
          ],
          [
            984667.0984547621,
            6562487.5
          ],
          [
            984662.5000000001,
            6562502.352917231
          ],
          [
            984658.2435060822,
            6562512.499999999
          ],
          [
            984652.8486022076,
            6562537.5
          ],
          [
            984655.1628154586,
            6562562.5
          ],
          [
            984662.5,
            6562582.966517346
          ],
          [
            984664.1327138451,
            6562587.5
          ]
        ]
      }
    },
    {
      "type": "Feature",
      "properties": {
        "method": "transverse height maximum"
      },
      "geometry": {
        "type": "LineString",
        "coordinates": [
          [
            983351.1091933525,
            6562762.5
          ],
          [
            983338.3472452858,
            6562787.5
          ],
          [
            983360.4865463956,
            6562812.5
          ],
          [
            983362.5,
            6562814.490760344
          ],
          [
            983385.5030012955,
            6562837.5
          ],
          [
            983387.5,
            6562839.792130252
          ],
          [
            983408.6553518871,
            6562862.5
          ],
          [
            983412.5,
            6562867.774573052
          ],
          [
            983428.1032207427,
            6562887.5
          ],
          [
            983437.5,
            6562901.500835809
          ],
          [
            983446.3483183547,
            6562912.5
          ],
          [
            983462.5,
            6562931.583133822
          ],
          [
            983469.8461334014,
            6562937.5
          ],
          [
            983487.5,
            6562950.737761815
          ],
          [
            983503.7755430694,
            6562962.5
          ],
          [
            983512.5,
            6562973.1654461445
          ],
          [
            983519.4254761707,
            6562987.5
          ],
          [
            983526.8191907362,
            6563012.500000001
          ],
          [
            983533.0709032478,
            6563037.5
          ],
          [
            983537.5,
            6563052.568807442
          ],
          [
            983540.6689204455,
            6563062.5
          ],
          [
            983550.676314348,
            6563087.5
          ],
          [
            983562.3051965464,
            6563112.499999999
          ]
        ]
      }
    },
    {
      "type": "Feature",
      "properties": {
        "method": "transverse height maximum"
      },
      "geometry": {
        "type": "LineString",
        "coordinates": [
          [
            984254.1023076163,
            6562862.5
          ],
          [
            984237.5,
            6562875.824689668
          ],
          [
            984224.2346435147,
            6562887.5
          ],
          [
            984212.5,
            6562898.329257096
          ],
          [
            984199.9265848275,
            6562912.5
          ],
          [
            984187.5,
            6562927.204048348
          ],
          [
            984180.3896150038,
            6562937.5
          ],
          [
            984164.7388134503,
            6562962.5
          ],
          [
            984162.5,
            6562966.333382808
          ],
          [
            984151.7894390705,
            6562987.5
          ],
          [
            984140.733928463,
            6563012.5
          ],
          [
            984137.5,
            6563020.460979993
          ],
          [
            984130.7721024128,
            6563037.5
          ],
          [
            984121.8747759451,
            6563062.5
          ],
          [
            984113.4273461091,
            6563087.5
          ]
        ]
      }
    },
    {
      "type": "Feature",
      "properties": {
        "method": "transverse height maximum"
      },
      "geometry": {
        "type": "LineString",
        "coordinates": [
          [
            980762.5,
            6562893.820953888
          ],
          [
            980780.5912318417,
            6562912.5
          ],
          [
            980787.4999999999,
            6562920.856765349
          ],
          [
            980799.2848893392,
            6562937.5
          ],
          [
            980812.5,
            6562957.293811093
          ],
          [
            980815.9075028236,
            6562962.5
          ],
          [
            980834.2379908934,
            6562987.5
          ],
          [
            980837.5,
            6562991.21960777
          ],
          [
            980857.3249679577,
            6563012.5
          ],
          [
            980862.5,
            6563017.318693095
          ],
          [
            980884.9525140763,
            6563037.5
          ],
          [
            980887.5,
            6563039.781854555
          ],
          [
            980912.5,
            6563061.027626523
          ],
          [
            980914.5586021062,
            6563062.5
          ],
          [
            980937.5,
            6563082.367905357
          ],
          [
            980944.0737401651,
            6563087.5
          ],
          [
            980962.5,
            6563109.579532824
          ],
          [
            980964.5488198723,
            6563112.5
          ],
          [
            980976.7384625904,
            6563137.5
          ],
          [
            980985.509320368,
            6563162.5
          ],
          [
            980987.5,
            6563167.540831969
          ],
          [
            980995.5685682734,
            6563187.5
          ]
        ]
      }
    },
    {
      "type": "Feature",
      "properties": {
        "method": "transverse height maximum"
      },
      "geometry": {
        "type": "LineString",
        "coordinates": [
          [
            980187.5,
            6563035.75228415
          ],
          [
            980190.6005374788,
            6563037.5
          ],
          [
            980212.5,
            6563050.941292202
          ],
          [
            980221.228044226,
            6563062.5
          ],
          [
            980237.5,
            6563083.354109032
          ],
          [
            980240.9207657129,
            6563087.5
          ],
          [
            980261.6432103715,
            6563112.5
          ],
          [
            980262.5,
            6563113.779853071
          ],
          [
            980280.3820610056,
            6563137.500000001
          ],
          [
            980287.5,
            6563151.522558115
          ],
          [
            980293.6968354965,
            6563162.5
          ],
          [
            980300.7657627051,
            6563187.500000001
          ],
          [
            980301.8750316382,
            6563212.499999999
          ],
          [
            980299.8974257482,
            6563237.5
          ],
          [
            980300.1398329583,
            6563262.5
          ],
          [
            980305.8130797462,
            6563287.5
          ],
          [
            980312.5,
            6563306.055707447
          ],
          [
            980314.8381539697,
            6563312.5
          ],
          [
            980323.5332409611,
            6563337.5
          ],
          [
            980329.4672885184,
            6563362.5
          ],
          [
            980333.5240537578,
            6563387.5
          ],
          [
            980336.6614876769,
            6563412.499999999
          ],
          [
            980337.5,
            6563419.206084763
          ],
          [
            980339.8949984703,
            6563437.5
          ],
          [
            980344.2740035957,
            6563462.5
          ],
          [
            980349.6976068704,
            6563487.5
          ],
          [
            980354.5662975002,
            6563512.5
          ],
          [
            980357.2513335466,
            6563537.5
          ],
          [
            980357.5415630279,
            6563562.5
          ],
          [
            980356.2727214235,
            6563587.5
          ],
          [
            980356.9868166443,
            6563612.5
          ]
        ]
      }
    },
    {
      "type": "Feature",
      "properties": {
        "method": "transverse height maximum"
      },
      "geometry": {
        "type": "LineString",
        "coordinates": [
          [
            983787.5,
            6563474.992530807
          ],
          [
            983777.6555090675,
            6563487.5
          ],
          [
            983762.5,
            6563508.63399212
          ],
          [
            983760.0308251072,
            6563512.5
          ],
          [
            983745.4751561586,
            6563537.5
          ],
          [
            983737.5000000001,
            6563552.3506173
          ],
          [
            983732.2418419633,
            6563562.5
          ],
          [
            983720.6645655044,
            6563587.5
          ],
          [
            983712.5,
            6563606.561499456
          ],
          [
            983709.9367024229,
            6563612.500000001
          ],
          [
            983699.5880874372,
            6563637.5
          ],
          [
            983688.531007895,
            6563662.5
          ],
          [
            983687.5,
            6563664.641612459
          ],
          [
            983675.6464647215,
            6563687.5
          ]
        ]
      }
    },
    {
      "type": "Feature",
      "properties": {
        "method": "transverse height maximum"
      },
      "geometry": {
        "type": "LineString",
        "coordinates": [
          [
            980462.5,
            6563694.093706564
          ],
          [
            980437.5,
            6563696.490871562
          ],
          [
            980420.0191755223,
            6563712.5
          ],
          [
            980413.7928579603,
            6563737.5
          ],
          [
            980412.5,
            6563743.290181833
          ],
          [
            980408.018334927,
            6563762.5
          ],
          [
            980401.4551540075,
            6563787.5
          ],
          [
            980394.0597875643,
            6563812.5
          ],
          [
            980387.4999999999,
            6563832.937502669
          ],
          [
            980386.2450094351,
            6563837.500000001
          ],
          [
            980379.2700496083,
            6563862.5
          ],
          [
            980372.0080933704,
            6563887.5
          ],
          [
            980365.795638227,
            6563912.5
          ],
          [
            980362.953507827,
            6563937.5
          ],
          [
            980363.2062075125,
            6563962.5
          ],
          [
            980362.5,
            6563978.591572375
          ]
        ]
      }
    },
    {
      "type": "Feature",
      "properties": {
        "method": "transverse height maximum"
      },
      "geometry": {
        "type": "LineString",
        "coordinates": [
          [
            983112.5,
            6563873.308053085
          ],
          [
            983110.1774007103,
            6563887.5
          ],
          [
            983105.4527884193,
            6563912.5
          ],
          [
            983098.9435151522,
            6563937.5
          ],
          [
            983090.3500785447,
            6563962.5
          ],
          [
            983087.5,
            6563969.309650021
          ],
          [
            983080.5868344944,
            6563987.5
          ],
          [
            983068.6489122767,
            6564012.5
          ],
          [
            983062.5,
            6564022.292673702
          ],
          [
            983052.9183165969,
            6564037.5
          ],
          [
            983037.5,
            6564054.919792784
          ],
          [
            983030.6535022992,
            6564062.5
          ],
          [
            983012.5,
            6564079.226372676
          ],
          [
            983004.0889259874,
            6564087.5
          ],
          [
            982987.5,
            6564105.016484414
          ],
          [
            982980.2149050214,
            6564112.5
          ],
          [
            982962.5000000001,
            6564131.082682567
          ]
        ]
      }
    },
    {
      "type": "Feature",
      "properties": {
        "method": "transverse height maximum"
      },
      "geometry": {
        "type": "LineString",
        "coordinates": [
          [
            983487.5,
            6563879.220658095
          ],
          [
            983494.0368273875,
            6563887.5
          ],
          [
            983512.5,
            6563897.619224041
          ],
          [
            983523.2813098286,
            6563912.5
          ],
          [
            983535.7505730474,
            6563937.5
          ],
          [
            983537.5,
            6563945.57581593
          ],
          [
            983540.8122901228,
            6563962.5
          ],
          [
            983542.3653429685,
            6563987.5
          ],
          [
            983542.5129247395,
            6564012.5
          ],
          [
            983541.4678569459,
            6564037.5
          ],
          [
            983538.1144509332,
            6564062.5
          ],
          [
            983537.5,
            6564064.949816494
          ],
          [
            983531.9466853745,
            6564087.5
          ],
          [
            983524.675959879,
            6564112.5
          ],
          [
            983519.053961315,
            6564137.5
          ],
          [
            983516.1660434502,
            6564162.5
          ],
          [
            983516.5553650337,
            6564187.5
          ],
          [
            983537.5,
            6564210.322975508
          ],
          [
            983557.8806814704,
            6564212.5
          ]
        ]
      }
    },
    {
      "type": "Feature",
      "properties": {
        "method": "transverse height maximum"
      },
      "geometry": {
        "type": "LineString",
        "coordinates": [
          [
            980137.5,
            6564101.994554811
          ],
          [
            980143.6604825495,
            6564112.5
          ],
          [
            980162.5,
            6564133.734913842
          ],
          [
            980165.4641098217,
            6564137.5
          ],
          [
            980185.9970855213,
            6564162.499999999
          ],
          [
            980187.4999999999,
            6564164.841756305
          ],
          [
            980199.0939156886,
            6564187.5
          ],
          [
            980206.271767903,
            6564212.5
          ],
          [
            980211.3259579871,
            6564237.5
          ],
          [
            980212.5000000001,
            6564243.565086454
          ],
          [
            980216.318226558,
            6564262.5
          ],
          [
            980221.845936612,
            6564287.5
          ],
          [
            980228.1861208839,
            6564312.5
          ],
          [
            980235.3636368889,
            6564337.5
          ],
          [
            980237.5,
            6564344.205020531
          ],
          [
            980243.6714336489,
            6564362.5
          ],
          [
            980251.4956518472,
            6564387.5
          ],
          [
            980258.191754121,
            6564412.5
          ],
          [
            980262.5,
            6564432.105893036
          ],
          [
            980263.8406532067,
            6564437.5
          ],
          [
            980268.7845260316,
            6564462.5
          ],
          [
            980272.7519041955,
            6564487.5
          ],
          [
            980276.8919257273,
            6564512.5
          ],
          [
            980283.1787658365,
            6564537.5
          ],
          [
            980287.5,
            6564548.045647
          ],
          [
            980297.2903680777,
            6564562.5
          ],
          [
            980312.5,
            6564581.064821056
          ],
          [
            980326.288653221,
            6564587.5
          ],
          [
            980337.5,
            6564595.711953334
          ]
        ]
      }
    },
    {
      "type": "Feature",
      "properties": {
        "method": "transverse height maximum"
      },
      "geometry": {
        "type": "LineString",
        "coordinates": [
          [
            981662.5,
            6564253.868825272
          ],
          [
            981659.0804818816,
            6564262.5
          ],
          [
            981652.8085144265,
            6564287.5
          ],
          [
            981647.5060704648,
            6564312.5
          ],
          [
            981642.4797042169,
            6564337.5
          ],
          [
            981637.8299695036,
            6564362.5
          ],
          [
            981637.5,
            6564364.6247770395
          ],
          [
            981634.5291070353,
            6564387.5
          ],
          [
            981631.6882188034,
            6564412.5
          ],
          [
            981628.4239904769,
            6564437.5
          ],
          [
            981622.7403756791,
            6564462.5
          ],
          [
            981612.5,
            6564487.344050602
          ],
          [
            981612.3128070768,
            6564487.500000001
          ],
          [
            981601.7018481154,
            6564512.5
          ],
          [
            981612.3860402013,
            6564537.5
          ],
          [
            981612.5,
            6564537.657344462
          ],
          [
            981623.4627273881,
            6564562.5
          ],
          [
            981635.2837129487,
            6564587.5
          ],
          [
            981637.5,
            6564592.536340095
          ]
        ]
      }
    },
    {
      "type": "Feature",
      "properties": {
        "method": "transverse height maximum"
      },
      "geometry": {
        "type": "LineString",
        "coordinates": [
          [
            981637.5,
            6564647.446024756
          ],
          [
            981618.8557264806,
            6564662.5
          ],
          [
            981612.5,
            6564668.876962324
          ],
          [
            981593.6325033958,
            6564687.5
          ],
          [
            981587.5,
            6564694.987776091
          ],
          [
            981572.0920454378,
            6564712.5
          ],
          [
            981562.5,
            6564725.596336955
          ],
          [
            981553.125069254,
            6564737.5
          ],
          [
            981537.5,
            6564758.992004882
          ],
          [
            981534.7020361351,
            6564762.5
          ],
          [
            981515.1388082915,
            6564787.5
          ],
          [
            981512.5,
            6564790.927621178
          ],
          [
            981493.901063154,
            6564812.5
          ],
          [
            981487.5,
            6564820.018479859
          ],
          [
            981471.2788168426,
            6564837.5
          ],
          [
            981462.5,
            6564847.635565672
          ],
          [
            981451.0511270076,
            6564862.499999999
          ],
          [
            981441.3728598884,
            6564887.5
          ],
          [
            981442.1839344666,
            6564912.5
          ],
          [
            981446.4071301705,
            6564937.5
          ],
          [
            981454.4007083508,
            6564962.500000001
          ],
          [
            981462.5,
            6564976.721206899
          ],
          [
            981471.1414096119,
            6564987.5
          ],
          [
            981482.8347034551,
            6565000.0
          ]
        ]
      }
    },
    {
      "type": "Feature",
      "properties": {
        "method": "transverse height maximum"
      },
      "geometry": {
        "type": "LineString",
        "coordinates": [
          [
            984237.5,
            6564648.719174426
          ],
          [
            984226.2669018654,
            6564662.500000001
          ],
          [
            984212.5,
            6564684.332609439
          ],
          [
            984210.7368847119,
            6564687.5
          ],
          [
            984195.8579970046,
            6564712.5
          ],
          [
            984187.5,
            6564726.115079244
          ],
          [
            984180.3195712642,
            6564737.5
          ],
          [
            984165.201631273,
            6564762.5
          ],
          [
            984162.5,
            6564767.175212698
          ],
          [
            984151.1190471423,
            6564787.5
          ],
          [
            984138.3701878707,
            6564812.5
          ],
          [
            984137.5,
            6564814.510784912
          ],
          [
            984125.4228381936,
            6564837.5
          ],
          [
            984112.5,
            6564855.880122415
          ]
        ]
      }
    },
    {
      "type": "Feature",
      "properties": {
        "method": "transverse height maximum"
      },
      "geometry": {
        "type": "LineString",
        "coordinates": [
          [
            980899.7015044972,
            6564862.5
          ],
          [
            980897.9583356737,
            6564887.5
          ],
          [
            980895.8047789448,
            6564912.5
          ],
          [
            980892.933092499,
            6564937.5
          ],
          [
            980889.206365905,
            6564962.5
          ],
          [
            980887.5,
            6564971.913823559
          ],
          [
            980885.0068531154,
            6564987.499999999
          ],
          [
            980882.7823209497,
            6565000.0
          ]
        ]
      }
    },
    {
      "type": "Feature",
      "properties": {
        "method": "transverse height maximum"
      },
      "geometry": {
        "type": "LineString",
        "coordinates": [
          [
            984135.3026376984,
            6564887.5
          ],
          [
            984137.5,
            6564884.447586431
          ],
          [
            984139.725840006,
            6564887.5
          ],
          [
            984160.5292021517,
            6564912.5
          ],
          [
            984162.5,
            6564915.2328510815
          ],
          [
            984178.0430024068,
            6564937.5
          ],
          [
            984187.5,
            6564951.034503098
          ],
          [
            984195.7382224022,
            6564962.5
          ],
          [
            984212.5,
            6564985.723962735
          ],
          [
            984213.863028904,
            6564987.5
          ],
          [
            984222.9615494342,
            6565000.0
          ]
        ]
      }
    },
    {
      "type": "Feature",
      "properties": {
        "method": "transverse height maximum"
      },
      "geometry": {
        "type": "LineString",
        "coordinates": [
          [
            980358.9870519865,
            6564962.5
          ],
          [
            980350.4728495595,
            6564987.5
          ],
          [
            980344.669056729,
            6565000.0
          ]
        ]
      }
    },
    {
      "type": "Feature",
      "properties": {
        "method": "transverse height maximum"
      },
      "geometry": {
        "type": "LineString",
        "coordinates": [
          [
            984672.6923489816,
            6562612.5
          ],
          [
            984668.4457742377,
            6562637.5
          ],
          [
            984662.5,
            6562643.662887776
          ],
          [
            984647.7166377578,
            6562662.5
          ],
          [
            984637.5,
            6562670.038602639
          ],
          [
            984615.4967466994,
            6562687.5
          ],
          [
            984612.5,
            6562688.88795192
          ],
          [
            984587.5000000001,
            6562700.150966057
          ],
          [
            984562.5,
            6562709.021443306
          ],
          [
            984551.1808146803,
            6562712.5
          ],
          [
            984537.5,
            6562716.693142288
          ],
          [
            984512.5,
            6562723.035124915
          ],
          [
            984487.5,
            6562727.4081800375
          ],
          [
            984462.4999999999,
            6562732.086547182
          ],
          [
            984449.0139526019,
            6562737.5
          ],
          [
            984437.5,
            6562742.4377225805
          ],
          [
            984412.5,
            6562758.134086685
          ],
          [
            984406.146873835,
            6562762.5
          ],
          [
            984387.5,
            6562775.74626918
          ],
          [
            984369.7978032229,
            6562787.5
          ],
          [
            984362.5,
            6562792.300853735
          ],
          [
            984337.5000000001,
            6562807.356565516
          ],
          [
            984328.7966992249,
            6562812.5
          ],
          [
            984312.5,
            6562821.974264791
          ],
          [
            984288.0117818582,
            6562837.5
          ]
        ]
      }
    },
    {
      "type": "Feature",
      "properties": {
        "method": "transverse height maximum"
      },
      "geometry": {
        "type": "LineString",
        "coordinates": [
          [
            984469.5798231498,
            6563187.5
          ],
          [
            984474.818988164,
            6563212.5
          ],
          [
            984462.5,
            6563224.350595791
          ],
          [
            984450.759854081,
            6563237.5
          ],
          [
            984437.5,
            6563249.686236664
          ],
          [
            984424.2721741312,
            6563262.5
          ],
          [
            984412.5,
            6563273.982926337
          ],
          [
            984396.4109798839,
            6563287.5
          ],
          [
            984387.5,
            6563296.046538637
          ],
          [
            984374.1925921546,
            6563312.5
          ],
          [
            984363.8706166439,
            6563337.5
          ],
          [
            984363.2083014401,
            6563362.5
          ],
          [
            984377.8129984189,
            6563387.5
          ],
          [
            984387.4999999999,
            6563393.246051813
          ],
          [
            984412.5,
            6563411.563161128
          ],
          [
            984413.4012796154,
            6563412.5
          ],
          [
            984437.5,
            6563432.200387782
          ],
          [
            984443.6916501354,
            6563437.5
          ]
        ]
      }
    },
    {
      "type": "Feature",
      "properties": {
        "method": "transverse height maximum"
      },
      "geometry": {
        "type": "LineString",
        "coordinates": [
          [
            984279.7893509646,
            6563437.5
          ],
          [
            984262.5,
            6563419.286303961
          ],
          [
            984251.2710944583,
            6563412.5
          ],
          [
            984237.5,
            6563407.129205177
          ],
          [
            984212.5,
            6563400.172965238
          ],
          [
            984187.5,
            6563396.583368703
          ],
          [
            984162.5,
            6563399.136218932
          ],
          [
            984137.5000000001,
            6563407.986055579
          ],
          [
            984124.6373823355,
            6563412.5
          ],
          [
            984112.5,
            6563416.497313065
          ],
          [
            984087.5,
            6563419.937030848
          ],
          [
            984062.5,
            6563420.056838721
          ],
          [
            984037.5,
            6563419.103276225
          ],
          [
            984012.5,
            6563418.114777457
          ],
          [
            983987.5,
            6563417.149158334
          ],
          [
            983962.5,
            6563415.766371858
          ],
          [
            983937.5,
            6563413.248281411
          ],
          [
            983932.6434912898,
            6563412.5
          ],
          [
            983912.5,
            6563409.500340324
          ],
          [
            983887.5,
            6563407.4692557445
          ],
          [
            983869.2906081525,
            6563412.5
          ],
          [
            983862.5,
            6563414.690884696
          ],
          [
            983837.5,
            6563429.870258817
          ],
          [
            983827.6980710336,
            6563437.5
          ],
          [
            983812.5,
            6563449.674953037
          ]
        ]
      }
    },
    {
      "type": "Feature",
      "properties": {
        "method": "transverse height maximum"
      },
      "geometry": {
        "type": "LineString",
        "coordinates": [
          [
            981331.6781788828,
            6563462.5
          ],
          [
            981312.5000000001,
            6563457.690706235
          ],
          [
            981287.5,
            6563452.740285001
          ],
          [
            981262.5,
            6563446.930237993
          ],
          [
            981237.5,
            6563438.728689902
          ],
          [
            981234.5394318603,
            6563437.5
          ],
          [
            981212.5,
            6563427.168221875
          ],
          [
            981190.0183527711,
            6563412.499999999
          ],
          [
            981187.5,
            6563410.800142911
          ],
          [
            981162.8564805194,
            6563387.5
          ],
          [
            981162.5,
            6563387.01353587
          ],
          [
            981145.6207441062,
            6563362.5
          ]
        ]
      }
    },
    {
      "type": "Feature",
      "properties": {
        "method": "transverse height maximum"
      },
      "geometry": {
        "type": "LineString",
        "coordinates": [
          [
            983075.8365259811,
            6563837.5
          ],
          [
            983062.5,
            6563824.426031714
          ],
          [
            983040.2347047423,
            6563812.5
          ],
          [
            983037.5,
            6563811.06972047
          ],
          [
            983012.5,
            6563798.456328816
          ],
          [
            982991.9513585861,
            6563787.5
          ],
          [
            982987.5,
            6563785.487035261
          ],
          [
            982962.5,
            6563774.273538417
          ],
          [
            982937.5,
            6563763.257186174
          ],
          [
            982935.6291247683,
            6563762.5
          ],
          [
            982912.5,
            6563754.720019522
          ],
          [
            982887.5,
            6563746.631643503
          ],
          [
            982862.5,
            6563738.051318831
          ],
          [
            982860.8317364682,
            6563737.5
          ],
          [
            982837.5000000001,
            6563730.547435923
          ],
          [
            982812.5,
            6563722.873503927
          ],
          [
            982787.5,
            6563715.483032571
          ],
          [
            982774.5939530983,
            6563712.5
          ],
          [
            982762.5,
            6563710.013476332
          ],
          [
            982737.5,
            6563706.7958755195
          ],
          [
            982712.5,
            6563705.326273785
          ],
          [
            982687.5,
            6563705.514975371
          ],
          [
            982662.4999999999,
            6563707.548192537
          ],
          [
            982637.5000000001,
            6563712.1090978505
          ],
          [
            982636.3818327454,
            6563712.5
          ],
          [
            982612.5,
            6563722.869513807
          ]
        ]
      }
    },
    {
      "type": "Feature",
      "properties": {
        "method": "transverse height maximum"
      },
      "geometry": {
        "type": "LineString",
        "coordinates": [
          [
            983462.5,
            6563831.669539072
          ],
          [
            983437.5,
            6563821.732534568
          ],
          [
            983412.5,
            6563813.715035002
          ],
          [
            983407.555603027,
            6563812.5
          ],
          [
            983387.5,
            6563808.76044732
          ],
          [
            983362.5,
            6563805.912760717
          ],
          [
            983337.5,
            6563804.59641812
          ],
          [
            983312.5,
            6563804.660252034
          ],
          [
            983287.5,
            6563806.4672400765
          ],
          [
            983262.5,
            6563810.085225663
          ],
          [
            983250.3354805793,
            6563812.5
          ],
          [
            983237.5,
            6563815.313254683
          ],
          [
            983212.5,
            6563821.572737174
          ],
          [
            983187.5,
            6563827.991677065
          ],
          [
            983162.5,
            6563834.588364927
          ],
          [
            983152.7390257708,
            6563837.5
          ],
          [
            983137.5,
            6563843.541054138
          ]
        ]
      }
    },
    {
      "type": "Feature",
      "properties": {
        "method": "transverse height maximum"
      },
      "geometry": {
        "type": "LineString",
        "coordinates": [
          [
            980087.4999999999,
            6564083.013466913
          ],
          [
            980062.5,
            6564086.875354234
          ],
          [
            980037.5,
            6564082.614497634
          ],
          [
            980012.5,
            6564073.931795918
          ],
          [
            980000.0,
            6564067.943669996
          ]
        ]
      }
    },
    {
      "type": "Feature",
      "properties": {
        "method": "transverse height maximum"
      },
      "geometry": {
        "type": "LineString",
        "coordinates": [
          [
            982937.5000000001,
            6564153.352010165
          ],
          [
            982926.1279003423,
            6564162.5
          ],
          [
            982912.5,
            6564172.7283243025
          ],
          [
            982891.1722033559,
            6564187.5
          ],
          [
            982887.5,
            6564189.76216548
          ],
          [
            982862.5,
            6564205.039618195
          ],
          [
            982850.4147290633,
            6564212.5
          ],
          [
            982837.5,
            6564219.746984876
          ],
          [
            982812.5,
            6564234.169915232
          ],
          [
            982806.7976845822,
            6564237.5
          ],
          [
            982787.5,
            6564248.138746895
          ],
          [
            982762.5,
            6564261.273830908
          ],
          [
            982760.2235531494,
            6564262.5
          ],
          [
            982737.5,
            6564275.454074506
          ],
          [
            982719.2276241897,
            6564287.5
          ],
          [
            982712.5,
            6564292.689261378
          ],
          [
            982691.3565608633,
            6564312.5
          ],
          [
            982687.5,
            6564316.793375551
          ]
        ]
      }
    },
    {
      "type": "Feature",
      "properties": {
        "method": "transverse height maximum"
      },
      "geometry": {
        "type": "LineString",
        "coordinates": [
          [
            984612.5,
            6564436.563529657
          ],
          [
            984587.5,
            6564424.033978806
          ],
          [
            984562.5,
            6564420.213283589
          ],
          [
            984537.5,
            6564422.156927333
          ],
          [
            984512.5,
            6564427.252148678
          ],
          [
            984487.5000000001,
            6564434.658575826
          ],
          [
            984480.042438029,
            6564437.5
          ],
          [
            984462.5,
            6564444.175544592
          ],
          [
            984437.5,
            6564455.271506708
          ],
          [
            984423.2042988474,
            6564462.5
          ],
          [
            984412.5,
            6564468.037712709
          ]
        ]
      }
    },
    {
      "type": "Feature",
      "properties": {
        "method": "transverse height maximum"
      },
      "geometry": {
        "type": "LineString",
        "coordinates": [
          [
            980756.3159345468,
            6564462.5
          ],
          [
            980737.5,
            6564446.654434142
          ],
          [
            980724.3676064464,
            6564437.5
          ],
          [
            980712.5,
            6564432.753235469
          ],
          [
            980687.4999999999,
            6564427.597531585
          ],
          [
            980662.5,
            6564422.58956805
          ],
          [
            980637.5,
            6564416.293596049
          ],
          [
            980624.8008484668,
            6564412.5
          ],
          [
            980612.4999999999,
            6564408.5546167465
          ],
          [
            980587.5,
            6564399.866958982
          ],
          [
            980562.5,
            6564391.516015635
          ],
          [
            980548.1967252507,
            6564387.5
          ],
          [
            980537.5,
            6564384.204414523
          ],
          [
            980512.4999999999,
            6564378.330996165
          ],
          [
            980487.5,
            6564372.391371268
          ],
          [
            980462.5,
            6564365.077673248
          ],
          [
            980455.4667496015,
            6564362.5
          ],
          [
            980437.5,
            6564355.596297825
          ],
          [
            980412.5,
            6564341.640758643
          ],
          [
            980408.3045848507,
            6564337.5
          ],
          [
            980387.5,
            6564316.439743216
          ]
        ]
      }
    },
    {
      "type": "Feature",
      "properties": {
        "method": "transverse height maximum"
      },
      "geometry": {
        "type": "LineString",
        "coordinates": [
          [
            984087.5,
            6564547.523305533
          ],
          [
            984070.6356438559,
            6564537.5
          ],
          [
            984062.4999999999,
            6564532.311743144
          ],
          [
            984039.0759973739,
            6564512.5
          ],
          [
            984037.4999999999,
            6564511.260727224
          ],
          [
            984012.5,
            6564491.128784562
          ],
          [
            984008.0957556681,
            6564487.5
          ],
          [
            983987.5,
            6564470.823482036
          ],
          [
            983977.604208818,
            6564462.5
          ],
          [
            983962.5,
            6564450.144666786
          ],
          [
            983946.5146061949,
            6564437.5
          ],
          [
            983937.4999999999,
            6564430.745523462
          ],
          [
            983912.5,
            6564413.523503482
          ],
          [
            983910.9517889472,
            6564412.5
          ],
          [
            983887.5,
            6564398.928443762
          ],
          [
            983866.8506236228,
            6564387.5
          ],
          [
            983862.5,
            6564385.409326548
          ],
          [
            983837.5,
            6564374.011114839
          ],
          [
            983812.5,
            6564363.673825339
          ],
          [
            983807.6946492358,
            6564362.5
          ],
          [
            983787.5000000001,
            6564352.228157024
          ],
          [
            983774.315561789,
            6564337.5
          ]
        ]
      }
    }
  ],
  "provenance": {
    "source_url": "https://data.geopf.fr/wms-r/wms?SERVICE=WMS&VERSION=1.3.0&REQUEST=GetMap&LAYERS=ELEVATION.ELEVATIONGRIDCOVERAGE.HIGHRES&STYLES=normal&CRS=EPSG%3A2154&BBOX=979500.0%2C6559500.0%2C985500.0%2C6565500.0&WIDTH=240&HEIGHT=240&FORMAT=image%2Ftiff",
    "dataset_url": "https://www.data.gouv.fr/datasets/rge-alti-r",
    "layer": "ELEVATION.ELEVATIONGRIDCOVERAGE.HIGHRES",
    "attribution": "Crests derived from © IGN RGE ALTI · Licence Ouverte 2.0",
    "licence": "Licence Ouverte 2.0",
    "retrieved_utc": "2026-09-22T15:24:20.816817+00:00",
    "derived_utc": "2026-09-22T15:29:06.414812+00:00",
    "derivation_code_sha256": "097f79508273c65e26912088bd99b8e73fa7f20c2eed2ff01fec7fabbd3821be",
    "response_bytes": 230534,
    "response_sha256": "8ddea2595fef26ae7d9a490fd360049ac707e83a5703b136305e158a263962a4",
    "terrain_file": "ign-terrain-196-1312.tif",
    "raster_bounds_epsg2154": [
      979500.0,
      6559500.0,
      985500.0,
      6565500.0
    ],
    "bounds_epsg2154": [
      980000.0,
      6560000.0,
      985000.0,
      6565000.0
    ],
    "parameters": {
      "grid_m": 25,
      "buffer_m": 500,
      "gaussian_sigma_m": 50,
      "minimum_transverse_curvature_per_m": 0.0003,
      "transverse_probe_m": 200,
      "minimum_drop_each_side_m": 5,
      "minimum_line_length_m": 200
    },
    "terrain_height_range_m": [
      631.4775390625,
      1671.208984375
    ],
    "method": "Gaussian-smoothed DEM; zero derivative along most concave Hessian eigenvector; negative curvature, two-sided drop and length filters. No flight coordinates used.",
    "limitations": "Approximate, scale-dependent crests; not an official or exhaustive ridge network. Gaps remain at weak ridges, orientation transitions and junctions; no invented links."
  }
}
