{
  "type": "FeatureCollection",
  "features": [
    {
      "type": "Feature",
      "id": "detail_orographique.26661",
      "geometry": {
        "type": "Point",
        "coordinates": [
          574962.4000947,
          6379488.20475341
        ]
      },
      "geometry_name": "geometrie",
      "properties": {
        "cleabs": "PAIOROGR0000000015022232",
        "nature": "Sommet",
        "nature_detaillee": null,
        "toponyme": "Pech de Martane",
        "statut_du_toponyme": "Validé",
        "importance": "4",
        "date_creation": "2006-08-31T12:30:23.246Z",
        "date_modification": "2019-09-20T16:10:23.317Z",
        "date_d_apparition": null,
        "date_de_confirmation": null,
        "sources": null,
        "identifiants_sources": null,
        "methode_d_acquisition_planimetrique": "BDNyme",
        "precision_planimetrique": 30,
        "insee_commune": "46042",
        "identifiant_voie_ban": null,
        "id_ban_odonyme": null
      }
    },
    {
      "type": "Feature",
      "id": "detail_orographique.26711",
      "geometry": {
        "type": "Point",
        "coordinates": [
          573981.80009541,
          6377735.10475328
        ]
      },
      "geometry_name": "geometrie",
      "properties": {
        "cleabs": "PAIOROGR0000000015022283",
        "nature": "Sommet",
        "nature_detaillee": null,
        "toponyme": "Pech de Miramont",
        "statut_du_toponyme": "Validé",
        "importance": "5",
        "date_creation": "2006-08-31T12:30:23.246Z",
        "date_modification": "2019-09-20T16:10:23.317Z",
        "date_d_apparition": null,
        "date_de_confirmation": null,
        "sources": null,
        "identifiants_sources": "",
        "methode_d_acquisition_planimetrique": "BDNyme",
        "precision_planimetrique": 30,
        "insee_commune": "46042",
        "identifiant_voie_ban": null,
        "id_ban_odonyme": null
      }
    },
    {
      "type": "Feature",
      "id": "detail_orographique.26754",
      "geometry": {
        "type": "Point",
        "coordinates": [
          572838.20009625,
          6376217.20475316
        ]
      },
      "geometry_name": "geometrie",
      "properties": {
        "cleabs": "PAIOROGR0000000015022326",
        "nature": "Sommet",
        "nature_detaillee": null,
        "toponyme": "Pech de Poutary",
        "statut_du_toponyme": "Validé",
        "importance": "4",
        "date_creation": "2006-08-31T12:30:23.246Z",
        "date_modification": "2019-09-20T16:10:23.317Z",
        "date_d_apparition": null,
        "date_de_confirmation": null,
        "sources": null,
        "identifiants_sources": "",
        "methode_d_acquisition_planimetrique": "BDNyme",
        "precision_planimetrique": 30,
        "insee_commune": "46224",
        "identifiant_voie_ban": null,
        "id_ban_odonyme": null
      }
    },
    {
      "type": "Feature",
      "id": "detail_orographique.26784",
      "geometry": {
        "type": "Point",
        "coordinates": [
          571571.3000972,
          6375722.2047531
        ]
      },
      "geometry_name": "geometrie",
      "properties": {
        "cleabs": "PAIOROGR0000000015022356",
        "nature": "Sommet",
        "nature_detaillee": null,
        "toponyme": "Pech de Grosse",
        "statut_du_toponyme": "Validé",
        "importance": "4",
        "date_creation": "2006-08-31T12:30:23.246Z",
        "date_modification": "2019-09-20T16:10:23.317Z",
        "date_d_apparition": null,
        "date_de_confirmation": null,
        "sources": null,
        "identifiants_sources": null,
        "methode_d_acquisition_planimetrique": "BDNyme",
        "precision_planimetrique": 30,
        "insee_commune": "46224",
        "identifiant_voie_ban": null,
        "id_ban_odonyme": null
      }
    },
    {
      "type": "Feature",
      "id": "detail_orographique.26785",
      "geometry": {
        "type": "Point",
        "coordinates": [
          572433.50009655,
          6375364.40475309
        ]
      },
      "geometry_name": "geometrie",
      "properties": {
        "cleabs": "PAIOROGR0000000015022357",
        "nature": "Sommet",
        "nature_detaillee": null,
        "toponyme": "Pech de Liarmon",
        "statut_du_toponyme": "Validé",
        "importance": "4",
        "date_creation": "2006-08-31T12:30:23.246Z",
        "date_modification": "2019-09-20T16:10:23.317Z",
        "date_d_apparition": null,
        "date_de_confirmation": null,
        "sources": null,
        "identifiants_sources": null,
        "methode_d_acquisition_planimetrique": "BDNyme",
        "precision_planimetrique": 30,
        "insee_commune": "46224",
        "identifiant_voie_ban": null,
        "id_ban_odonyme": null
      }
    },
    {
      "type": "Feature",
      "id": "detail_orographique.26789",
      "geometry": {
        "type": "Point",
        "coordinates": [
          571097.90009756,
          6375379.50475307
        ]
      },
      "geometry_name": "geometrie",
      "properties": {
        "cleabs": "PAIOROGR0000000015022361",
        "nature": "Sommet",
        "nature_detaillee": null,
        "toponyme": "Cap de la Cévenne",
        "statut_du_toponyme": "Validé",
        "importance": "4",
        "date_creation": "2006-08-31T12:30:23.246Z",
        "date_modification": "2019-09-20T16:10:23.317Z",
        "date_d_apparition": null,
        "date_de_confirmation": null,
        "sources": null,
        "identifiants_sources": null,
        "methode_d_acquisition_planimetrique": "BDNyme",
        "precision_planimetrique": 30,
        "insee_commune": "46224",
        "identifiant_voie_ban": null,
        "id_ban_odonyme": null
      }
    },
    {
      "type": "Feature",
      "id": "detail_orographique.26794",
      "geometry": {
        "type": "Point",
        "coordinates": [
          570143.60009828,
          6375252.90475305
        ]
      },
      "geometry_name": "geometrie",
      "properties": {
        "cleabs": "PAIOROGR0000000015022366",
        "nature": "Sommet",
        "nature_detaillee": null,
        "toponyme": "le Pic",
        "statut_du_toponyme": "Validé",
        "importance": "4",
        "date_creation": "2006-08-31T12:30:23.246Z",
        "date_modification": "2019-09-20T16:10:23.317Z",
        "date_d_apparition": null,
        "date_de_confirmation": null,
        "sources": null,
        "identifiants_sources": "",
        "methode_d_acquisition_planimetrique": "BDNyme",
        "precision_planimetrique": 30,
        "insee_commune": "46088",
        "identifiant_voie_ban": null,
        "id_ban_odonyme": null
      }
    }
  ],
  "totalFeatures": 7,
  "numberMatched": 7,
  "numberReturned": 7,
  "timeStamp": "2026-10-06T17:43:44.185Z",
  "crs": {
    "type": "name",
    "properties": {
      "name": "urn:ogc:def:crs:EPSG::2154"
    }
  },
  "provenance": {
    "source_url": "https://data.geopf.fr/wfs/ows?SERVICE=WFS&VERSION=2.0.0&REQUEST=GetFeature&TYPENAMES=BDTOPO_V3%3Adetail_orographique&SRSNAME=EPSG%3A2154&CQL_FILTER=BBOX%28geometrie%2C570000%2C6.375e%2B06%2C575000%2C6.38e%2B06%2C%27EPSG%3A2154%27%29+AND+nature+IN+%28%27Sommet%27%2C%27Pic%27%29&OUTPUTFORMAT=application%2Fjson&COUNT=1000",
    "dataset_url": "https://www.data.gouv.fr/datasets/bd-topo-r",
    "layer": "BDTOPO_V3:detail_orographique",
    "attribution": "Summits: © IGN · BD TOPO · Licence Ouverte 2.0",
    "licence": "Licence Ouverte 2.0",
    "retrieved_utc": "2026-10-06T17:43:44.172212+00:00",
    "response_sha256": "89d8a3f8dc8db2fecf54ed455a78a459d64333c2129f24eac84284b23548bd82",
    "response_bytes": 4834,
    "response_feature_count": 7,
    "bounds_epsg2154": [
      570000.0,
      6375000.0,
      575000.0,
      6380000.0
    ],
    "selection": "Sommet/Pic only; exact Lambert-93 cell bounds.",
    "note": "Named summits; not a complete ridge network or DEM maxima."
  }
}
