{
  "type": "FeatureCollection",
  "features": [
    {
      "type": "Feature",
      "id": "detail_orographique.10819",
      "geometry": {
        "type": "Point",
        "coordinates": [
          929781.99982321,
          6479924.30475136
        ]
      },
      "geometry_name": "geometrie",
      "properties": {
        "cleabs": "PAIOROGR0000000007454020",
        "nature": "Sommet",
        "nature_detaillee": null,
        "toponyme": "le Châtelard",
        "statut_du_toponyme": "Validé",
        "importance": "5",
        "date_creation": "2006-07-11T13:39:39.862Z",
        "date_modification": "2019-09-20T16:10:23.317Z",
        "date_d_apparition": null,
        "date_de_confirmation": null,
        "sources": null,
        "identifiants_sources": "",
        "methode_d_acquisition_planimetrique": "BDNyme",
        "precision_planimetrique": 30,
        "insee_commune": "38418",
        "identifiant_voie_ban": null,
        "id_ban_odonyme": null
      }
    },
    {
      "type": "Feature",
      "id": "detail_orographique.10870",
      "geometry": {
        "type": "Point",
        "coordinates": [
          929589.3998234,
          6478373.90475146
        ]
      },
      "geometry_name": "geometrie",
      "properties": {
        "cleabs": "PAIOROGR0000000007454075",
        "nature": "Pic",
        "nature_detaillee": null,
        "toponyme": "Pierre Aiguille",
        "statut_du_toponyme": "Validé",
        "importance": "5",
        "date_creation": "2006-07-11T13:39:39.862Z",
        "date_modification": "2020-06-18T16:47:36.280Z",
        "date_d_apparition": null,
        "date_de_confirmation": null,
        "sources": null,
        "identifiants_sources": null,
        "methode_d_acquisition_planimetrique": "BDNyme",
        "precision_planimetrique": 30,
        "insee_commune": "38511",
        "identifiant_voie_ban": null,
        "id_ban_odonyme": null
      }
    },
    {
      "type": "Feature",
      "id": "detail_orographique.10875",
      "geometry": {
        "type": "Point",
        "coordinates": [
          927271.29982519,
          6477981.90475154
        ]
      },
      "geometry_name": "geometrie",
      "properties": {
        "cleabs": "PAIOROGR0000000007454081",
        "nature": "Pic",
        "nature_detaillee": null,
        "toponyme": "l'Aiguillette",
        "statut_du_toponyme": "Validé",
        "importance": "5",
        "date_creation": "2006-07-11T13:39:39.862Z",
        "date_modification": "2019-09-20T16:10:23.317Z",
        "date_d_apparition": null,
        "date_de_confirmation": null,
        "sources": null,
        "identifiants_sources": "",
        "methode_d_acquisition_planimetrique": "BDNyme",
        "precision_planimetrique": 30,
        "insee_commune": "38395",
        "identifiant_voie_ban": null,
        "id_ban_odonyme": null
      }
    },
    {
      "type": "Feature",
      "id": "detail_orographique.10932",
      "geometry": {
        "type": "Point",
        "coordinates": [
          929877.49982324,
          6476100.00475158
        ]
      },
      "geometry_name": "geometrie",
      "properties": {
        "cleabs": "PAIOROGR0000000007454142",
        "nature": "Sommet",
        "nature_detaillee": null,
        "toponyme": "Crêt des Rivoires",
        "statut_du_toponyme": "Validé",
        "importance": "5",
        "date_creation": "2006-07-11T13:39:39.862Z",
        "date_modification": "2019-09-20T16:10:23.317Z",
        "date_d_apparition": null,
        "date_de_confirmation": null,
        "sources": null,
        "identifiants_sources": null,
        "methode_d_acquisition_planimetrique": "BDNyme",
        "precision_planimetrique": 30,
        "insee_commune": "38511",
        "identifiant_voie_ban": null,
        "id_ban_odonyme": null
      }
    },
    {
      "type": "Feature",
      "id": "detail_orographique.10937",
      "geometry": {
        "type": "Point",
        "coordinates": [
          925586.39982655,
          6475521.50475172
        ]
      },
      "geometry_name": "geometrie",
      "properties": {
        "cleabs": "PAIOROGR0000000007454147",
        "nature": "Sommet",
        "nature_detaillee": null,
        "toponyme": "Dôme de Bellefont",
        "statut_du_toponyme": "Validé",
        "importance": "5",
        "date_creation": "2006-07-11T13:39:39.862Z",
        "date_modification": "2019-09-20T16:10:23.317Z",
        "date_d_apparition": null,
        "date_de_confirmation": null,
        "sources": null,
        "identifiants_sources": null,
        "methode_d_acquisition_planimetrique": "BDNyme",
        "precision_planimetrique": 30,
        "insee_commune": "38395",
        "identifiant_voie_ban": null,
        "id_ban_odonyme": null
      }
    },
    {
      "type": "Feature",
      "id": "detail_orographique.10999",
      "geometry": {
        "type": "Point",
        "coordinates": [
          925364.29982674,
          6475018.80475175
        ]
      },
      "geometry_name": "geometrie",
      "properties": {
        "cleabs": "PAIOROGR0000000007454212",
        "nature": "Pic",
        "nature_detaillee": null,
        "toponyme": "Piton de Bellefont",
        "statut_du_toponyme": "Validé",
        "importance": "5",
        "date_creation": "2006-07-11T13:39:39.862Z",
        "date_modification": "2019-09-20T16:10:23.317Z",
        "date_d_apparition": null,
        "date_de_confirmation": null,
        "sources": null,
        "identifiants_sources": "",
        "methode_d_acquisition_planimetrique": "BDNyme",
        "precision_planimetrique": 30,
        "insee_commune": "38442",
        "identifiant_voie_ban": null,
        "id_ban_odonyme": null
      }
    }
  ],
  "totalFeatures": 6,
  "numberMatched": 6,
  "numberReturned": 6,
  "timeStamp": "2026-09-22T14:44:32.056Z",
  "crs": {
    "type": "name",
    "properties": {
      "name": "urn:ogc:def:crs:EPSG::2154"
    }
  },
  "provenance": {
    "source_url": "https://data.geopf.fr/wfs/ows?SERVICE=WFS&VERSION=2.0.0&REQUEST=GetFeature&TYPENAMES=BDTOPO_V3%3Adetail_orographique&SRSNAME=EPSG%3A2154&CQL_FILTER=BBOX%28geometrie%2C925000%2C6.475e%2B06%2C930000%2C6.48e%2B06%2C%27EPSG%3A2154%27%29+AND+nature+IN+%28%27Sommet%27%2C%27Pic%27%29&OUTPUTFORMAT=application%2Fjson&COUNT=1000",
    "dataset_url": "https://www.data.gouv.fr/datasets/bd-topo-r",
    "layer": "BDTOPO_V3:detail_orographique",
    "attribution": "Summits: © IGN · BD TOPO · Licence Ouverte 2.0",
    "licence": "Licence Ouverte 2.0",
    "retrieved_utc": "2026-09-22T14:44:32.542810+00:00",
    "response_sha256": "eaf2c6c819dfe65fcb1ba5eace35d36596b130a760b496ca936fd947213ef2f9",
    "response_bytes": 4175,
    "response_feature_count": 6,
    "bounds_epsg2154": [
      925000.0,
      6475000.0,
      930000.0,
      6480000.0
    ],
    "selection": "Sommet/Pic only; exact Lambert-93 cell bounds.",
    "note": "Named summits; not a complete ridge network or DEM maxima."
  }
}
