{
  "type": "FeatureCollection",
  "crs": {
    "type": "name",
    "properties": {
      "name": "EPSG:2154"
    }
  },
  "features": [
    {
      "type": "Feature",
      "properties": {
        "method": "transverse height maximum"
      },
      "geometry": {
        "type": "LineString",
        "coordinates": [
          [
            448554.4522108114,
            6870000.0
          ],
          [
            448562.5,
            6870009.73383175
          ],
          [
            448564.6616395038,
            6870012.5
          ],
          [
            448582.1043038315,
            6870037.5
          ],
          [
            448587.5,
            6870050.290200675
          ],
          [
            448592.40435420297,
            6870062.5
          ],
          [
            448599.8011489339,
            6870087.5
          ],
          [
            448610.528730606,
            6870112.5
          ],
          [
            448612.5,
            6870115.907470453
          ],
          [
            448625.17369013635,
            6870137.5
          ],
          [
            448637.5,
            6870153.264416078
          ],
          [
            448644.9031265143,
            6870162.5
          ],
          [
            448662.5,
            6870179.340425755
          ],
          [
            448670.98282316944,
            6870187.5
          ]
        ]
      }
    },
    {
      "type": "Feature",
      "properties": {
        "method": "transverse height maximum"
      },
      "geometry": {
        "type": "LineString",
        "coordinates": [
          [
            445388.0478075274,
            6870712.5
          ],
          [
            445402.68294937396,
            6870737.5
          ],
          [
            445412.5,
            6870754.608485188
          ],
          [
            445418.3302531952,
            6870762.5
          ],
          [
            445433.58388540836,
            6870787.5
          ],
          [
            445437.5,
            6870795.416257853
          ],
          [
            445446.2447528714,
            6870812.5
          ],
          [
            445456.2724882573,
            6870837.500000001
          ],
          [
            445462.5,
            6870855.833020598
          ],
          [
            445464.8218369862,
            6870862.5
          ],
          [
            445473.0922812896,
            6870887.5
          ],
          [
            445481.0477850237,
            6870912.5
          ]
        ]
      }
    },
    {
      "type": "Feature",
      "properties": {
        "method": "transverse height maximum"
      },
      "geometry": {
        "type": "LineString",
        "coordinates": [
          [
            449410.95322480175,
            6870837.5
          ],
          [
            449412.5,
            6870839.747440106
          ],
          [
            449429.40579024167,
            6870862.499999999
          ],
          [
            449437.5,
            6870878.264546053
          ],
          [
            449441.81600537105,
            6870887.5
          ],
          [
            449447.60668601864,
            6870912.5
          ],
          [
            449449.60239368706,
            6870937.5
          ],
          [
            449450.50179953716,
            6870962.5
          ],
          [
            449451.05934220465,
            6870987.5
          ],
          [
            449449.42903046944,
            6871012.5
          ],
          [
            449442.7819538302,
            6871037.5
          ],
          [
            449437.5,
            6871052.661661723
          ],
          [
            449431.60892387456,
            6871062.5
          ]
        ]
      }
    },
    {
      "type": "Feature",
      "properties": {
        "method": "transverse height maximum"
      },
      "geometry": {
        "type": "LineString",
        "coordinates": [
          [
            446122.472318709,
            6871212.5
          ],
          [
            446126.83372275584,
            6871237.5
          ],
          [
            446134.14254636905,
            6871262.5
          ],
          [
            446137.5,
            6871270.627052191
          ],
          [
            446142.91126272664,
            6871287.5
          ],
          [
            446156.4241517227,
            6871312.5
          ],
          [
            446162.5,
            6871320.75357583
          ],
          [
            446171.31423428253,
            6871337.5
          ],
          [
            446186.5938192566,
            6871362.5
          ],
          [
            446187.5,
            6871364.009975559
          ],
          [
            446199.15997617145,
            6871387.5
          ],
          [
            446212.5,
            6871412.466104405
          ],
          [
            446212.5170253792,
            6871412.5
          ],
          [
            446223.8008900918,
            6871437.5
          ],
          [
            446232.16768353735,
            6871462.5
          ],
          [
            446236.2550896144,
            6871487.5
          ],
          [
            446237.5,
            6871495.446054148
          ],
          [
            446239.34347003984,
            6871512.5
          ],
          [
            446244.94013753283,
            6871537.5
          ],
          [
            446254.00481048936,
            6871562.5
          ],
          [
            446262.5,
            6871581.1083877
          ],
          [
            446264.51312515914,
            6871587.5
          ],
          [
            446272.9160644788,
            6871612.5
          ],
          [
            446280.6179570099,
            6871637.5
          ],
          [
            446286.4924840533,
            6871662.500000001
          ],
          [
            446287.5,
            6871669.62359832
          ],
          [
            446289.1783996348,
            6871687.5
          ],
          [
            446289.94192773086,
            6871712.5
          ],
          [
            446288.7102302661,
            6871737.5
          ],
          [
            446287.5,
            6871748.504122764
          ],
          [
            446284.9178454931,
            6871762.499999999
          ],
          [
            446281.09210379526,
            6871787.5
          ],
          [
            446279.16625653923,
            6871812.5
          ],
          [
            446278.37157892884,
            6871837.500000001
          ],
          [
            446277.93008433044,
            6871862.499999999
          ],
          [
            446277.2682163468,
            6871887.5
          ],
          [
            446276.29868843674,
            6871912.5
          ],
          [
            446275.3557508526,
            6871937.5
          ],
          [
            446274.63670763193,
            6871962.5
          ],
          [
            446274.04526414187,
            6871987.5
          ],
          [
            446273.54445170023,
            6872012.5
          ],
          [
            446273.4324056363,
            6872037.5
          ],
          [
            446274.2980865699,
            6872062.5
          ],
          [
            446277.02711206855,
            6872087.5
          ],
          [
            446283.32001805276,
            6872112.499999999
          ],
          [
            446287.5,
            6872124.039638735
          ],
          [
            446290.488560652,
            6872137.5
          ],
          [
            446295.71140260284,
            6872162.5
          ]
        ]
      }
    },
    {
      "type": "Feature",
      "properties": {
        "method": "transverse height maximum"
      },
      "geometry": {
        "type": "LineString",
        "coordinates": [
          [
            447912.5,
            6872202.253196541
          ],
          [
            447926.81825237774,
            6872212.5
          ],
          [
            447937.5,
            6872221.400946085
          ],
          [
            447953.7427765708,
            6872237.5
          ],
          [
            447962.5,
            6872247.061398466
          ],
          [
            447976.8859634811,
            6872262.5
          ],
          [
            447987.5,
            6872275.81266433
          ],
          [
            447997.1717596807,
            6872287.5
          ],
          [
            448012.5,
            6872310.40267609
          ],
          [
            448013.8604756437,
            6872312.5
          ],
          [
            448024.4094390789,
            6872337.5
          ],
          [
            448027.35663096793,
            6872362.5
          ],
          [
            448022.80089565803,
            6872387.5
          ],
          [
            448018.40048756794,
            6872412.5
          ],
          [
            448025.0774375298,
            6872437.5
          ],
          [
            448037.5,
            6872460.326980394
          ],
          [
            448038.55439801246,
            6872462.5
          ],
          [
            448051.80951001414,
            6872487.5
          ],
          [
            448062.5,
            6872510.492815281
          ],
          [
            448063.5300140589,
            6872512.5
          ],
          [
            448078.12458882725,
            6872537.5
          ],
          [
            448087.5,
            6872548.700455838
          ]
        ]
      }
    },
    {
      "type": "Feature",
      "properties": {
        "method": "transverse height maximum"
      },
      "geometry": {
        "type": "LineString",
        "coordinates": [
          [
            447512.5,
            6872526.856541308
          ],
          [
            447528.6986716358,
            6872537.5
          ],
          [
            447537.5,
            6872544.291040426
          ],
          [
            447559.8873628747,
            6872562.5
          ],
          [
            447562.5,
            6872565.2443353105
          ],
          [
            447583.12281677726,
            6872587.5
          ],
          [
            447587.49999999994,
            6872594.240496944
          ],
          [
            447599.9654674701,
            6872612.5
          ],
          [
            447611.98027452664,
            6872637.5
          ],
          [
            447612.5,
            6872638.740201522
          ],
          [
            447625.1649375704,
            6872662.5
          ],
          [
            447635.8854855607,
            6872687.5
          ],
          [
            447637.5,
            6872692.149849535
          ],
          [
            447647.4602693403,
            6872712.5
          ],
          [
            447655.6176241032,
            6872737.5
          ],
          [
            447662.4013358462,
            6872762.5
          ],
          [
            447662.5,
            6872762.846539955
          ],
          [
            447673.5690856274,
            6872787.5
          ],
          [
            447682.62475934706,
            6872812.5
          ],
          [
            447685.86823986925,
            6872837.5
          ],
          [
            447680.97926099604,
            6872862.500000001
          ]
        ]
      }
    },
    {
      "type": "Feature",
      "properties": {
        "method": "transverse height maximum"
      },
      "geometry": {
        "type": "LineString",
        "coordinates": [
          [
            445000.0,
            6873148.46622005
          ],
          [
            445007.69804343744,
            6873162.5
          ],
          [
            445012.5,
            6873169.454741864
          ],
          [
            445024.2289314505,
            6873187.5
          ],
          [
            445037.5,
            6873205.498942841
          ],
          [
            445042.0916491754,
            6873212.5
          ],
          [
            445057.5328871526,
            6873237.5
          ],
          [
            445062.49999999994,
            6873247.386583894
          ],
          [
            445067.0611538046,
            6873262.5
          ],
          [
            445071.07774509524,
            6873287.5
          ],
          [
            445073.41688429564,
            6873312.5
          ],
          [
            445076.0807233568,
            6873337.5
          ],
          [
            445080.42635392677,
            6873362.5
          ],
          [
            445087.5,
            6873386.699131528
          ],
          [
            445087.6572691751,
            6873387.5
          ],
          [
            445094.4015036777,
            6873412.5
          ],
          [
            445104.9708382986,
            6873437.5
          ],
          [
            445112.5,
            6873450.178403196
          ],
          [
            445118.03091131913,
            6873462.5
          ],
          [
            445133.1510681252,
            6873487.499999999
          ],
          [
            445137.5,
            6873493.608386821
          ],
          [
            445148.79202713526,
            6873512.5
          ]
        ]
      }
    },
    {
      "type": "Feature",
      "properties": {
        "method": "transverse height maximum"
      },
      "geometry": {
        "type": "LineString",
        "coordinates": [
          [
            449909.3608697539,
            6872862.5
          ],
          [
            449912.5,
            6872864.837461278
          ],
          [
            449937.5,
            6872884.9024193585
          ],
          [
            449940.4484085755,
            6872887.5
          ],
          [
            449962.5,
            6872908.328171546
          ],
          [
            449966.2794474514,
            6872912.5
          ],
          [
            449985.6476543963,
            6872937.5
          ],
          [
            449987.49999999994,
            6872940.32917643
          ],
          [
            450000.0,
            6872960.13575064
          ]
        ]
      }
    },
    {
      "type": "Feature",
      "properties": {
        "method": "transverse height maximum"
      },
      "geometry": {
        "type": "LineString",
        "coordinates": [
          [
            449587.5,
            6873125.601335181
          ],
          [
            449577.11703512154,
            6873137.5
          ],
          [
            449562.5,
            6873158.492970517
          ],
          [
            449560.42348519125,
            6873162.5
          ],
          [
            449548.8565602123,
            6873187.5
          ],
          [
            449538.94547948544,
            6873212.5
          ],
          [
            449537.5,
            6873215.383239954
          ],
          [
            449527.03968339675,
            6873237.5
          ],
          [
            449512.55196150875,
            6873262.5
          ],
          [
            449512.5,
            6873262.56944247
          ],
          [
            449487.5,
            6873286.6565771885
          ],
          [
            449485.4309802617,
            6873287.5
          ],
          [
            449462.5,
            6873291.520472111
          ]
        ]
      }
    },
    {
      "type": "Feature",
      "properties": {
        "method": "transverse height maximum"
      },
      "geometry": {
        "type": "LineString",
        "coordinates": [
          [
            447666.192711151,
            6873237.5
          ],
          [
            447687.5,
            6873253.3358702455
          ],
          [
            447712.5,
            6873261.331157949
          ],
          [
            447714.96916716674,
            6873262.5
          ],
          [
            447735.8499759517,
            6873287.499999999
          ],
          [
            447737.5,
            6873291.823016765
          ],
          [
            447744.17254220904,
            6873312.5
          ],
          [
            447751.03796456376,
            6873337.499999999
          ],
          [
            447758.9631666375,
            6873362.5
          ],
          [
            447762.50000000006,
            6873371.445718424
          ],
          [
            447768.2062598868,
            6873387.5
          ],
          [
            447779.4774509627,
            6873412.5
          ],
          [
            447787.5,
            6873427.82482552
          ]
        ]
      }
    },
    {
      "type": "Feature",
      "properties": {
        "method": "transverse height maximum"
      },
      "geometry": {
        "type": "LineString",
        "coordinates": [
          [
            445072.21502980497,
            6873912.5
          ],
          [
            445062.5,
            6873918.533950843
          ],
          [
            445037.5,
            6873922.574953654
          ],
          [
            445012.5,
            6873929.975245182
          ],
          [
            445006.1093259863,
            6873937.5
          ],
          [
            445005.0865840748,
            6873962.5
          ],
          [
            445007.62255151104,
            6873987.500000001
          ],
          [
            445010.91857633897,
            6874012.5
          ],
          [
            445012.5,
            6874031.950252946
          ],
          [
            445013.02975150343,
            6874037.5
          ],
          [
            445012.5,
            6874045.770546809
          ],
          [
            445011.32581304223,
            6874062.5
          ],
          [
            445003.2813820959,
            6874087.5
          ],
          [
            445000.0,
            6874093.653984798
          ]
        ]
      }
    },
    {
      "type": "Feature",
      "properties": {
        "method": "transverse height maximum"
      },
      "geometry": {
        "type": "LineString",
        "coordinates": [
          [
            445024.6618857473,
            6874387.5
          ],
          [
            445022.7151890026,
            6874412.5
          ],
          [
            445029.4237064872,
            6874437.5
          ],
          [
            445036.65555531223,
            6874462.5
          ],
          [
            445037.50000000006,
            6874465.487585154
          ],
          [
            445044.16517702927,
            6874487.5
          ],
          [
            445052.14172079496,
            6874512.5
          ],
          [
            445060.8946241656,
            6874537.5
          ],
          [
            445062.50000000006,
            6874541.504055626
          ],
          [
            445072.41884769767,
            6874562.5
          ],
          [
            445084.66028538503,
            6874587.5
          ],
          [
            445087.5,
            6874593.046246717
          ],
          [
            445097.2558701601,
            6874612.5
          ],
          [
            445110.0437143247,
            6874637.5
          ],
          [
            445112.5,
            6874642.436852882
          ],
          [
            445125.1522523827,
            6874662.5
          ],
          [
            445137.5,
            6874680.476178639
          ]
        ]
      }
    },
    {
      "type": "Feature",
      "properties": {
        "method": "transverse height maximum"
      },
      "geometry": {
        "type": "LineString",
        "coordinates": [
          [
            449636.07245108346,
            6870137.500000001
          ],
          [
            449612.5,
            6870145.166629062
          ],
          [
            449587.5,
            6870147.871608519
          ],
          [
            449562.5,
            6870150.470098788
          ],
          [
            449537.5,
            6870153.049575979
          ],
          [
            449512.50000000006,
            6870155.729292297
          ],
          [
            449487.5,
            6870159.002765479
          ],
          [
            449467.67844027403,
            6870162.5
          ],
          [
            449462.5,
            6870163.954191804
          ],
          [
            449437.5,
            6870172.83634428
          ],
          [
            449412.5,
            6870182.00971514
          ],
          [
            449396.45934120874,
            6870187.5
          ],
          [
            449387.5,
            6870192.055962378
          ],
          [
            449362.5,
            6870202.250317105
          ],
          [
            449337.5,
            6870210.53593107
          ],
          [
            449331.1920182867,
            6870212.5
          ],
          [
            449312.5,
            6870219.139932335
          ],
          [
            449287.50000000006,
            6870226.057364096
          ],
          [
            449262.5,
            6870231.429228001
          ]
        ]
      }
    },
    {
      "type": "Feature",
      "properties": {
        "method": "transverse height maximum"
      },
      "geometry": {
        "type": "LineString",
        "coordinates": [
          [
            447312.5,
            6870216.631876757
          ],
          [
            447287.5,
            6870221.693071679
          ],
          [
            447262.5,
            6870219.215949855
          ],
          [
            447237.5,
            6870214.445714067
          ],
          [
            447229.18542952556,
            6870212.5
          ],
          [
            447212.5,
            6870208.781178779
          ],
          [
            447187.5,
            6870202.104008934
          ],
          [
            447162.5,
            6870194.389146624
          ],
          [
            447142.16962122754,
            6870187.5
          ],
          [
            447137.5,
            6870185.785998877
          ],
          [
            447112.5,
            6870176.339174929
          ],
          [
            447087.5,
            6870166.649820725
          ],
          [
            447076.98029913224,
            6870162.5
          ],
          [
            447062.5,
            6870156.575662327
          ],
          [
            447037.5,
            6870146.181005459
          ],
          [
            447018.0393663882,
            6870137.5
          ],
          [
            447012.5,
            6870135.164049166
          ],
          [
            446987.5,
            6870125.773890102
          ],
          [
            446962.5,
            6870121.897610418
          ],
          [
            446937.5,
            6870124.214726509
          ],
          [
            446912.49999999994,
            6870129.72945501
          ],
          [
            446887.5,
            6870136.371222268
          ],
          [
            446883.2491709077,
            6870137.5
          ],
          [
            446862.5,
            6870143.420058818
          ],
          [
            446837.5,
            6870150.50438871
          ],
          [
            446812.5,
            6870157.769647377
          ]
        ]
      }
    },
    {
      "type": "Feature",
      "properties": {
        "method": "transverse height maximum"
      },
      "geometry": {
        "type": "LineString",
        "coordinates": [
          [
            445862.5,
            6870277.734125349
          ],
          [
            445843.8136583542,
            6870262.500000001
          ],
          [
            445837.5,
            6870257.569973332
          ],
          [
            445812.5,
            6870243.083758458
          ],
          [
            445797.1314330148,
            6870237.5
          ],
          [
            445787.5,
            6870234.085684608
          ],
          [
            445762.5,
            6870227.974871837
          ],
          [
            445737.5,
            6870222.965530406
          ],
          [
            445712.5,
            6870218.655905372
          ],
          [
            445687.5,
            6870218.185768898
          ],
          [
            445662.50000000006,
            6870232.76822958
          ]
        ]
      }
    },
    {
      "type": "Feature",
      "properties": {
        "method": "transverse height maximum"
      },
      "geometry": {
        "type": "LineString",
        "coordinates": [
          [
            445606.8342179266,
            6870287.5
          ],
          [
            445587.5,
            6870301.92947234
          ],
          [
            445569.74142864964,
            6870312.5
          ],
          [
            445562.5,
            6870316.087331522
          ],
          [
            445537.5,
            6870329.220959842
          ],
          [
            445523.31073013984,
            6870337.5
          ],
          [
            445512.5,
            6870343.459843122
          ],
          [
            445487.5,
            6870359.1301232865
          ],
          [
            445482.70032546244,
            6870362.5
          ],
          [
            445462.5,
            6870376.235368353
          ],
          [
            445447.3348910233,
            6870387.5
          ],
          [
            445437.5,
            6870394.558330971
          ],
          [
            445414.4456514972,
            6870412.5
          ],
          [
            445412.5,
            6870413.98826875
          ],
          [
            445387.5,
            6870434.427098931
          ],
          [
            445383.8961984751,
            6870437.500000001
          ],
          [
            445362.5,
            6870455.726642122
          ],
          [
            445354.58598309057,
            6870462.5
          ],
          [
            445337.5,
            6870477.1497904975
          ],
          [
            445324.91764318047,
            6870487.5
          ],
          [
            445312.5,
            6870497.777652502
          ],
          [
            445292.5321539111,
            6870512.5
          ],
          [
            445287.5,
            6870516.471583098
          ],
          [
            445262.5,
            6870532.596588469
          ],
          [
            445252.139353603,
            6870537.500000001
          ],
          [
            445237.5,
            6870545.187336424
          ],
          [
            445212.50000000006,
            6870552.947241825
          ],
          [
            445187.5,
            6870557.813445826
          ],
          [
            445162.5,
            6870561.973615902
          ],
          [
            445159.44422939746,
            6870562.499999999
          ],
          [
            445137.5,
            6870566.591580409
          ],
          [
            445112.5,
            6870571.720902508
          ],
          [
            445087.5,
            6870577.310134616
          ],
          [
            445062.5,
            6870583.173818753
          ]
        ]
      }
    },
    {
      "type": "Feature",
      "properties": {
        "method": "transverse height maximum"
      },
      "geometry": {
        "type": "LineString",
        "coordinates": [
          [
            446578.5550147957,
            6870537.5
          ],
          [
            446580.6996361664,
            6870562.499999999
          ],
          [
            446562.5,
            6870586.908539735
          ],
          [
            446537.50000000006,
            6870582.573998052
          ],
          [
            446512.5,
            6870574.233380672
          ],
          [
            446487.5,
            6870566.152053529
          ],
          [
            446475.1623151457,
            6870562.5
          ],
          [
            446462.5,
            6870558.178211658
          ],
          [
            446437.5,
            6870550.613807457
          ],
          [
            446412.5,
            6870543.765463571
          ],
          [
            446387.52719388076,
            6870537.5
          ],
          [
            446387.5,
            6870537.491944016
          ],
          [
            446362.5,
            6870531.082507213
          ],
          [
            446337.5,
            6870525.778882975
          ],
          [
            446312.5,
            6870521.526959086
          ],
          [
            446287.5,
            6870517.774721007
          ],
          [
            446262.5,
            6870513.371739163
          ],
          [
            446258.83243178425,
            6870512.5
          ],
          [
            446237.5,
            6870507.084198356
          ],
          [
            446212.5,
            6870499.762876566
          ],
          [
            446187.5,
            6870491.827870765
          ],
          [
            446175.0922452192,
            6870487.5
          ],
          [
            446162.5,
            6870481.912951206
          ],
          [
            446137.5,
            6870469.241827759
          ],
          [
            446125.781418428,
            6870462.5
          ],
          [
            446112.5,
            6870452.170316536
          ],
          [
            446091.62668110797,
            6870437.499999999
          ],
          [
            446087.5,
            6870433.771966801
          ],
          [
            446062.5,
            6870419.0909385355
          ],
          [
            446038.2802227071,
            6870412.499999999
          ],
          [
            446037.5,
            6870412.315676286
          ],
          [
            446012.5,
            6870407.6205941485
          ],
          [
            445987.50000000006,
            6870400.840155029
          ],
          [
            445962.5,
            6870389.570636659
          ],
          [
            445959.7417639462,
            6870387.5
          ],
          [
            445937.5,
            6870365.854430008
          ],
          [
            445935.1141691229,
            6870362.5
          ],
          [
            445918.25219904736,
            6870337.5
          ],
          [
            445912.5,
            6870329.7953871
          ]
        ]
      }
    },
    {
      "type": "Feature",
      "properties": {
        "method": "transverse height maximum"
      },
      "geometry": {
        "type": "LineString",
        "coordinates": [
          [
            449262.5,
            6870683.600395864
          ],
          [
            449239.9058652915,
            6870662.5
          ],
          [
            449237.5,
            6870660.563617263
          ],
          [
            449212.5,
            6870643.585132514
          ],
          [
            449202.00977766525,
            6870637.5
          ],
          [
            449187.50000000006,
            6870631.193267397
          ],
          [
            449162.5,
            6870619.199810133
          ],
          [
            449150.6501271971,
            6870612.5
          ],
          [
            449137.50000000006,
            6870606.446299721
          ],
          [
            449112.5,
            6870591.0190379415
          ],
          [
            449107.9510103028,
            6870587.5
          ],
          [
            449087.5,
            6870574.530318091
          ],
          [
            449072.303137749,
            6870562.5
          ],
          [
            449062.49999999994,
            6870556.34589055
          ],
          [
            449037.5,
            6870537.782859852
          ],
          [
            449037.16438005585,
            6870537.5
          ],
          [
            449012.5,
            6870520.464156958
          ],
          [
            449002.3454233778,
            6870512.5
          ],
          [
            448987.49999999994,
            6870502.138550104
          ],
          [
            448968.69146547804,
            6870487.5
          ],
          [
            448962.5,
            6870483.001118129
          ],
          [
            448937.5,
            6870463.046132414
          ],
          [
            448936.8836076558,
            6870462.5
          ],
          [
            448912.5,
            6870442.1422885945
          ]
        ]
      }
    },
    {
      "type": "Feature",
      "properties": {
        "method": "transverse height maximum"
      },
      "geometry": {
        "type": "LineString",
        "coordinates": [
          [
            449362.5,
            6871432.313053726
          ],
          [
            449337.5,
            6871420.761872952
          ],
          [
            449323.9365302838,
            6871412.5
          ],
          [
            449312.5,
            6871407.766913684
          ],
          [
            449287.5,
            6871395.176050752
          ],
          [
            449274.0065251291,
            6871387.5
          ],
          [
            449262.49999999994,
            6871383.316993779
          ],
          [
            449237.5,
            6871373.922918465
          ],
          [
            449212.5,
            6871363.715058653
          ],
          [
            449209.46955963725,
            6871362.5
          ],
          [
            449187.5,
            6871356.529491951
          ],
          [
            449162.5,
            6871348.182843124
          ],
          [
            449137.99566827266,
            6871337.5
          ],
          [
            449137.5,
            6871337.333053443
          ],
          [
            449112.5,
            6871327.297778161
          ],
          [
            449087.5,
            6871313.115494497
          ],
          [
            449086.4895700873,
            6871312.5
          ],
          [
            449062.5,
            6871298.318971149
          ],
          [
            449047.5180139215,
            6871287.5
          ],
          [
            449037.50000000006,
            6871279.999237525
          ],
          [
            449016.5230856758,
            6871262.5
          ],
          [
            449012.5,
            6871259.016040531
          ],
          [
            448987.8312664961,
            6871237.5
          ],
          [
            448987.5,
            6871237.221832962
          ],
          [
            448962.5,
            6871218.234523784
          ],
          [
            448954.6151296954,
            6871212.5
          ],
          [
            448937.5,
            6871201.646371968
          ],
          [
            448914.37556378695,
            6871187.499999999
          ],
          [
            448912.49999999994,
            6871186.474007097
          ],
          [
            448887.5,
            6871173.317071148
          ],
          [
            448866.83676670137,
            6871162.5
          ],
          [
            448862.5,
            6871160.464535857
          ],
          [
            448837.5,
            6871148.225994686
          ],
          [
            448816.6264810509,
            6871137.5
          ],
          [
            448812.5,
            6871135.519649565
          ],
          [
            448787.5,
            6871122.867415354
          ],
          [
            448767.23689026106,
            6871112.5
          ],
          [
            448762.5,
            6871109.956585007
          ],
          [
            448737.5,
            6871096.837188886
          ],
          [
            448718.75786085427,
            6871087.500000001
          ],
          [
            448712.5,
            6871083.841224633
          ],
          [
            448687.5,
            6871071.332741405
          ],
          [
            448667.0311341264,
            6871062.5
          ],
          [
            448662.49999999994,
            6871060.324460254
          ],
          [
            448637.5,
            6871050.400198837
          ],
          [
            448612.5,
            6871040.1882747095
          ],
          [
            448606.21380223084,
            6871037.5
          ],
          [
            448587.50000000006,
            6871029.077500418
          ],
          [
            448562.5,
            6871016.5237600105
          ],
          [
            448554.487284116,
            6871012.5
          ],
          [
            448537.5,
            6871001.644150173
          ],
          [
            448519.4507437608,
            6870987.5
          ],
          [
            448512.5,
            6870976.966267249
          ],
          [
            448504.2777346031,
            6870962.5
          ]
        ]
      }
    },
    {
      "type": "Feature",
      "properties": {
        "method": "transverse height maximum"
      },
      "geometry": {
        "type": "LineString",
        "coordinates": [
          [
            449562.5,
            6871991.296917252
          ],
          [
            449553.7035050308,
            6871987.5
          ],
          [
            449537.5,
            6871979.152622216
          ],
          [
            449512.5,
            6871965.698669928
          ],
          [
            449507.94898958574,
            6871962.5
          ],
          [
            449487.5,
            6871946.678414859
          ],
          [
            449478.39158235013,
            6871937.5
          ],
          [
            449462.5,
            6871924.380608705
          ],
          [
            449449.6526254082,
            6871912.5
          ],
          [
            449437.5,
            6871902.89884906
          ],
          [
            449417.9588412612,
            6871887.5
          ],
          [
            449412.5,
            6871883.007785455
          ],
          [
            449387.5,
            6871864.283867137
          ],
          [
            449384.8738298079,
            6871862.5
          ],
          [
            449362.5,
            6871844.988310135
          ],
          [
            449351.81626321515,
            6871837.5
          ],
          [
            449337.5,
            6871824.422021307
          ],
          [
            449322.9284415673,
            6871812.500000001
          ],
          [
            449312.5,
            6871798.879057575
          ],
          [
            449303.2710137001,
            6871787.5
          ]
        ]
      }
    },
    {
      "type": "Feature",
      "properties": {
        "method": "transverse height maximum"
      },
      "geometry": {
        "type": "LineString",
        "coordinates": [
          [
            450000.0,
            6872241.908717394
          ],
          [
            449987.5,
            6872244.709001109
          ],
          [
            449962.5,
            6872251.477565701
          ],
          [
            449937.5,
            6872259.422824093
          ],
          [
            449928.4638596882,
            6872262.5
          ],
          [
            449912.5,
            6872266.763756426
          ],
          [
            449887.5,
            6872273.551485373
          ],
          [
            449862.5,
            6872280.982026306
          ],
          [
            449843.1918660278,
            6872287.5
          ],
          [
            449837.5,
            6872289.043584856
          ],
          [
            449812.5,
            6872295.8088566065
          ],
          [
            449787.50000000006,
            6872303.270528514
          ],
          [
            449764.622608535,
            6872312.5
          ],
          [
            449762.5,
            6872313.150029379
          ],
          [
            449737.5,
            6872319.983038843
          ]
        ]
      }
    },
    {
      "type": "Feature",
      "properties": {
        "method": "transverse height maximum"
      },
      "geometry": {
        "type": "LineString",
        "coordinates": [
          [
            447362.5,
            6872410.545767222
          ],
          [
            447337.5,
            6872390.390455081
          ],
          [
            447332.4100746952,
            6872387.5
          ],
          [
            447312.5,
            6872377.458646976
          ],
          [
            447287.5,
            6872368.066084878
          ],
          [
            447272.44177466107,
            6872362.5
          ],
          [
            447262.5,
            6872358.761207113
          ],
          [
            447237.5,
            6872347.696193059
          ],
          [
            447218.4951401761,
            6872337.5
          ],
          [
            447212.5,
            6872334.293524999
          ],
          [
            447187.5,
            6872320.07953848
          ],
          [
            447173.92380083643,
            6872312.5
          ],
          [
            447162.49999999994,
            6872304.7082457505
          ],
          [
            447139.2349194497,
            6872287.500000001
          ],
          [
            447137.50000000006,
            6872284.483557071
          ],
          [
            447131.69769936125,
            6872262.5
          ]
        ]
      }
    },
    {
      "type": "Feature",
      "properties": {
        "method": "transverse height maximum"
      },
      "geometry": {
        "type": "LineString",
        "coordinates": [
          [
            449237.5,
            6872564.521512556
          ],
          [
            449212.5,
            6872565.590639084
          ],
          [
            449187.5,
            6872569.271707473
          ],
          [
            449162.5,
            6872573.89034469
          ],
          [
            449137.5,
            6872578.352023342
          ],
          [
            449112.5,
            6872581.749028754
          ],
          [
            449087.5,
            6872584.003356455
          ],
          [
            449062.5,
            6872586.566846777
          ],
          [
            449058.8435363652,
            6872587.5
          ],
          [
            449037.5,
            6872592.561567576
          ],
          [
            449012.5,
            6872610.3736890415
          ]
        ]
      }
    },
    {
      "type": "Feature",
      "properties": {
        "method": "transverse height maximum"
      },
      "geometry": {
        "type": "LineString",
        "coordinates": [
          [
            448697.8375124428,
            6872787.5
          ],
          [
            448687.5,
            6872764.095017264
          ],
          [
            448681.249757098,
            6872762.5
          ],
          [
            448662.50000000006,
            6872758.091921622
          ],
          [
            448650.25686972693,
            6872762.5
          ],
          [
            448637.5,
            6872764.590803051
          ],
          [
            448612.5,
            6872770.531794652
          ],
          [
            448587.49999999994,
            6872777.8130307505
          ],
          [
            448562.5,
            6872786.893866403
          ],
          [
            448561.0381602777,
            6872787.5
          ],
          [
            448537.5,
            6872797.356803823
          ],
          [
            448512.50000000006,
            6872809.348105894
          ],
          [
            448506.42303327355,
            6872812.5
          ],
          [
            448487.5,
            6872823.10945573
          ],
          [
            448463.21018735575,
            6872837.5
          ],
          [
            448462.5,
            6872837.935143117
          ],
          [
            448437.5,
            6872850.848690678
          ],
          [
            448412.5,
            6872860.889282362
          ],
          [
            448407.01584686496,
            6872862.5
          ],
          [
            448387.5,
            6872867.453227519
          ],
          [
            448362.5,
            6872872.207955029
          ],
          [
            448337.49999999994,
            6872876.072621181
          ],
          [
            448312.50000000006,
            6872879.724231031
          ],
          [
            448287.5,
            6872884.358158912
          ],
          [
            448277.9332109906,
            6872887.5
          ],
          [
            448262.5,
            6872893.012080787
          ],
          [
            448245.9022808337,
            6872912.5
          ],
          [
            448237.5,
            6872920.827436644
          ]
        ]
      }
    },
    {
      "type": "Feature",
      "properties": {
        "method": "transverse height maximum"
      },
      "geometry": {
        "type": "LineString",
        "coordinates": [
          [
            447587.5,
            6873007.331265883
          ],
          [
            447562.5,
            6873012.391994964
          ],
          [
            447562.0012308091,
            6873012.5
          ],
          [
            447537.5,
            6873017.870102551
          ],
          [
            447512.5,
            6873023.0734161
          ],
          [
            447487.5,
            6873028.640916343
          ],
          [
            447462.5,
            6873035.504093455
          ],
          [
            447457.0105522845,
            6873037.499999999
          ],
          [
            447437.5,
            6873044.738993187
          ],
          [
            447412.5,
            6873056.282053927
          ],
          [
            447401.19788055937,
            6873062.5
          ],
          [
            447387.5,
            6873070.297366558
          ],
          [
            447362.50000000006,
            6873084.3420754
          ],
          [
            447356.5996456678,
            6873087.5
          ],
          [
            447337.5,
            6873098.229256679
          ],
          [
            447312.5,
            6873111.931983937
          ],
          [
            447311.5003277681,
            6873112.5
          ],
          [
            447287.5,
            6873127.232489355
          ],
          [
            447271.4169084606,
            6873137.5
          ],
          [
            447262.5,
            6873143.696519243
          ],
          [
            447237.5,
            6873161.063063193
          ],
          [
            447235.4888902124,
            6873162.5
          ],
          [
            447212.50000000006,
            6873182.072414142
          ],
          [
            447206.2168293772,
            6873187.5
          ],
          [
            447187.5,
            6873206.696506785
          ],
          [
            447180.9343250033,
            6873212.500000001
          ]
        ]
      }
    },
    {
      "type": "Feature",
      "properties": {
        "method": "transverse height maximum"
      },
      "geometry": {
        "type": "LineString",
        "coordinates": [
          [
            447162.5,
            6873228.48898876
          ],
          [
            447150.2216831968,
            6873237.5
          ],
          [
            447137.5,
            6873246.385718418
          ],
          [
            447112.5,
            6873262.154607077
          ],
          [
            447111.89785072755,
            6873262.5
          ],
          [
            447087.5,
            6873275.042980589
          ],
          [
            447062.49999999994,
            6873284.570348974
          ],
          [
            447049.0407809174,
            6873287.5
          ],
          [
            447037.5,
            6873289.724763904
          ],
          [
            447012.5,
            6873292.154312898
          ],
          [
            446987.5,
            6873294.0816974
          ],
          [
            446962.5,
            6873296.891046521
          ],
          [
            446937.50000000006,
            6873302.3574713105
          ],
          [
            446913.94350444956,
            6873312.5
          ],
          [
            446912.5,
            6873313.006238792
          ],
          [
            446887.49999999994,
            6873326.30236687
          ],
          [
            446868.50366475043,
            6873337.5
          ],
          [
            446862.5,
            6873340.744534887
          ],
          [
            446837.5,
            6873354.753764965
          ],
          [
            446822.7755804224,
            6873362.5
          ],
          [
            446812.5,
            6873368.24153875
          ],
          [
            446787.5,
            6873380.576410406
          ],
          [
            446771.5241002508,
            6873387.5
          ],
          [
            446762.5,
            6873392.038811677
          ],
          [
            446737.5,
            6873403.250647262
          ],
          [
            446714.21109843196,
            6873412.5
          ],
          [
            446712.5,
            6873413.34987458
          ],
          [
            446687.5,
            6873424.828752478
          ],
          [
            446662.5,
            6873433.585162316
          ],
          [
            446647.50018276135,
            6873437.5
          ],
          [
            446637.5,
            6873440.9357998185
          ],
          [
            446612.5,
            6873446.8358649155
          ],
          [
            446587.5,
            6873450.889497798
          ],
          [
            446562.5,
            6873454.13778547
          ],
          [
            446537.5,
            6873457.286701549
          ],
          [
            446512.5,
            6873460.916183729
          ],
          [
            446503.90015475673,
            6873462.5
          ],
          [
            446487.5,
            6873466.566147773
          ],
          [
            446462.5,
            6873473.43215879
          ],
          [
            446437.50000000006,
            6873480.331604377
          ],
          [
            446412.5,
            6873486.860350213
          ],
          [
            446409.91631000524,
            6873487.5
          ],
          [
            446387.5,
            6873494.628184101
          ],
          [
            446362.5,
            6873500.993480942
          ],
          [
            446337.5,
            6873506.013400421
          ],
          [
            446312.49999999994,
            6873510.002134171
          ],
          [
            446293.39504022594,
            6873512.5
          ],
          [
            446287.5,
            6873513.551146112
          ],
          [
            446262.5,
            6873517.373084635
          ],
          [
            446237.5,
            6873520.812376089
          ],
          [
            446212.5,
            6873523.873319912
          ],
          [
            446187.49999999994,
            6873526.467992974
          ],
          [
            446162.5,
            6873528.6704664845
          ],
          [
            446137.5,
            6873530.60909044
          ],
          [
            446112.5,
            6873532.284166287
          ],
          [
            446087.5,
            6873533.592990865
          ],
          [
            446062.50000000006,
            6873534.487506004
          ],
          [
            446037.5,
            6873534.939439567
          ],
          [
            446012.5,
            6873534.860997618
          ],
          [
            445987.5,
            6873534.200499545
          ],
          [
            445962.5,
            6873533.039199383
          ],
          [
            445937.5,
            6873531.518873077
          ],
          [
            445912.5,
            6873529.736455375
          ],
          [
            445887.5,
            6873527.724117947
          ],
          [
            445862.49999999994,
            6873525.464933808
          ],
          [
            445837.5,
            6873522.978126259
          ],
          [
            445812.5,
            6873520.71875178
          ],
          [
            445787.5,
            6873520.081295311
          ],
          [
            445762.5,
            6873522.829494617
          ],
          [
            445737.5,
            6873529.712377433
          ],
          [
            445718.1146205617,
            6873537.5
          ],
          [
            445712.5,
            6873549.481374682
          ],
          [
            445705.10414212727,
            6873562.5
          ],
          [
            445695.2378688177,
            6873587.5
          ]
        ]
      }
    },
    {
      "type": "Feature",
      "properties": {
        "method": "transverse height maximum"
      },
      "geometry": {
        "type": "LineString",
        "coordinates": [
          [
            448312.5,
            6873388.558247703
          ],
          [
            448287.5,
            6873387.639821715
          ],
          [
            448285.82433512725,
            6873387.5
          ],
          [
            448262.5,
            6873386.084902912
          ],
          [
            448237.50000000006,
            6873383.737030484
          ],
          [
            448212.5,
            6873380.536639568
          ],
          [
            448187.5,
            6873376.779077618
          ],
          [
            448162.5,
            6873373.257058868
          ],
          [
            448137.5,
            6873371.1911820555
          ],
          [
            448112.5,
            6873371.8882673485
          ]
        ]
      }
    },
    {
      "type": "Feature",
      "properties": {
        "method": "transverse height maximum"
      },
      "geometry": {
        "type": "LineString",
        "coordinates": [
          [
            445100.81386368687,
            6873887.5
          ],
          [
            445088.5721510122,
            6873862.5
          ],
          [
            445087.50000000006,
            6873862.035611209
          ],
          [
            445062.5,
            6873850.396602117
          ],
          [
            445038.2664280185,
            6873837.5
          ],
          [
            445037.5,
            6873837.186113857
          ],
          [
            445012.5,
            6873825.024413369
          ],
          [
            445000.0,
            6873817.091570913
          ]
        ]
      }
    },
    {
      "type": "Feature",
      "properties": {
        "method": "transverse height maximum"
      },
      "geometry": {
        "type": "LineString",
        "coordinates": [
          [
            449112.5,
            6873958.916915813
          ],
          [
            449087.5,
            6873961.195553859
          ],
          [
            449078.43896937795,
            6873962.5
          ],
          [
            449062.5,
            6873965.338014944
          ],
          [
            449037.5,
            6873970.768988922
          ],
          [
            449012.5,
            6873976.702841276
          ],
          [
            448987.5,
            6873982.900193452
          ],
          [
            448969.24608015874,
            6873987.5
          ],
          [
            448962.5,
            6873989.288233762
          ],
          [
            448937.5,
            6873995.070091657
          ],
          [
            448912.5,
            6873998.660216811
          ],
          [
            448887.5,
            6873999.6008526655
          ],
          [
            448862.5,
            6873998.390882198
          ],
          [
            448837.5,
            6873996.029515645
          ],
          [
            448812.5,
            6873993.611471589
          ],
          [
            448787.5,
            6873991.763515084
          ],
          [
            448762.5,
            6873990.443831272
          ],
          [
            448737.5,
            6873988.711131348
          ],
          [
            448731.7140221437,
            6873987.5
          ],
          [
            448712.5,
            6873984.377456015
          ],
          [
            448687.5,
            6873973.821868205
          ],
          [
            448666.974156915,
            6873962.5
          ]
        ]
      }
    },
    {
      "type": "Feature",
      "properties": {
        "method": "transverse height maximum"
      },
      "geometry": {
        "type": "LineString",
        "coordinates": [
          [
            446910.0682513461,
            6874137.5
          ],
          [
            446910.75060700957,
            6874112.5
          ],
          [
            446907.3383265344,
            6874087.5
          ],
          [
            446887.5,
            6874069.0906794565
          ],
          [
            446869.75551072793,
            6874062.5
          ],
          [
            446862.5,
            6874060.7184522785
          ],
          [
            446837.5,
            6874056.522613636
          ],
          [
            446812.50000000006,
            6874053.617861537
          ],
          [
            446787.5,
            6874051.678343114
          ],
          [
            446762.5,
            6874050.614933122
          ],
          [
            446737.5,
            6874050.584701891
          ],
          [
            446712.5,
            6874052.954534472
          ]
        ]
      }
    },
    {
      "type": "Feature",
      "properties": {
        "method": "transverse height maximum"
      },
      "geometry": {
        "type": "LineString",
        "coordinates": [
          [
            448312.5,
            6874314.497257389
          ],
          [
            448287.5,
            6874323.356804812
          ],
          [
            448262.5,
            6874332.361585519
          ],
          [
            448247.8413588645,
            6874337.5
          ],
          [
            448237.5,
            6874341.866224306
          ],
          [
            448212.49999999994,
            6874351.83312844
          ],
          [
            448187.5,
            6874361.063935398
          ],
          [
            448183.69783512375,
            6874362.5
          ],
          [
            448162.5,
            6874371.856497228
          ],
          [
            448137.5,
            6874382.7914147535
          ],
          [
            448126.4300098822,
            6874387.5
          ],
          [
            448112.5,
            6874393.601138534
          ],
          [
            448087.5,
            6874400.16575349
          ],
          [
            448062.49999999994,
            6874402.920990396
          ],
          [
            448037.5,
            6874403.951930788
          ],
          [
            448012.5,
            6874404.321387686
          ],
          [
            447987.5,
            6874404.455043114
          ],
          [
            447962.50000000006,
            6874404.143776445
          ],
          [
            447937.5,
            6874401.468670831
          ],
          [
            447912.5,
            6874391.093459888
          ],
          [
            447906.38304774225,
            6874387.5
          ],
          [
            447887.5,
            6874376.819289899
          ],
          [
            447862.5,
            6874367.6061054375
          ],
          [
            447846.79634030414,
            6874362.5
          ],
          [
            447837.5,
            6874359.912306443
          ],
          [
            447812.5,
            6874351.644354241
          ],
          [
            447787.5,
            6874342.161910435
          ],
          [
            447776.6127143814,
            6874337.5
          ]
        ]
      }
    },
    {
      "type": "Feature",
      "properties": {
        "method": "transverse height maximum"
      },
      "geometry": {
        "type": "LineString",
        "coordinates": [
          [
            449680.37773953285,
            6874612.5
          ],
          [
            449662.5,
            6874625.141121113
          ],
          [
            449646.52693959983,
            6874637.5
          ],
          [
            449637.5,
            6874643.734086085
          ],
          [
            449612.5,
            6874661.835589776
          ],
          [
            449611.61518883915,
            6874662.5
          ],
          [
            449587.49999999994,
            6874679.229473555
          ],
          [
            449576.11090283695,
            6874687.5
          ],
          [
            449562.5,
            6874696.847447076
          ],
          [
            449540.25013319805,
            6874712.5
          ],
          [
            449537.5,
            6874714.3839084115
          ],
          [
            449512.5,
            6874731.952701511
          ],
          [
            449504.8334036138,
            6874737.5
          ],
          [
            449487.5,
            6874749.955274297
          ],
          [
            449468.62645919406,
            6874762.5
          ],
          [
            449462.5,
            6874766.4628978195
          ],
          [
            449437.5,
            6874780.551436731
          ],
          [
            449424.5092526409,
            6874787.5
          ],
          [
            449412.5,
            6874793.784694536
          ],
          [
            449387.5,
            6874806.649969736
          ],
          [
            449376.3441145484,
            6874812.5
          ],
          [
            449362.5,
            6874819.552159718
          ],
          [
            449337.5,
            6874831.064780051
          ],
          [
            449320.18127858493,
            6874837.5
          ],
          [
            449312.5,
            6874840.366510885
          ],
          [
            449287.5,
            6874847.664649687
          ],
          [
            449262.5,
            6874854.776276038
          ],
          [
            449237.5,
            6874862.206764786
          ],
          [
            449236.463921511,
            6874862.5
          ],
          [
            449212.5,
            6874870.180498817
          ],
          [
            449187.5,
            6874877.9205447575
          ],
          [
            449162.5,
            6874885.873018322
          ],
          [
            449157.87173365254,
            6874887.5
          ],
          [
            449137.5,
            6874897.71533203
          ],
          [
            449116.5662587788,
            6874912.5
          ],
          [
            449112.5,
            6874916.515973974
          ],
          [
            449094.5232925061,
            6874937.5
          ],
          [
            449087.5,
            6874945.265898674
          ],
          [
            449072.3482196071,
            6874962.5
          ],
          [
            449062.5,
            6874971.670578589
          ],
          [
            449046.5416063808,
            6874987.5
          ],
          [
            449037.5,
            6874994.95825469
          ]
        ]
      }
    },
    {
      "type": "Feature",
      "properties": {
        "method": "transverse height maximum"
      },
      "geometry": {
        "type": "LineString",
        "coordinates": [
          [
            447058.77825979795,
            6874687.5
          ],
          [
            447037.5,
            6874697.779398153
          ],
          [
            447012.49999999994,
            6874709.830053948
          ],
          [
            447007.2746870968,
            6874712.5
          ],
          [
            446987.5,
            6874722.992535165
          ],
          [
            446962.5,
            6874735.606811415
          ],
          [
            446958.85305853875,
            6874737.5
          ],
          [
            446937.5,
            6874748.79314624
          ],
          [
            446912.5,
            6874760.918513215
          ],
          [
            446909.18393139297,
            6874762.5
          ],
          [
            446887.5,
            6874773.160050561
          ],
          [
            446862.50000000006,
            6874784.26179187
          ],
          [
            446854.9212730458,
            6874787.5
          ],
          [
            446837.5,
            6874795.278047717
          ],
          [
            446812.5,
            6874805.271009155
          ],
          [
            446792.1645888258,
            6874812.5
          ],
          [
            446787.5,
            6874814.240170477
          ],
          [
            446762.5,
            6874822.955829661
          ],
          [
            446737.5,
            6874831.7552320985
          ],
          [
            446722.17806449893,
            6874837.5
          ],
          [
            446712.5,
            6874841.701548154
          ],
          [
            446687.5,
            6874851.930801618
          ],
          [
            446662.5,
            6874860.267567074
          ],
          [
            446653.14643068577,
            6874862.5
          ],
          [
            446637.5,
            6874867.081760713
          ],
          [
            446612.5,
            6874871.398653315
          ],
          [
            446587.5,
            6874872.916742183
          ],
          [
            446562.5,
            6874872.304199001
          ],
          [
            446537.5,
            6874870.77837756
          ],
          [
            446512.5,
            6874869.775400999
          ],
          [
            446487.5,
            6874871.115582485
          ],
          [
            446462.5,
            6874877.750347655
          ],
          [
            446444.7156647326,
            6874887.5
          ]
        ]
      }
    }
  ],
  "provenance": {
    "source_url": "https://data.geopf.fr/wms-r/wms?SERVICE=WMS&VERSION=1.3.0&REQUEST=GetMap&LAYERS=ELEVATION.ELEVATIONGRIDCOVERAGE.HIGHRES&STYLES=normal&CRS=EPSG%3A2154&BBOX=444500.0%2C6869500.0%2C450500.0%2C6875500.0&WIDTH=240&HEIGHT=240&FORMAT=image%2Ftiff",
    "dataset_url": "https://www.data.gouv.fr/datasets/rge-alti-r",
    "layer": "ELEVATION.ELEVATIONGRIDCOVERAGE.HIGHRES",
    "attribution": "Crests derived from © IGN RGE ALTI · Licence Ouverte 2.0",
    "licence": "Licence Ouverte 2.0",
    "retrieved_utc": "2026-09-22T15:24:20.202399+00:00",
    "derived_utc": "2026-09-22T15:29:06.358312+00:00",
    "derivation_code_sha256": "097f79508273c65e26912088bd99b8e73fa7f20c2eed2ff01fec7fabbd3821be",
    "response_bytes": 230534,
    "response_sha256": "4a616d091f5d468a185d403aa11c961de47e5e15bf5ce478a33a9e87d63874e1",
    "terrain_file": "ign-terrain-89-1374.tif",
    "raster_bounds_epsg2154": [
      444500.0,
      6869500.0,
      450500.0,
      6875500.0
    ],
    "bounds_epsg2154": [
      445000.0,
      6870000.0,
      450000.0,
      6875000.0
    ],
    "parameters": {
      "grid_m": 25,
      "buffer_m": 500,
      "gaussian_sigma_m": 50,
      "minimum_transverse_curvature_per_m": 0.0003,
      "transverse_probe_m": 200,
      "minimum_drop_each_side_m": 5,
      "minimum_line_length_m": 200
    },
    "terrain_height_range_m": [
      31.681900024414062,
      305.5207824707031
    ],
    "method": "Gaussian-smoothed DEM; zero derivative along most concave Hessian eigenvector; negative curvature, two-sided drop and length filters. No flight coordinates used.",
    "limitations": "Approximate, scale-dependent crests; not an official or exhaustive ridge network. Gaps remain at weak ridges, orientation transitions and junctions; no invented links."
  }
}
