{
  "type": "FeatureCollection",
  "features": [
    {
      "type": "Feature",
      "id": "detail_orographique.92407",
      "geometry": {
        "type": "Point",
        "coordinates": [
          952942.6998039,
          6534376.40474562
        ]
      },
      "geometry_name": "geometrie",
      "properties": {
        "cleabs": "PAIOROGR0000000067336135",
        "nature": "Sommet",
        "nature_detaillee": null,
        "toponyme": "Crêt des Tervelles",
        "statut_du_toponyme": "Validé",
        "importance": "4",
        "date_creation": "2007-03-27T05:54:42.842Z",
        "date_modification": "2019-09-20T16:10:23.317Z",
        "date_d_apparition": null,
        "date_de_confirmation": null,
        "sources": null,
        "identifiants_sources": null,
        "methode_d_acquisition_planimetrique": "BDNyme",
        "precision_planimetrique": 30,
        "insee_commune": "74027",
        "identifiant_voie_ban": null,
        "id_ban_odonyme": null
      }
    },
    {
      "type": "Feature",
      "id": "detail_orographique.92408",
      "geometry": {
        "type": "Point",
        "coordinates": [
          953243.69980365,
          6534870.40474555
        ]
      },
      "geometry_name": "geometrie",
      "properties": {
        "cleabs": "PAIOROGR0000000067336136",
        "nature": "Sommet",
        "nature_detaillee": null,
        "toponyme": "Crêt de Pézollet",
        "statut_du_toponyme": "Validé",
        "importance": "5",
        "date_creation": "2007-03-27T05:54:42.842Z",
        "date_modification": "2019-09-20T16:10:23.317Z",
        "date_d_apparition": null,
        "date_de_confirmation": null,
        "sources": null,
        "identifiants_sources": null,
        "methode_d_acquisition_planimetrique": "BDNyme",
        "precision_planimetrique": 30,
        "insee_commune": "74027",
        "identifiant_voie_ban": null,
        "id_ban_odonyme": null
      }
    },
    {
      "type": "Feature",
      "id": "detail_orographique.92412",
      "geometry": {
        "type": "Point",
        "coordinates": [
          952611.69980416,
          6534107.50474566
        ]
      },
      "geometry_name": "geometrie",
      "properties": {
        "cleabs": "PAIOROGR0000000067336142",
        "nature": "Sommet",
        "nature_detaillee": null,
        "toponyme": "Pointe de Talamarche",
        "statut_du_toponyme": "Validé",
        "importance": "3",
        "date_creation": "2007-03-27T05:54:42.842Z",
        "date_modification": "2019-09-20T16:10:23.317Z",
        "date_d_apparition": null,
        "date_de_confirmation": null,
        "sources": null,
        "identifiants_sources": null,
        "methode_d_acquisition_planimetrique": "BDNyme",
        "precision_planimetrique": 30,
        "insee_commune": "74003",
        "identifiant_voie_ban": null,
        "id_ban_odonyme": null
      }
    },
    {
      "type": "Feature",
      "id": "detail_orographique.92414",
      "geometry": {
        "type": "Point",
        "coordinates": [
          951462.79980505,
          6534239.30474568
        ]
      },
      "geometry_name": "geometrie",
      "properties": {
        "cleabs": "PAIOROGR0000000067336144",
        "nature": "Sommet",
        "nature_detaillee": null,
        "toponyme": "Pointe Centrale",
        "statut_du_toponyme": "Validé",
        "importance": "3",
        "date_creation": "2007-03-27T05:54:42.842Z",
        "date_modification": "2019-09-20T16:10:23.317Z",
        "date_d_apparition": null,
        "date_de_confirmation": null,
        "sources": null,
        "identifiants_sources": "",
        "methode_d_acquisition_planimetrique": "BDNyme",
        "precision_planimetrique": 30,
        "insee_commune": "74003",
        "identifiant_voie_ban": null,
        "id_ban_odonyme": null
      }
    },
    {
      "type": "Feature",
      "id": "detail_orographique.92415",
      "geometry": {
        "type": "Point",
        "coordinates": [
          951362.89980511,
          6534764.20474561
        ]
      },
      "geometry_name": "geometrie",
      "properties": {
        "cleabs": "PAIOROGR0000000067336145",
        "nature": "Sommet",
        "nature_detaillee": null,
        "toponyme": "Pointe Nord",
        "statut_du_toponyme": "Validé",
        "importance": "5",
        "date_creation": "2007-03-27T05:54:42.842Z",
        "date_modification": "2019-09-20T16:10:23.317Z",
        "date_d_apparition": null,
        "date_de_confirmation": null,
        "sources": null,
        "identifiants_sources": "",
        "methode_d_acquisition_planimetrique": "BDNyme",
        "precision_planimetrique": 30,
        "insee_commune": "74003",
        "identifiant_voie_ban": null,
        "id_ban_odonyme": null
      }
    },
    {
      "type": "Feature",
      "id": "detail_orographique.92448",
      "geometry": {
        "type": "Point",
        "coordinates": [
          951599.09980496,
          6533699.60474574
        ]
      },
      "geometry_name": "geometrie",
      "properties": {
        "cleabs": "PAIOROGR0000000067336178",
        "nature": "Sommet",
        "nature_detaillee": null,
        "toponyme": "Pointe Sud",
        "statut_du_toponyme": "Validé",
        "importance": "5",
        "date_creation": "2007-03-27T05:54:42.842Z",
        "date_modification": "2019-09-20T16:10:23.317Z",
        "date_d_apparition": null,
        "date_de_confirmation": null,
        "sources": null,
        "identifiants_sources": null,
        "methode_d_acquisition_planimetrique": "BDNyme",
        "precision_planimetrique": 30,
        "insee_commune": "74275",
        "identifiant_voie_ban": null,
        "id_ban_odonyme": null
      }
    },
    {
      "type": "Feature",
      "id": "detail_orographique.92449",
      "geometry": {
        "type": "Point",
        "coordinates": [
          952598.59980422,
          6532586.90474586
        ]
      },
      "geometry_name": "geometrie",
      "properties": {
        "cleabs": "PAIOROGR0000000067336179",
        "nature": "Sommet",
        "nature_detaillee": null,
        "toponyme": "Roche Murraz",
        "statut_du_toponyme": "Validé",
        "importance": "3",
        "date_creation": "2007-03-27T05:54:42.842Z",
        "date_modification": "2019-09-20T16:10:23.317Z",
        "date_d_apparition": null,
        "date_de_confirmation": null,
        "sources": null,
        "identifiants_sources": null,
        "methode_d_acquisition_planimetrique": "BDNyme",
        "precision_planimetrique": 30,
        "insee_commune": "74003",
        "identifiant_voie_ban": null,
        "id_ban_odonyme": null
      }
    },
    {
      "type": "Feature",
      "id": "detail_orographique.92479",
      "geometry": {
        "type": "Point",
        "coordinates": [
          954378.39980287,
          6531234.70474597
        ]
      },
      "geometry_name": "geometrie",
      "properties": {
        "cleabs": "PAIOROGR0000000067336209",
        "nature": "Sommet",
        "nature_detaillee": null,
        "toponyme": "Pierre Châtelard",
        "statut_du_toponyme": "Validé",
        "importance": "5",
        "date_creation": "2007-03-27T05:54:42.842Z",
        "date_modification": "2019-09-20T16:10:23.317Z",
        "date_d_apparition": null,
        "date_de_confirmation": null,
        "sources": null,
        "identifiants_sources": null,
        "methode_d_acquisition_planimetrique": "BDNyme",
        "precision_planimetrique": 30,
        "insee_commune": "74275",
        "identifiant_voie_ban": null,
        "id_ban_odonyme": null
      }
    }
  ],
  "totalFeatures": 8,
  "numberMatched": 8,
  "numberReturned": 8,
  "timeStamp": "2026-09-22T14:44:31.488Z",
  "crs": {
    "type": "name",
    "properties": {
      "name": "urn:ogc:def:crs:EPSG::2154"
    }
  },
  "provenance": {
    "source_url": "https://data.geopf.fr/wfs/ows?SERVICE=WFS&VERSION=2.0.0&REQUEST=GetFeature&TYPENAMES=BDTOPO_V3%3Adetail_orographique&SRSNAME=EPSG%3A2154&CQL_FILTER=BBOX%28geometrie%2C950000%2C6.53e%2B06%2C955000%2C6.535e%2B06%2C%27EPSG%3A2154%27%29+AND+nature+IN+%28%27Sommet%27%2C%27Pic%27%29&OUTPUTFORMAT=application%2Fjson&COUNT=1000",
    "dataset_url": "https://www.data.gouv.fr/datasets/bd-topo-r",
    "layer": "BDTOPO_V3:detail_orographique",
    "attribution": "Summits: © IGN · BD TOPO · Licence Ouverte 2.0",
    "licence": "Licence Ouverte 2.0",
    "retrieved_utc": "2026-09-22T14:44:31.497990+00:00",
    "response_sha256": "f93a1531984ec189da2b0c55a1c27ab5abe8decb9e9a4ab107120874d6f58e60",
    "response_bytes": 6178,
    "response_feature_count": 9,
    "bounds_epsg2154": [
      950000.0,
      6530000.0,
      955000.0,
      6535000.0
    ],
    "selection": "Sommet/Pic only; exact Lambert-93 cell bounds.",
    "note": "Named summits; not a complete ridge network or DEM maxima."
  }
}
